First Name,Last Name,Institution,Department,Street Address / P.O. Box,Address Line 2,City,State / Province,Zip Code,Email,Status
Greg,Abbott,Office of the Governor,,P.O. Box 12428,,Austin,TX,78711-2428,,Matching
Chaouki,Abdallah,Georgia Institute of Technology,Executive VP of Research,North Ave NW,325,Atlanta,GA,30332,ctabdallah@gatech.edu,Matching
Alemayehu,Abebe,University of Texas Health Science Center at Houston,,"6431 Fannin St., MSB 4.108",,Houston,TX,77030,alemayehu.g.abebe@uth.tmc.edu,Matching
Shahreen,Abedin,The University of Texas at Austin,Dell Medical School,"1601 Trinity, Building A",,Austn,TX,78712,shahreen.abedin@austin.utexas.edu,Matching
John,Abraham,Purdue University,School of Mechanical Engineering,500 Allison Road,Maurice J Zucrow Laboratories,West Lafayette,IN,47907-2088,jabraham@purdue.edu,Matching
Cameron,Abrams,Drexel University,,3141 Chestnut Street,Department of Chemical and Biological Engineering,Philadelphia,PA,19104,cfa22@drexel.edu,Matching
Michelle,Addington,The University of Texas at Austin,School of Architecture,310 Inner Campus Drive,B7500,Austin,TX,78712,,Matching
Ashfaq,Adnan,University of Texas at Arlington,Mechanical & Aerospace Engineering Department,500 West 1st street # 5A,Woolf Hall,Arlington,TX,76019,aadnan@uta.edu,Matching
Ronald,Adrian,Arizona State University,Mechanical & Aerospace Engineering,501 Tyler Mall,ASU Tempe Campus,Tempe,AZ,85287,rjadrian@asu.edu,Matching
,Aguilar,Gizmodo,,114 5th Ave Fl 2,,New York,NY,10011-5611,,Matching
Timothy,Ahern,Incorporated Research Institutions for Seismology,,IRIS DMC,"1408 NE 45th Street, Suite 201",Seattle,WA,98105,tim@iris.washington.edu,Matching
Cyrus K.,Aidun,Georgia Institute of Technology,George W. Woodruff Schoolof Mechanical Engineering,801 Ferst Drive,"Love Building, Room 320",Atlanta,GA,30332-0405,cyrus.aidun@ipst.gatech.edu,Matching
Omar,Akbari,UC San Diego,Biological Sciences,9500 Gilman Drive,,La Jolla,CA,92093,,Matching
Rayhaneh,Akhavan,University of Michigan,Mechanical Engineering,2240 GGB (George G. Brown Laboratory),2350 Hayward St.,Ann Arbor,MI,48109,raa@umich.edu,Matching
Linda,Akli,Southern Universities Research Association,,1201 New York Ave. NW,Suite 430,Washington,DC,20005,akli@sura.org,Matching
Aleksei,Aksimentiev,University of Illinois at Urbanaâ€“Champaign,Loomis Laboratory of Physics,1110 West Green Street,263 LLP,Urbana,IL,61801-3080,aksiment@uiuc.edu,Matching
Davey,Alba,BuzzFeed,,111 E 18th St,,New York,NY,10003-2107,,Matching
Alisa,Alering,Science Node,"ITCO, CIB",2709 E. Tenth St.,,Bloomington,IN,47408,,Matching
Alfredo,Alexander-Katz,Massachusetts Institute of Technology,Department of Materials Science and Engineering,77 Massachusetts Ave. 12-009,,Cambridge,MA,02139,aalexand@mit.edu,Matching
Anastassia,Alexandrova,UCLA,Chemistry and Biochemistry,607 Charles E Young Dr East,Young Hall 2077B,Los Angeles,CA,90095,anastassia.alexandrova@yale.edu,Matching
Stephen ,Aley,The University of Texas at El Paso,Office of Research and Sponsored Projects,500 West University Ave.,,El Paso,TX,79968,,Matching
Bob,Allen,The University of Texas Rio Grande Valley,IT Academic ServOden Institute for Computational Engineering and Sciences,1201 West University Dr,BRUST 112B,Edinburg,TX,78539,,Matching
Stephen,Aller,"University of Alabama, Birmingham",Department of Pharmacology and Toxicology ,"Volker Hall, 140",1720 2nd Ave S,Birmingham,AL,35294,sgaller@uab.edu,Matching
Ilkay,Altintas,San Diego Supercomputer Center,,9500 Gilman Drive,MC 0505,La Jolla,CA,92093-0505,altintas@sdsc.edu,Matching
Srinivas,Aluru,Georgia Institute of Technology,Institute for Data Engineering and Science,266 Ferst Drive,1336 Klaus Advanced Computing Building,Atlanta,GA,30332,aluru@iastate.edu,Matching
Rommie,Amaro,University of California-San Diego,,"3234 Urey Hall, MC-0340",,La Jolla,CA,92093-0340,ramaro@ucsd.edu,Matching
Ross,Andersen,"Atlantic, The",,600 New Hampshire Ave NW,,Washington,DC,20037-2403,,Matching
Stuart,Anderson,California Institute of Technology,LIGO,Caltech 100-36,,Pasadena,CA,91125,anderson@ligo.caltech.edu,Matching
John,Anderson,Illinois Institute of Technology,Armour College of Engineering,10 West 33rd Street,"Perlstein Hall, Room 127",Chicago,IL,60616,John.Anderson@utsouthwestern.edu,Matching
William,Anderson,University of Texas at Dallas,,800 West Campbell Rd.,Mail Box: EC38,Richardson,TX,75080-3021,andersnb@ucar.edu,Matching
Bill,Andrews,Discover,,21027 Crossroads Cir,,Waukesha,WI,53186-4055,,Matching
Ioan,Andricioaei,"University of California, Irvine",Department of Chemistry,MC 2025,1102 Natural Sciences 2,Ann Arbor,CA,48109,andricio@umich.edu,Matching
Andrew,Annacone,TechNexus Venture Collaborative,,"20 N. Upper Wacker Dr #1200,",,Chicago,IL,60606,,Matching
Tim,Appenzeller,Science,,1200 New York Ave NW,,Washington,DC,20005-3928,,Matching
Sourabh Vasant,Apte,Oregon State University,"Mechanical, Industrial, and Manufacturing Engineering",204 Rogers Hall,,Corvallis,OR,97331,sva@engr.orst.edu,Matching
Lisa,Arafune,Coalition for Academic Scientific Computation,,626C Admiral Drive,Suite 530,Annapolis,MD,21401,,Matching
Alex,Arefiev,University of Texas at Austin,Institute for Fusion Studies,"1 University Station, C1500",,Austin,TX,78712-0262,alexey@austin.utexas.edu,Matching
Tiffany ,Armstrong,O'Donnell Foundation ,,100 Crescent Ct,#1660,Dallas,TX ,75201,,Matching
Raymundo,Arroyave,Texas A&M University,Department of Mechanical Engineering,MEOB 522,Mail Stop 3003,College Station,TX,77843-3123,rarroyave@tamu.edu,Matching
Carlos,Arteaga,The University of Texas Southwestern Medical Center ,Harold C. Simmons Comprehensive Cancer Center,5323 Harry Hines Blvd.,,Dallas,TX,75390,,Matching
Bernard,Arulanandam,The University of Texas at San Antonio,SRAVPRD-OFC SR ASSOC VP RESEA - 00959,1 UTSA Circle,,San Antonio ,TX,78249,bernard.arulanandam@utsa.edu,Matching
Elizabeth,Ashby,The University of Texas at El Paso,Office of University Communications ,500 West University Ave.,,El Paso,TX,79968,,Matching
Mohsen,Asle Zaeem,Colorado School of Mines,Department of Mechanical Engineering ,1500 Illinois St.,,Golden,CO ,80401,zaeem@mines.edu,Matching
Tulay,Atesin,The University of Texas Rio Grande Valley,Chemistry,1201 West University Dr,ESCNE 3312,Edinburg,TX,78539,tulay.atesin@utrgv.edu,Matching
Raymond,Atta-Fynn,University of Texas at Arlington,,,"Department of Physics, Room 102D Science Hall",Arlington,TX,76019,attafynn@uta.edu,Matching
Stephanie,August,National Science Foundation,Directorate for Education and Human Resources,2415 Eisenhower Avenue,W 11243,Alexandria,VA,22314,,Matching
Hessam,Babaee,University of Pittsburgh,Swanson School of Engineering,3700 O'Hara Street,,Pittsburgh,PA,15261,h.babaee@pitt.edu,Matching
David,Bader,Georgia Institute of Technology,School of Computational Science and Engineering,801 Atlantic Drive,,Atlanta,GA,30332-0280,dbader@eece.unm.edu,Matching
Prosenjit,Bagchi,Rutgers University,Mechanical and Aerospace Engineering,98 Brett Road,,Piscataway,NJ,08854,pbagchi@jove.rutgers.edu,Matching
Michelle,Bailey,Praire Lea ISD,,6910 San Marcos Hwy 80,PO Box 9,Praire Lea,TX,78661,,Matching
Chandrajit,Bajaj,The University of Texas at Austin,Oden Institute for Computational Engineering and Sciences,201 E 24TH ST,C0200,Austin,TX,78712-1229,bajaj@cs.utexas.edu,Matching
David,Baker,University of Washington,Molecular Engineering and Sciences Building,3946 W Stevens Way NE,Box 351655,Seattle,WA,98195-1655,dabaker@u.washington.edu,Matching
Perla,Balbuena,Texas A&M University,Chemical Engineering,3122 TAMU,,College Station,TX,77843,balbuena@tamu.edu,Matching
David,Baldwin,Shell ITSO - P&T SOM,,200 N Dairy Ashford Road,,Houston,TX,77079,david.baldwin@shell.com,Matching
Lowell,Ballard,The University of Texas of the Permian Basin,Business Affairs,4901 E. University Blvd.,,Odessa,TX,79762,lowell@ballardhomestead.com,Matching
Anne,Balsamo,The University of Texas at Dallas,"School of Arts, Technology, and Emergin Communication",800 W. Campbell Road,,Richardson,TX,75080-3021,,Matching
Poras,Balsara,The University of Texas at Dallas,Erik Jonnson School of Engineering and Computer Science,800 W. Campbell Road,,Richardson,TX,75080-3021,,Matching
Dinshaw,Balsara,University of Notre Dame,Department  of Physics,225 Nieuwland Science Hall,NSH 333h,NOTRE DAME,IN,46556,dbalsara@nd.edu,Matching
Sanjay,Banerjee,University of Texas at Austin,Microelectronics Research Center,10100 Burnet Rd.,,Austin,TX,78758,hong_jyh_li@mail.utexas.edu,Matching
Josh,Banta,The University of Texas at Tyler,Biology,3900 University Blvd,BEP 109,Tyler,TX,75799,,Matching
Elias,Barahona Peralta,International High School,,1012 Arthur Stiles Road,,Austin,TX,78721,,Matching
David,Barnes,MIT,Kavli Institute for Astrophysics and Space Research,77 Massachusetts Avenue,37-241,Cambridge,MA,02139,djbarnes@mit.edu,Matching
Meghan,Bartels,Newsweek,,7 Hanover Sq Fl 5,,New York,NY,10004-2674,,Matching
Aimee,Bartol,Popular Mechanics,,300 W 57th St,,New York,NY,10019-3741,,Matching
Michelle,Barton,The University of Texas M.D. Anderson Cancer Center,"Department of Epigenetics and Molecular Carcinogenesis, Unit 1000",1515 Holcombe Blvd,S9.8116B,Houston,TX,77030,mbarton@mdanderson.org,Matching
Klaus,Bartschat,Drake University,Department of Physics and Astronomy,Harvey Ingham Hall of Science,2507 University Avenue,Des Moines,IA,50311,klaus.bartschat@drake.edu,Matching
Lee,Bash,The University of Texas at Austin,University Development Office,2901 N IH 35,A3000,Austin,TX,78722,,Matching
Lori,Bassman,Harvey Mudd College,Department of Engineering,301 Platt Blvd,,Claremont,CA,91711,bassman@hmc.edu,Matching
Sarah,Bates,National Science Foundation,Office of Legislative & Public Affairs,2415 Eisenhower Avenue,W 18148,Alexandria,VA,22314,,Matching
Darrell,Bazzell,The University of Texas at Austin,Financial Affairs -- VP and CFO,PO Box 8179,G4900,Austin,TX,78713,,Matching
Roger ,Beachy,National Science Foundation,National Science Board,2415 Eisenhower Avenue,W 19200,Alexandria,VA,22314,,Matching
Jake,Beal,Raytheon BBN Technologies,,10 Moulton Street,,Cambridge,MA,02138,,Matching
Reed,Beaman,National Science Foundation,Directorate for Biological Sciences,2415 Eisenhower Avenue,W 12245,Alexandria,VA,22314,,Matching
Micah,Beck,National Science Foundation,Directorate for Computer & Information Science & Engineering ,2415 Eisenhower Avenue,E 10414,Alexandria,VA,22314,,Matching
Gregg,Beckhame,National Renewable Energy Laboratory,,15013 Denver West Parkway,,Golden,CO ,80401,gregg.beckham@nrel.gov,Matching
Oliver,Beckstein,Arizona State University,Department of Physics,P.O. Box 871504,,Tempe,AZ,85287-1504,oliver.beckstein@asu.edu,Matching
Farhat,Beg,"University of California, San Diego",Center for Energy Research,"Room 471, EBUII, 9500 Gilman Drive",,La Jolla,CA,92083,fbeg@eng.ucsd.edu,Matching
Hamid,Beladi,The University of Texas at San Antonio,ECONOMICS (COB) - 01240,1 UTSA Circle,BB 4.03.54,San Antonio ,TX,78249,,Matching
Andrei,Beloborodov,Columbia University,Department of Physics,538 W 120th Street,"910Pupin Hall, Mail Code: 5204",New York,NY,10027,,Matching
Nicole,Benedek,Cornell University,Materials Science and Engineering,126 Bard Hall,,Ithaca,NY,14853-1501,nicole.benedek@austin.utexas.edu,Matching
Richard,Benson,The University of Texas at Dallas,Office of the President,800 W. Campbell Road,,Richardson,TX,75080-3021,,Matching
Emery,Berger,University of Massachusetts in Amherst,College of Information and Computer Sciences,140 Governors Drive,344 CS Building,Amherst,MA,01003,,Matching
Andreas,Berlind,Vanderbilt University,Department of Physics and Astronomy,1225 Stevenson Center Lane,"Stevenson Center, Room 6301",Nashville,TN,37235,a.berlind@vanderbilt.edu,Matching
Ari,Berman,BioTeam,,7309 Tanaqua Lane,,Austin,TX,78739,ari@bioteam.net,Matching
Andrew,Bernat,Computing Research Association,,"1828 L Street, NW",Suite 800,Washington,DC,20036-4632,,Matching
Bruce J.,Berne,Columbia University,Department of Chemistry,3000 Broadway,MC 3103,New York,NY,10027,bb8@columbia.edu,Matching
Jay,Bernhardt,The University of Texas at Austin,Moody College of Communications,300 W. Dean Keeton,A0900,Austin,TX,78712-1069,,Matching
Jerzy,Bernholc,North Carolina State University,Department of Physics,Box 8202,,RALEIGH,NC,27695-7514,,Matching
Martin,Berzins,University of Utah,Scientific Computing and Imaging Institute,72 S Central Campus Drive,Room 3750,Salt Lake City,UT,84112,mb@cs.utah.edu,Matching
Blake,Bextine,The University of Texas at Tyler,Biology,3900 University Blvd,,Tyler,TX,75799,Bbextine@uttyler.edu,Matching
Kiran,Bhaganagar,University of Texas at San Antonio,Mechanical Engineering,3-04-16 Engineering Building,One UTSA circle,San Antonio,TX,78249,kiran.bhaganagar@utsa.edu,Matching
Daniele,Bianchi,UCLA,Atmospheric and Oceanic Sciences,Box 951565,,Los Angeles,CA,90095-1565,,Matching
Arthur,Bienenstock,Stanford University,Engineering,"496 Lomita Mall, Suite 102",,Stanford,CA,94305-4034,,Matching
Matthew,Bilskie,Louisiana State University,LSU Center for Coastal Resiliency,3255 Patrick F. Taylor Hall,,Baton Rouge,LA,70803-7507,mbilsk3@lsu.edu,Matching
J.B. ,Bird,The University of Texas at Austin,Office of the President ,110 Inner Campus Drive,G3400,Austin,TX,78712,,Matching
Sedat,Biringen,University of Colorado,Aerospace Engineering Sciences Department,ECOT-634,,Boulder,CO ,80309,sedat.biringen@colorado.edu,Matching
George ,Biros,The University of Texas at Austin,Oden Institute for Computational Engineering and Sciences/Cockrell School of Engineering,"201 E. 24th Street, POB 4.102",1 University Station (C0200),Austin,TX,78712,,Matching
Doug,Black,EnterpriseTech,,8445 Camino Santa Fe Ste 101,,San Diego,CA,92121-2649,,Matching
Michael,Blackburn,The University of Texas Health Science Center at Houston,Department of Biochemistry and Molecular Biology,6431 Fannin Street,MSB 6.102,Houston,TX,77030-1503,,Matching
Gregory A.,Blaisdell,Purdue University,School of Aeronautics and Astronautics,701 West Stadium Avenue,,West Lafayette,IN,47907-2045,blaisdel@purdue.edu,Matching
John,Blangero,The University of Texas Rio Grande Valley,S TX Diabetes and Obesity Inst,1201 West University Dr,BMAIN 131,Edinburg,TX,78539,john.blangero@utrgv.edu,Matching
Daniel,Blankschtein,Massachusetts Institute of Technology,Department of Chemical Engineering,77 Massachusetts Avenue,Room 66-350,Cambridge,MA,02139,dblank@mit.edu,Matching
Guillaume,Blanquart,California Institute of Technology,Engineering and Applied Science,1200 East California Boulevard,MC 104-44,Pasadena,CA,91125,g.blanquart@caltech.edu,Matching
Laura,Blecha,University of Florida,Department of Physics,2001 Museum Rd.,,Gainesville,FL,32611,lblecha@ufl.edu,Matching
Matthew,Block,"California State University, Sacramento",Physics and Astronomy,6000 J Street,,Sacramento,CA,95819,matthew.block@csus.edu,Matching
Philip,Blood,Pittsburgh Supercomputing Center,,300 S. Craig Street,,Pittsburgh,PA,15213,blood@psc.edu,Matching
Daniel,Bodony,University of Illinois,Department of Aerospace Engineering,313 Talbot Labs MC236,104 S. Wright St.,Urbana,IL,61801,bodony@illinois.edu,Matching
Stanislav,Boldyrev,University of Wisconsin-Madison,Department of Physics,1150 University Ave.,,Madison,WI,53706,boldyrev@wisc.edu,Matching
Roger,Bonnecaze,University of Texas at Austin,McKetta Department of Chemical Engineering,"200 E DEAN KEETON ST, Stop C0400",,Austin,TX,78712-1589,rtb@che.utexas.edu,Matching
Seth,Borenstein,Associated Press - Washington Bureau,,1100 13th St NW Ste 500,,Washington,DC,20005-4051,,Matching
Torie,Bosch,Slate - Washington Bureau,,1707 L St NW Ste 800,,Washington,DC,20036-4218,,Matching
Rajendra,Bose,Columbia University,The Mortimer B. Zuckerman Mind Brain Behavior Institute,3227 Broadway,,New York,NY,10027,,Matching
Archie,Bott,Princeton University,Department of Astrophysics,4 Ivy Lane,,Princeton,NJ,08544,abott@princeton.edu,Matching
Blaise,Bourdin,Louisiana State University,Department of Mathematics,344 Lockett Hall,,Baton Rouge,LA,70803,bourdin@math.lsu.edu,Matching
Brad,Bourque,Digital Trends,,111 SW 5th Ave Ste 1000,,Portland,OR,97204-3634,,Matching
Katherine,Bourzac,MIT Technology Review - San Francisco Bureau,,55 Francisco St Ste 850,,San Francisco,CA,94133-2121,,Matching
Alex,Bouzari,DataDirect Networks,,9351 Deering Avenue,,Chatsworth,CA,91311,,Matching
Michael,Boylan-Kolchin,University of Texas at Austin,Department of Astronomy,"2515 Speedway, Stop C1400",,Austin,TX,78712,mbk@astro.as.utexas.edu,Matching
Alan,Boyle,GeekWire,,1416 NW 46th St Ste 105,,Seattle,WA,98107-4622,,Matching
Patrick,Brandt,The University of Texas at Dallas,"School of Economic, Political and Policy Sciences",800 W. Campbell Road,GR 31,Richardson,TX,75080-3021,pbrandt@utdallas.edu,Matching
Grace,Brannigan,Rutgers University,Department of Physics,Business and Science Building,227 Penn Street,Camden,NJ,08102,gbrannig@physics.ucsb.edu,Matching
Mike,Braun,ExxonMobil Energy Centers,,22777 Springwoods Village Parkway,,Spring,TX,77389,,Matching
â€‹Molly,Bray,The University of Texas at Austin,Nutritional Sciences,103 W 24TH ST,A2703,Austin,TX,78712-1249,,Matching
Ken,Bridges,The University of Texas of the Permian Basin,Information Resources Division,4901 E. University Blvd.,Room ST2137,Odessa,TX,79762,bridges_k@utpb.edu,Matching
Neil,Bright,Georgia Institute of Technology,Partnership for an Advanced Computing Environment (PACE),Rich Building,258 Fourth Street NW,Atlanta,GA,30332-0700,,Matching
Preston,Broadfoot,The University of Texas System,,210 West 7th Street,,Austin,TX,78701-2982,pbroadfoot@utsystem.edu,Matching
Erin,Brodwin,Business Insider,,1 Liberty Plz Fl 8,,New York,NY,10006-1404,,Matching
Charles,Brooks,University of Michigan,Department of Chemistry and Biophysics,930 N. University,,Ann Arbor,MI,48109,brookscl@umich.edu,Matching
Michael,Brown,The University of Texas Southwestern Medical Center ,Erik Jonsson Center for Research in Molecular Genetics and Human Disease,5323 Harry Hines Blvd.,,Dallas,TX,75390,brown@engineering.ucsb.edu,Matching
C. Titus,Brown,"University of California, Davis",College of Biological Sciences,251 Center for Companion Animal Health,1 Shields Ave,Davis,CA,95616,ctbrown@ucdavis.edu,Matching
JoAnn,Browning,The University of Texas at San Antonio,COLLEGE OF ENGINEERING - 01300,,,San Antonio ,TX,78249,joann.browning@utsa.edu,Matching
Rich,Brueckner,insideHPC,,2825 NW Upshur St,Apt. G,Portland,OR,97210,,Matching
Geoff,Brumfiel,NPR/National Public Radio,,1111 N Capitol St NE,,Washington,DC,20002-7502,,Matching
Nicholas,Brummell,"University of California, Santa Cruz",Jack Baskin School of Engineering,"SOE2, Baskin School of Engineering, Rm BE-125",1156 High St.,Santa Cruz,CA,95064,brummell@soe.ucsc.edu,Matching
Bing,Brunton,University of Washington,Department of Biology,,Box 351800,Seattle,WA,98195,bbrunton@uw.edu,Matching
Greg L.,Bryan,Columbia University,Department of Astronomy,"1325 Pupin Physics Lab, MC 5246",550 West 120th Street,New York,NY,10027,gbryan@astro.columbia.edu,Matching
Daniel,Bryce,Smart Information Flow Technologies (SIFT),Artificial Intelligence,114 Waltham Street,Suite 24,Lexington,MA,02421,dbryce@sift.net,Matching
Jeanna,Bryner,LiveScience,,150 5th Ave Fl 9,,New York,NY,10011-4346,,Matching
Matthias,Buck,Case Western Reserve University,Department of Physiology & Biophysics,10900 Euclid Ave,School of Medicine E607,Cleveland,OH,44106-4970,mxb150@case.edu,Matching
Edward,Buckler,Cornell University,School of Integrative Plant Scienc,130 Biotechnology Building,,Ithaca,NY,14853,esb33@cornell.edu,Matching
Markus,Buehler,Massachusetts Institute of Technology,Civil and Environmental Engineering,77 Mass Ave Room 1-290,,Cambridge,MA,02139,mbuehler@MIT.EDU,Matching
Matt,Buehner,Lockhart High School,,906 Center St,,Lockhart,TX,78644,,Matching
Radek,Bukowski,The University of Texas at Austin,"Dell Medical School, Health Disovery Building","1601 Trinity, Bldg. B",Z0400,Austin,TX,78712-1871,radek.bukowski@austin.utexas.edu,Matching
James,Bullock,"University of California, Irvine",Department of Physics & Astronomy,2127 Frederick Reines Hall,,Irvine,CA,92697,bullock@uci.edu,Matching
Ann,Buneo,GE Research,High Performance Computing,One Research Circle,,Niskayuna,NY,12309,ann.buneo@ge.com,Matching
Marco,Buongiorno Nardelli,University of North Texas,,Department of Physics,"1155 Union Circle, #311427",Denton,TX,76203,mbn@unt.edu,Matching
Adam,Burrows,Princeton University,Department of Astrophysical Sciences,4 Ivy Lane ,,Princeton,NJ,08544,burrows@astro.princeton.edu,Matching
Martin,Burtscher,Texas State University,Department of Computer Science  ,601 University Drive,COMAL 309C,San Marcos,TX ,78666-4684,burtscher@txstate.edu,Matching
Sophie,Bushwick,Popular Science,,2 Park Ave Fl 9,,New York,NY,10016-5614,,Matching
Maria,Bykhovskaia,Wayne State University,School of Medicine - Department of Neurology,4201 St. Antoine,,Detroit,MI,48201,mb.ucdelcaribe@gmail.com,Matching
Catherine,Cabrera,MIT Lincoln Labs,Bioengineering Systems and Technologies Group,244 Wood Street,,Lexington,MA,02421-6426,,Matching
Kirk,Calhoun,The University of Texas Health Science Center at Tyler,Office of the President,11937 US-271,,Tyler ,TX,76708,,Matching
Kenneth,Calvert,National Science Foundation,Directorate for Computer & Information Science & Engineering ,2415 Eisenhower Avenue,E 10485,Alexandria,VA,22314,,Matching
Manuela,Campanelli,Rochester Institute of Tech,School of Mathematical Sciences,2054 Laboratory for Applied Computing,"RIT College of Science, 85 Lomb Memorial Drive",ROCHESTER,NY,14623,mxcsma@rit.edu,Matching
Roy,Campbell,High Performance Computing Modernization Program,,"10501 Furnace Road, Suite 101",,Lorton,VA,22079,,Matching
Forest,Cannon,"University of California, San Diego",Scripps Institution of Oceanography,9500 Gilman Drive,,La Jolla,CA,92037,fcannon@ucsd.edu,Matching
John,Cannon,University of Missouri,School of Medicine,M604B Medical Sciences Bldg.,,Columbia,MO,65212,cannonj@missouri.edu,Matching
Jared,Carl,NVIDIA,,2788 San Tomas Expressway,,Santa Clara,CA,95051,jared_carl@dell.com,Matching
Vincenzo,Carnevale,Temple University,College of Science and Technology,1803 N. Broad Street (041-03),"Carnell Hall, Suite 400",Philadelphia,PA,19122,,Matching
James,Carow,,,4577 Cardinal Ct,,St. Joseph,MI,49085,,Matching
Laura,Carrington,EP Analytics,,"12121 Scripps Summit Drive, Suite 130 ",,San Diego,CA,92131,laura.carrington@epanalytics.com,Matching
Kerrie,Carter,LBJ Early College High School,,7309 Lazy Creek Drive,,Austin,TX,78724,,Matching
John ,Carter,US House of Representatives,,1717 N. IH-35,Suite 303,Round Rock,TX,78664,,Matching
David,Case,Rutgers University,Department of Chemistry and Chemical Biology,"174 Frelinghuysen Road, Rm. 208b",,Piscataway,NJ,08854-8087,case@biomaps.rutgers.edu,Matching
Davide,Castelvecchi,"Nature - New York, NY Bureau",,One New York Plaza,Suite 4500,New York,NY,10004-1562,,Matching
R. Gabe,Cavazos,The University of Texas at Dallas,"Office of Research, Research Information Systems",800 W. Campbell Road,,Richardson,TX,75080-3021,gabe@utdallas.edu,Matching
Gerbrand,Ceder,"University of California, Berkeley",Materials Science and Engineering,328 Hearst Memorial Mining Building,,Berkeley,CA,94720,gceder@berkeley.edu,Matching
Paola,Cessi,Scripps Institution of Oceanography,,9500 Gilman Dr.,Mail code 0213,La Jolla,CA,92093,pcessi@ucsd.edu,Matching
Bob,Chadduck,National Science Foundation,Directorate for Computer & Information Science & Engineering ,2415 Eisenhower Avenue,E 10471,Alexandria,VA,22314,,Matching
Dhruva,Chakravorty,Texas A&M University,Vice President for Research,3361 TAMU,,College Station,TX,77843-3361,chakravorty@tamu.edu,Matching
Vicki,Chandler,Minerva,,1145 Market St,9th Floor,San Francisco,CA,94103,,Matching
Sandeep,Chandra,San Diego Supercomputer Center,,9500 Gilman Drive,MC 0505,La Jolla,CA,92093-0505,chandras@sdsc.edu,Matching
Benjamin,Chandran,University of New Hampshire,Department of Physics,242B Morse Hall,39 College Rd,Durham,NH,03824,benjamin.chandran@unh.edu,Matching
Shailesh,Chandrasekharan,Duke University,Department of Physics,Box 90305,,Durham,NC,27708-0305,sch@phy.duke.edu,Matching
Allen,Chang,The University of Texas M.D. Anderson Cancer Center,Division of Quantitative Sciences,P. O. Box 301402,,Houston,TX,77230-1402,allenchang@mdanderson.org,Matching
Philip,Chang,University of Wisconsin-Milwaukee,Department of Physics,PO BOX 413,,Milwaukee,WI,53201,chang65@uwm.edu,Matching
Sandra,Chapman,The University of Texas at Dallas,Center for Brain Health,2200 West Mockingbird Lane,,Dallas,TX,75235,,Matching
Vipin,Chaudhary,National Science Foundation,Directorate for Computer & Information Science & Engineering ,2415 Eisenhower Avenue,E 10455,Alexandria,VA,22314,,Matching
Thomas,Cheatham,University of Utah,Department of Medicinal Chemistry,"2000 East, 30 South",Skaggs Hall 201,Salt Lake City,UT,84112-5820,tec3@utah.edu,Matching
Brian,Chee,InfoWorld,,501 2nd St,,San Francisco,CA,94107-1469,,Matching
Alexander,Chekhovskoy,Northwestern University,Department of Physics and Astronomy,2145 Sheridan Road,,Evanston,IL,60208-3112,,Matching
James,Chelikowsky,The University of Texas at Austin,Oden Institute for Computational Engineering and Sciences,201 E 24TH ST,C0200,Austin,TX,78712-1229,jrc@ices.utexas.edu,Matching
Xingchao,Chen,Pennsylvania State University,,601A Walker Building,,University Park,PA,16802,xzc55@psu.edu,Matching
Jim,Chen,Computing in Science & Engineering,,"MS 4A5, George Mason University",,Fairfax,VA,22030-4444,jim-chen@northwestern.edu,Matching
Hanning,Chen,George Washington University,Department of Chemistry,Science & Engineering Hall (SEH),800 22nd St. NW,Washington,DC,20052,chenhanning@gwu.edu,Matching
Min,Chen,Michigan State University,"Department of Computational Mathematics, Science and Engineering","Room 2507E, Engineering Building",428 South Shaw Lane,East Lansing,MI,48824,chenmi22@msu.edu,Matching
Alan,Chen,SUNY at Albany,College of Arts and Sciences,1400 Washington Ave,Chemistry 123,Albany,NY,12222,mchen01@u.washington.edu,Matching
â€‹Thomas,Chen,The University of Texas at Austin,Mathematics,2515 SPEEDWAY,C1200,Austin,TX,78712-1202,,Matching
Chun-Liang,Chen,The University of Texas Health Science Center at San Antonio,Department of Molecular Medicine,7704 Floyd Curl Drive,,San Antonio,TX,78229,,Matching
Jianhan,Chen,UMASS Amherst,Department of Chemistry,"Life Science Laboratories, Suite S585",240 Thatcher Way,Amherst,MA,01003-9364,jianhanc@ksu.edu,Matching
Liao,Chen,University of Texas at San Antonio,Department of Physics and Astronomy,One UTSA Circle,,San Antonio,TX,78249,Liao.Chen@utsa.edu,Matching
Yong,Chen,University of Texas Health Science Center at Houston,,1200 pressler street,W932,Houston,TX,77030,cecheny@uiuc.edu,Matching
Angela,Chen,"Verge, The",,85 Broad St Fl 15,Attn: the Verge,New York,NY,10004-2434,chen398@illinois.edu,Matching
Huck Beng,Chew,University of Illinois,Department of Aerospace Engineering,306H Talbot Laboratory MC 236,104 S. Wright,Urbana,IL,61801,hbchew@illinois.edu,Matching
Ken ,Chiacchia,Pittsburgh Supercomputing Center,External Relations,300 S. Craig Street,,Pittsburgh,PA,15213,,Matching
Greg,Childers,"California State University, Fullerton",Department of Physics,800 N. State College Blvd.,,Fullerton,CA,92834,gchilders@fullerton.edu,Matching
Monica,Chin,Tom's Guide,,11 W 42nd St Fl 15,,New York,NY,10036-8002,,Matching
Wah,Chiu,Baylor College of Medicine,Department of Biochemistry and Molecular Biology,One Baylor Plaza,Mail Stop: BCM125,Houston,TX,77030,wah@bcm.edu,Matching
Brad,Choate,The University of Texas at Austin,University Development Office,405 W 25TH STREET,F1000,Austin,TX,78705,,Matching
Lillian T.,Chong,University of Pittsburgh,Department of Chemistry,219 Parkman Avenue,Chevron Science Center,Pittsburgh,PA,15260,ltchong@pitt.edu,Matching
Meghali,Chopra,SandBox Semiconductor,,54 Rainey Street,,Austin,TX,78701,meghali.chopra@sandboxsemiconductor.com,Matching
Amit,Choudhary,Harvard University,Harvard Institute of Medicine,4 Blackfan Circle,,Boston,MA  ,02215,,Matching
Almadena,Chtchelkanova,National Science Foundation,Directorate for Computer & Information Science & Engineering ,2415 Eisenhower Avenue,W 10247,Alexandria,VA,22314,achtchel@nsf.gov,Matching
George,Church,Harvard University,Department of Genetics ,77 Avenue Louis Pasteur,NRB 238,Boston,MA,02115,,Matching
Clay,Clark,The University of Texas at Arlington,Department of Biology,701 S. Nedderman Drive,,Arlington,TX,76019,,Matching
Robert,Clark,The University of Texas Health Science Center at San Antonio,Graduate School of Biomedical Sciences,7705 Floyd Curl Drive,,San Antonio,TX,78229,Rjclark2@uh.edu,Matching
Rance,Cleaveland,National Science Foundation,Directorate for Computer & Information Science & Engineering ,2415 Eisenhower Avenue,W10231,Alexandria,VA,22314,,Matching
Noel,Clemens,The University of Texas at Austin,Aerospace Engineering and Engineering Mechanics,210 E 24TH ST,C0600,Austin,TX,78712-1221,clemens@mail.utexas.edu,Matching
Doug,Cline,Lockheed Martin Aeronautics Corporation,,PO Box 748,Mail Zone 8656,Ft Worth,TX,76101,,Matching
Ronald E.,Cohen,Carnegie Institution of Washington,,5251 Broad Branch Road N.W.,,Washington,DC,20015,rcohen@ciw.edu,Matching
Marvin L.,Cohen,"University of California, Berkeley",Department of Physics,366 LeConte Hall,#7300,Berkeley,CA,94720-7300,mlcohen@berkeley.edu,Matching
Laura,Colgin,University of Texas at Austin,Center for Learning and Memory,1 University Station Stop C7000,,Austin,TX,78712-0805,colgin@mail.clm.utexas.edu,Matching
Yeman,Collier,The University of Texas Health Science Center at San Antonio,Office of the President,7707 Floyd Curl Drive,,San Antonio,TX,78229,,Matching
Lance,Collins,Cornell University,Cornell Engineering,242 Carpenter Hall,313 CAMPUS RD.,Ithaca,NY,14853,lc246@cornell.edu,Matching
David,Collins,Florida State University,Department of Physics,77 Chieftan Way,,Tallahassee,FL,32306-4350,dccollins@fsu.edu,Matching
James,Collins,Wyss Institute,Center for Life Science Building,3 Blackfan Circle,,Boston,MA,02115,JamesJ.collins@utsouthwestern.edu,Matching
Toni,Collis,Women in HPC,,"Three Springs Cottage, Kirkhill","Legerwood, Earlston",Berwickshire,United Kingdom,TD4 6AT,toni.collis@chi.scot,Matching
Timothy,Colonius,California Institute of Technology,Division of Engineering and Applied Sciences,Mail Code 104-44,1200 E. California Blvd.,Pasadena,CA,91125,acolonius@caltech.edu,Matching
Bruno,Conche,Total E&P Research & Technology USA,,1201 Louisiana Street,Suite 1800,Houston,TX,77002,,Matching
Maureen,Condic,National Science Foundation,National Science Board,2415 Eisenhower Avenue,W 19200,Alexandria,VA,22314,,Matching
Alan,Condron,Woods Hole Oceanographic Institution,Geology & Geophysics,266 Woods Hole Rd.,MS#24,Woods Hole,MA,02543-1050,acondron@geo.umass.edu,Matching
Josh,Constine,TechCrunch,,410 Townsend St Ste 100,,San Francisco,CA,94107-1524,,Matching
Gregory,Cooper,The OffOden Institute for Computational Engineering and Sciences at Baum,,5607 Baum Boulevard,Room 524,Pittsburgh,PA,15206,,Matching
France,CÃ³rdova,National Science Foundation,Office of the Director,2415 Eisenhower Avenue,W 19140,Alexandria,VA,22314,,Matching
John ,Cornyn ,US Senate,,221 West 6th Street,"Chase Tower, Suite 1530",Austin,TX,78701,,Matching
Peter,Couvares,Syracuse University,Department of Physics,245 Physics Building,,Syracuse,NY,13244,pfc@cs.wisc.edu,Matching
Steven ,Covin,Lanier High School,,1201 Payton Gin Rd,,Austin,TX,78758,,Matching
Lindsay,Cowell,The University of Texas Southwestern Medical Center ,Department of Clinical Sciences,5323 Harry Hines Blvd.,,Dallas,TX,75390,lindsay.cowell@utsouthwestern.edu,Matching
Matthew,Cowperthwaite,St. David's HealthCare,Office of Research,"1015 East 32nd Street, Suite 414",,Austin,TX,78705,mattccowp@mac.com,Matching
Donna,Cox,National Center for Supercomputing Applications,,"1205 W. Clark St., MC-257",Room 1008,Urbana,IL,61801,,Matching
Chris,Craighill,Commonwealth Fusion Systems,,,501 Massachusetts Avenue,Cambridge,MA,02139,ccraighill@cfs.energy,Matching
Jenn,Crawford,The University of Texas at El Paso,Office of University Communications ,500 West University Ave.,,El Paso,TX,79968,,Matching
Fleming,Crim,National Science Foundation,Office of the Director,2415 Eisenhower Avenue,W19110,Alexandria,VA,22314,,Matching
Lynn,Crismon,The University of Texas at Austin,College of Pharmacy,1 University Station,A1900,Austin,TX,78712,,Matching
Peter,Crouch,The University of Texas at Arlington,College of Engineering,"634 Nedderman Hall, 416 Yates Street, Box 19019",,Arlington,TX,76019-0019,,Matching
Leon,Cruz,The University of Texas at El Paso,Technology Support ,500 West University Ave.,,El Paso,TX,79968,,Matching
Ted,Cruz,US Senate,,300 E. 8th Street,Suite 961,Austin,TX,78701,,Matching
Qiang,Cui,Boston University,Department of Chemistry,"590 Commonwealth Avenue, Room 299",,Boston,MA,02215-2521,qiangcui@bu.edu,Matching
Yifeng,Cui,"University of California, San Diego",San Diego Supercomputing Center,9500 Gillman Drive,MC 0505,La Jolla,CA,92093-0505,yfcui@sdsc.edu,Matching
Bree,Cummins,Montana State University,Department of Mathematical Studies,P.O. Box 172400,Wilson Hall 2-249,Bozeman,MT,59717-2400,,Matching
Michael,Cunningham,The University of Texas at Austin,ITS,"2304 Whitus Ave., K6000",,Austin,TX,78705,,Matching
Janice,Cuny,Northeastern University,Khoury College of Computer Sciences,440 Huntington Avenue ,202 West Village H,Boston,MA,02115,,Matching
Julianne,Dalcanton,University of Washington,Department of Astronomy,Physics-Astronomy Bldg,"3910 15th Ave NE, PO Box 351580, U.W.",SEATTLE,WA,98195,jd@astro.washington.edu,Matching
Gaudenz,Danuser,The University of Texas Southwestern Medical Center ,Lyda Hill Department of Bioinformatics,5323 Harry Hines Blvd.,,Dallas,TX,75390,,Matching
Gautam,Das,The University of Texas at Arlington,Department of Computer Science & Engineering,"626, Engineering Research Building",500 UTA Blvd,Arlington,TX,76019,,Matching
Dibakar,Datta,NJIT,Mechanical Engineering Center,200 Central Ave,NJIT Suite 204,Newark,NJ,07103,dibakar_datta@brown.edu,Matching
Shane,Davis,University of Virginia,Department of Astronomy,PO Box 400325,"Office Astronomy, Rm 214",Charlottesville,VA,22904-4325,swd8g@virginia.edu,Matching
Clint ,Dawson,The University of Texas at Austin,Oden Institute for Computational Engineering and Sciences/Cockrell School of Engineering,210 E. 24th Street,C0200,Austin,TX,78712,,Matching
Laurie,De La Paz,The University of Texas at San Antonio,COLLEGE OF ENGINEERING,1 UTSA Circle,,San Antonio ,TX,78249,,Matching
Pablo,Debenedetti,Princeton University,Department of Chemical and Biological Engineering,107 91 Prospect Avenue,,Princeton,NJ,08544,pdebene@princeton.edu,Matching
Stephen,Deems,Pittsburgh Supercomputing Center,,300 S. Craig Street,,Pittsburgh,PA,15213,deems@psc.edu,Matching
Mark,Deinert,The Colorado School of Mines,Department of Mechanical Engineering,1500 Illinois St.,Brown Hall W370A,Golden,CO,80401,mrd6@cornell.edu,Matching
Borries,Demeler,University of Texas Health Science Center at San Antonio,Department of Biochemistry and Structural Biology,7703 Floyd Curl Drive,MC 7760,San Antonio,TX,78229-3901,demeler@biochem.uthscsa.edu,Matching
Alex,Demkov,The University of Texas at Austin,Oden Institute for Computational Engineering and Sciences,2515 SPEEDWAY,C1600,Austin,TX,78712-1192,demkov@physics.utexas.edu,Matching
Doug,Dempster,The University of Texas at Austin,College of Fine Arts,1 University Station,D1400,Austin,TX,78712,,Matching
Jeffrey,Demuth,The University of Texas at Arlington,Department of Biology,701 S. Nedderman Drive,,Arlington,TX,76019,,Matching
Inderjit,Dhillon,The University of Texas at Austin,Oden Institute for Computational Engineering and Sciences,2317 SPEEDWAY,D9500,Austin,TX,78712-1757,inderjit@cs.utexas.edu,Matching
Tiziana ,Di Matteo,Carnegie-Mellon University,Department of Physics,5000 Forbes Avenue,,PITTSBURGH,PA,15213,,Matching
Marc,Diamond,The University of Texas Southwestern Medical Center ,"Center for Alzheimerâ€™s and Neurodegenerative Diseases, and Professor, Department of Neurology and Neurotherapeutics",5323 Harry Hines Blvd.,,Dallas,TX,75390,,Matching
Mariette,DiChristina,Boston University,College of Communication,"640 Commonwealth Ave., Room 110",,Boston,MA,02215,,Matching
Julie,Dickerson,Iowa State University,Department of Electrical and Computer Engineering,3123 Coover Hall,,Ames,IA,50011,,Matching
â€‹Robert,Dickey,The University of Texas at Austin,Marine Sciences Institute,750 Channel View Drive,,Port Aransas,TX,78373,,Matching
Randy,Diehl,The University of Texas at Austin,College of Liberal Arts,116 Inner Campus Drive,G6000,Austin,TX,78712,,Matching
Peter,Diener,Louisiana State University,Department of Physics & Astronomy,1079 Digital Media Center,,Baton Rouge,LA,70803-4001,diener@cct.lsu.edu,Matching
Joel,Dietrich,North Carolina State University at Raleigh,"Department of Civil, Construction and Environmental Engineering","Mann Hall, Room 319C",2501 Stinson Drive,Raleigh,NC,27607,caseydietrich@gmail.com,Matching
Ken,Dill,SUNY at Stony Brook,Laufer Center for Physical and Quantitative Biology,5252 Stony Brook University,,Stony Brook,NY,11794-0001,dill@zimm.compbio.ucsf.edu,Matching
Clay,Dillow,Fortune,,225 Liberty St Fl 7,,New York,NY,10281-1012,,Matching
Nicholas,Dimakis,The University of Texas Rio Grande Valley,Physics and Astronomy,1201 West University Dr,EPHYS 1118B,Edinburg,TX,78539,dimakis@utpa.edu,Matching
Duane,Dimos,The University of Texas at Arlington,Office of Research,701 S. Nedderman Drive,,Arlington,TX,76019,,Matching
Aaron,Dinner,University of Chicago,Department of Chemistry,5735 S Ellis Ave,,Chicago,IL,60637,,Matching
Thomas,Doak,Indiana University,Department of Biology,1001 E. 3rd St,,Bloomington,IN,47405,tdoak@indiana.edu,Matching
Lloyd,Doggett,US House of Representatives,,300 E. 8th Street,4th Floor,Austin,TX,78701,,Matching
Ali ,Dogru,Aramco Services Company,,P.O Box 1320 Aramco,,Dhahran,Saudi Arabia,31311,,Matching
Emily,Donahue,KUT-FM,,300 W Dean Keeton St Stop A0704,,Austin,TX,78712-1061,,Matching
Diego,Donzis,Texas A&M University,Department of Aerospace Engineering,701 H.R. Bright Bldg,HRBB 605,College Station,TX,77843-3141,donzis@tamu.edu,Matching
William,Dorland,"University of Maryland, College Park",Department of Physics,Anne Arundel Hall,,College Park,MD,20742,bdorland@umd.edu,Matching
Charles,Doubleday,Columbia University,Department of Chemistry,3000 Broadway,MC 3142,New York,NY,10027,ced3@columbia.edu,Matching
Jennifer,Doudna,UC Berkeley,Biochemistry and Moleular Biology,2151 Berkeley Way,MS5230,Berkeley,CA,94704,,Matching
Marlis,Douglas,University of Arkansas,Dept. of Biological Sciences,1 University of Arkansas,SCEN 735,Fayetteville,AR,72701,mrd1@uark.edu,Matching
Brian,Dourty,The University of Texas at Dallas,Office of Information Technology,17217 Waterview Parkway,,Dallas,TX,75252,brd150330@utdallas.edu,Matching
Jerry,Draayer,Louisiana State University,Department of Physics and Astronomy,"221-E Nicholson Hall, Tower Dr.",,Baton Rouge,LA,70803,,Matching
Ann,Drobnis,Computing Community Consortium,,"1828 L Street, NW",Suite 800,Washington,DC,20036-4632,,Matching
Lian,Duan,Missouri University of Science and Technology,Department of Mechanical and Aerospace Engineering,400 W 13th St,,Rolla,MO,65409,duan.322@osu.edu,Matching
Jen,Duthie,City of Austin,Austin Transportation Department,P.O. Box 1088,,Austin,TX,78767-1088,,Matching
Jay,Dyer,UT Austin,Office of the President,110 Inner Campus Drive,G3400,Austin,TX,78712,,Matching
William,Easterling,National Science Foundation,Directorate for Geosciences,2415 Eisenhower Avenue,C 8004,Alexandria,VA,22314,,Matching
Brandon,Echter,Science Friday - WNYC-AM,,19 W 44th St Ste 412,,New York,NY,10036-5900,,Matching
Joseph,Ecker,Salk Institute for Biological Studies,,10010 North Torrey Pines Road,,La Jolla,CA,92037,ecker@salk.edu,Matching
Robert G.,Edwards,Jefferson Laboratory,,MS 12H2,12000 Jefferson Avenue,Newport News,VA,23606,edwards@jlab.org,Matching
Robert,Edwards,San Diego State University,Department of Computer Science,5500 Campanile Dr,PS 106,San Diego,CA,92182,redwards@mcs.anl.gov,Matching
Rudolf,Eigenmann,University of Delaware,Electrical and Computer Engineering,202 Evans Hall,,Newark,DE,19716,eigenman@purdue.edu,Matching
Jaafar,El-Awady,Johns Hopkins University,Department of Mechanical Engineering,124 Latrobe Hall,3400 North Charles Street,Baltimore,MD,21218-2682,jelawady@jhu.edu,Matching
Ron,Elber,The University of Texas at Austin,Oden Institute for Computational Engineering and Sciences,201 E 24TH ST,C0200,Austin,TX,78712-1229,ron@ices.utexas.edu,Matching
Carl,Engelking,Discover Online,,21027 Crossroads Cir,,Waukesha,WI,53186-4055,,Matching
Jeremy,Epstein,National Science Foundation,Directorate for Computer & Information Science & Engineering ,2415 Eisenhower Avenue,E 10346,Alexandria,VA,22314,,Matching
Mattan,Erez,University of Texas at Austin,Department of Electrical and Computer Engineering,"2501 SPEEDWAY, Stop C5000",,Austin,TX,78712,mattan.erez@mail.utexas.edu,Matching
Fernando,Escobedo,Cornell University,College of Engineering,377 Olin Hall,,Ithaca,NY,14853,fescobed@ncsa.uiuc.edu,Matching
Horacio,Espinosa,Northwestern University,McCormick School of Engineering,2145 Sheridan Road,Tech A212,Evanston,IL,60208-3111,espinosa@northwestern.edu,Matching
Ruben,Esquivel,The University of Texas Southwestern Medical Center ,Office of Community and Corporate Relations,5323 Harry Hines Blvd.,,Dallas,TX,75390,,Matching
Kevin,Esvelt,MIT,MIT Media Lab,77 Mass. Ave.,E14/E15,Cambridge,MA,02139-4307,,Matching
Angela,Evans,The University of Texas at Austin,"Dean, LBJ School of Public Affairs",2300 RED RIVER ST,E2700,Austin,TX,78712-1434,,Matching
Kelsey,Evans,The University of Texas at Austin,Office of VP of Development,2901 N IH 35,A3000,Austin,TX,78722,,Matching
Eric,Fahrenthold,The University of Texas at Austin,Mechanical Engineering,"204 E DEAN KEETON ST,",Stop C2200,Austin,TX,78712-1591,epfahren@mail.utexas.edu,Matching
Shanhui,Fan,Stanford University,Dept. of Electrical Engineering ,348 Via Pueblo Mall,"Spilker Bldg, Room 314",Stanford,CA,94305,shanhui@stanford.edu,Matching
Rob,Farber,Tech Enablement,,PO Box 2793,,Gig Harbor,WA,98335,rmfarber@gmail.com,Matching
Charbel,Farhat,Stanford University,Mechanical Engineering,"William F. Durand Building, Rm. 257",496 Lomita Mall,Stanford,CA,94305-4035,cfarhat@stanford.edu,Matching
Ward,Farnsworth,The University of Texas at Austin,"Dean, School of Law",727 E. Dean Keeton St,D1800,Austin,TX,78705-3299,,Matching
Claude-Andre,Faucher-Giguere,Northwestern University,Astrophysics and Cosmology,2145 Sheridan Road,,Evanston,IL,60208-3112,cgiguere@northwestern.edu,Matching
Frank,Feagans,The University of Texas at Dallas,"CIO, Office of Information Technology",842 Loop Road SW,,Richardson,TX,75080-3021,fxf151230@utdallas.edu,Matching
Michael,Feig,Michigan State University,Computational Biophysics,603 Wilson Road,Room 218 BCH,East Lansing,MI,48824,feig@msu.edu,Matching
Gerald,Feigenson,Cornell University,Dept. of Molecular Biology & Genetics ,526 Campus Road,107 Biotechnology Building,Ithica,NY,14853-2703,gwf3@cornell.edu,Matching
Yusheng,Feng,The University of Texas at San Antonio,Mechanical Engineering,One UTSA Circle,EB 3.04.02,San Antonio ,TX,78249,feng@ices.utexas.edu,Matching
Gregory,Fenves,The University of Texas at Austin,Office of the President,110 Inner Campus Drive,G3400,Austin,TX,78712,fenves@ce.berkeley.edu,Matching
Antonino,Ferrante,University of Washington,Computational Fluid Dynamics,Box 352400,,Seattle,WA,98195-2400,ferrante@aa.washington.edu,Matching
Carlos,Ferregut,The University of Texas at El Paso,Department of Chemistry,500 West University Ave.,,El Paso,TX,79968,,Matching
Kristen,Fichthorn,Pennsylvania State University,Chemical Engineering Department,119 Greenberg Complex,,University Park,PA,16802-4400,fichthorn@psu.edu,Matching
Sherry,Field,The University of Texas at Austin,College of Education,1912 Speedway,D5700,Austin,TX,78712-1293,,Matching
Gregory,Fiete,The University of Texas at Austin,Depatment of Physics,2515 Speedway,C1600,Austin,TX,78712-1192,fiete@physics.utexas.edu,Matching
Marta,Filizola,Icahn School of Medicine at Mount Sinai,"Dean, Biomedical Sciences",One Gustave L. Levy Place,,New York,NY,10029-6574,marta.filizola@mssm.edu,Matching
â€‹Janice,Fischer,The University of Texas at Austin,Department of Molecular Biosciences,2506 SPEEDWAY,A5000,Austin,TX,78712-1191,,Matching
Andras,Fiser,Albert Einstein College of Medicine,Department of Biochemistry,1301 Morris Park Avenue,Room 453A,Bronx,NY,10461,andras.fiser@einstein.yu.edu,Matching
Larry,Fisher,Communications of the ACM,"Senior Editor, News",588 Broadway #503,,New York,NY,10012,,Matching
Karl,Fisher,The University of Texas at Austin,Applied Research Laboratory,10000 Burnet Road,F0233,Austin,TX,78758,,Matching
Robert T.,Fisher,"University of Massachusetts, Dartmouth",College of Engineering,285 Old Westport Road,,North Dartmouth,MA,02747-2300,robert.fisher@umassd.edu,Matching
Alex,Fitzpatrick,TIME Online,Journalist,225 Liberty St,,New York,NY,10281-1008,,Matching
Karen,Fleming,Johns Hopkins University,Department of Biophysics,420 Jenkins Hall,,Baltimore,MD,21218,karen.fleming@jhu.edu,Matching
Lizzie,Fletcher,U.S. House of Representatives,,1429 Longworth HOB,,Washington,DC,20515,,Matching
Bill,Flores,U.S. House of Representatives,,14205 Burnet Road,Suite 230,Austin,TX ,78728,,Matching
John,Foster,The University of Texas at Austin,Petroleum and Geosystems Engineering,200 E. Dean Keeton,Stop C0300,Austin,TX,78712-1585,jfoster@austin.utexas.edu,Matching
Patrick,Fragile,College of Charleston,Department of Physics and Astronomy,66 George Street,,Charleston,SC,29424,fragilep@cofc.edu,Matching
Rosemary,Francis,Ellexus Ltd,Founder and CEO,St. John's Innovation Centre,Cowley Road,Cambridge,United Kingdom,CB4 0WS,,Matching
Adam,Frank,University of Rochester,Physics and Astronomy,206 Bausch & Lomb Hall,,Rochester,NY,14627-0171,afrank@pas.rochester.edu,Matching
Deborah,Franklin,NPR/National Public Radio Online,Science Editor,1111 N Capitol St NE,,Washington,DC,20002-7502,,Matching
Sue ,Fratkin,Fratkin Associates,Consultant,2322 20th Street NW,,Washington,DC,20009,,Matching
Nick,Frearson,Lamont-Doherty Earth Observatory (LDEO),Marine Geology and Geophysics,61 Route 9W - PO Box 1000,107B Oceanography,Palisades,NY,10964-8000,,Matching
Anna,Frebel,Massachusetts Institute of Technology,Physics,77 Massachusetts Avenue,37-664C,Cambridge,MA,02139-4307,afrebel@mit.edu,Matching
Jared,Freeman,Aptima Inc,Chief Scientist,12 Gill Street,Suite 1400,Woburn,MA,01801,freeman@aptima.com,Matching
Alfredo,Freites,"University of California, Irvine",Department of Chemistry,,,Irvine,CA,92697,jfreites@uci.edu,Matching
Amy,Friedlander,National Science Foundation,CISE Directorate ,2415 Eisenhower Avenue,E 10467,Alexandria,VA,22314,,Matching
Sarah,Frier,Bloomberg News - San Francisco Bureau,Reporter,3 Pier Ste 101,,San Francisco,CA,94111-2036,,Matching
W. Kent,Fuchs,University of Florida,Office of the President,226 Tigert Hall,PO Box 113150,Gainesville,FL,32611,,Matching
David,Fuentes,The University of Texas MD Anderson Cancer Center,Department of Imaging Physics,1515 Holcombe Blvd.,,Houston,TX,77030,dtfuentes@mdanderson.org,Matching
â€‹Donald,Fussell,The University of Texas at Austin,Department of Computer Science,2317 Speedway,D9500,Austin,TX,78712-1757,,Matching
Omar ,Gallaga,,,1635 Lantana Circle,,New Braunfels,TX,78130,,Matching
Irene M.,Gamba,The University of Texas at Austin,Institute for Computational Engineering and Science,2515 Speedway,Stop C1200,Austin,TX,78712-1202,gamba@math.utexas.edu,Matching
Baskar,Ganapathysubramanian,Iowa State University,Computational Physics,,,Ames,IA,50011,baskarg@iastate.edu,Matching
Venkat,Ganesan,The University of Texas at Austin,Department of Chemical Engineering,200 E. Dean Keeton Street,Stop C0400,Austin,TX,78712-1589,venkat@che.utexas.edu,Matching
Byron,Gao,Texas State University,Department of Computer Science,601 University Drive,CMAL 311D,San Marcos,TX,78666-4684,,Matching
Angel,Garcia,Rensselaer Polytechnic Institute,Dept. of Chemical and Biological Engineering,110 8th Street,,Troy,NY,12180,agarcia@lanl.gov,Matching
Juan,Garcia,The University of Texas at Austin,University Development Office,2901 N IH 35,A3000,Austin,TX,78722,,Matching
Sandra,Garcia,The University of Texas of the Permian Basin,Graduate Studies and Research,4901 E. University Blvd.,Room MB 1208B,Odessa,TX,79762,,Matching
Christina,Garcia-Mata,Akins High School,,10701 S. 1st St.,,Austin,TX,78748,,Matching
Robert,Gardner,University of Chicago,Enrico Fermi Institute,933 East 56th Street,,Chicago,IL,60637,rwg@hep.uchicago.edu,Matching
Dean,Garfield,Information Technology Industry Council,President and CEO,"1101 K St., NW",Suite 610,Washington,DC,20005,,Matching
Suresh,Garimella,Purdue University,School of Mechanical Engineering and Birck Nanotechnology Center,585 Purdue Mall,,West Lafayette,IN,47907-2088,sureshg@purdue.edu,Matching
Vikram,Gavini,University of Michigan,Computational Material Physics Group,2350 Hayward St.,1640 GGB,Ann Arbor,MI,48109-2125,vikramg@umich.edu,Matching
Mattia,Gazzola,University of Illinois,Grainger College of Engineering,1308 W Green St,256 Computing Applications Building,Urbana,IL,61801,mgazzola@illinois.edu,Matching
Karl,Gebhardt,The University of Texas at Austin,Department of Astronomy,"2515 Speedway, Stop C1400",Stop C1400,Austin,TX,78712-1205,gebhardt@astro.as.utexas.edu,Matching
Dave,Gershgorn,Quartz,Artificial Intelligence Reporter,675 Avenue of the Americas Fl 4,,New York,NY,10010-5117,,Matching
Sharon Broude,Geva,University of Michigan,Advanced Computing Research,540 E. Liberty,Suite 202,Ann Arbor,MI,48104,,Matching
Omar ,Ghattas,The University of Texas at Austin,Oden Institute for Computational Engineering and Sciences/Geological Sciences,201 East 24th Street ,Stop C0200,Austin,TX,78712-1229,,Matching
Elodie,Ghedin,New York University,Department of Epidemiology,715/719 Broadway,,New York,NY,10003,elodie.ghedin@nyu.edu,Matching
Erwin,Gianchandani,National Science Foundation,Directorate for Computer & Information Science & Engineering ,2415 Eisenhower Avenue,C 10004,Alexandria,VA,22314,,Matching
Frederic,Gibou,"University of California, Santa Barbara",Mechanical Engineering,"Engineering ii Bldg, Office 2335",,Santa Barbara,CA,93106-5070,fgibou@engr.ucsb.edu,Matching
Robert,Gilbert,The University of Texas at Austin,Civil Engineering,301 E. Dean Keeton Street,C1792,Austin,TX,78712-1174,bob_gilbert@mail.utexas.edu,Matching
Michael,Gilson,"University of California, San Diego",Center for Drug Discovery Innovation,"9500 Gilman Drive, MC 0736",,La Jolla,CA,92093,mgilson@ucsd.edu,Matching
Andrea,Giuffrida,"The University of Texas Health Science Center, San Antonio",Office of Vice President for Research,7712 Floyd Curl Drive,,San Antonio,TX,78229,,Matching
Edward,Glaessgen,NASA,Materials Research Laboratory,2 West Reid Street,Bldg 1205: MS 188E,Hampton,VA,23681,,Matching
April,Glaser,Slate,Journalist,15 Metrotech Ctr Fl 8,,Brooklyn,NY,11201-3818,,Matching
Sharon,Glotzer,University of Michigan,Chemical Engineering,2800 Plymouth Road,NCRC B-10/A177,Ann Arbor,MI,48109-2800,sglotzerkjc@umich.edu,Matching
Dave,Glover,ConocoPhillips,,2501 Kingston Dr,,Bartlesville,OK,74006,dave.glover@conocophillips.com,Matching
Nickolay,Gnedin,University of Chicago,Astronomy and Physics,6054 South Drexel Avenue,,Chicago,IL,60637,,Matching
John,Godwin,North Carolina State University,Biological Sciences,"David Clark Labs 156, Box 7558",,Raleigh,NC,27695,,Matching
Paul,Goldbart,The University of Texas at Austin,College of Natural Sciences,1 University Station,G2500,Austin,TX,78712,,Matching
Clair,Goldsmith,The University of Texas System,Chief Technology Officer,210 West 7th Street,,Austin,TX,78701-2982,,Matching
David,Goldstein,The University of Texas at Austin,Dept of Aerospace Engineering,210 E. 24th Street,C0600,Austin,TX,78712-1221,david@cfdlab.ae.utexas.edu,Matching
Jamie,Gooch,Digital Engineering,,111 Speen St Ste 200,,Framingham,MA,01701-2090,,Matching
Mohammad,Goodarzi,The University of Texas Southwestern Medical Center ,Biochemistry Department,5323 Harry Hines Blvd.,,Dallas,TX,75390,Mohammad.Goodarzi@UTSouthwestern.edu,Matching
Jeremy,Goodman,Princeton University,Astrophysics,Princeton University,129 Peyton Hall,Princeton,NJ,08544,jeremy@astro.princeton.edu,Matching
Catherine,Gorle,Stanford University,Stanford School of Engineering,475 Via Ortega,,Stanford,CA,94305,gorle@stanford.edu,Matching
Steven,Gottlieb,Indiana University,Department of Physics,727 E 3rd St,SW117,Bloomington,IN,47405-4202,sg@indiana.edu,Matching
Mark,Govett,National Oceanic and Atmospheric Administration,"Chief, HPC",325 Broadway,Mail Code: R/FS5,Boulder,CO,80305,mark.w.govett@noaa.gov,Matching
Michael,Grabe,"University of California, San Francisco",Computational Biology & Chemistry,UCSF Box 3122,,San Francisco,CA,94158,michael.grabe@ucsf.edu,Matching
Lars,Grabow,University of Houston,Chemical & Biomolecular Engineering,4726 Calhoun Rd,S222 Engineering Bldg 1,Houston,TX,77204-4004,grabow@cae.wisc.edu,Matching
Jeff,Graham,"The University of Texas, Rio Grande Valley",Information Technology,1201 West University Dr,ECCTR 1510E,Edinburg,TX,78539,,Matching
Luca,Grandi,"The University of Chicago, KAVLI",Cosmological Physics,5640 South Ellis Avenue,Ste. 499,Chicago,IL,60637,,Matching
Frank,Grassler,"The University of Texas, Southwestern Medical Center ",Office of Technology Development,5323 Harry Hines Blvd.,,Dallas,TX,75390,,Matching
Keith,Gray,BP CHPC,,225 Westlake Park Blvd,,Houston,TX,77079,,Matching
Jeffrey,Gray,Johns Hopkins University,Dept. of Chemical & Biomolecular Engineering,3400 North Charles Street,221 Maryland Hall,Baltimore,MD,21218,jgray@jhu.edu,Matching
Neil,Gray,The University of Texas at Tyler,College of Arts and Sciences,3900 University Blvd,,Tyler,TX,75799,,Matching
Larry,Greenemeier,Scientific American Online,Reporter,1 New York Plz Ste 4500,,New York,NY,10004-1901,,Matching
Nell,Greenfieldboyce,NPR/National Public Radio,Reporter,1111 N Capitol St NE,,Washington,DC,20002-7502,,Matching
Amanda Hallberg,Greenwell,National Science Foundation,Office of Legislative & Public Affairs,2415 Eisenhower Avenue,W 18114,Alexandria,VA,22314,agreenwe@nsf.gov,Matching
Parwinder,Grewal,The University of Texas Rio Grande Valley,Office of the Executive Vice President for Research,1201 West University Dr,BBRHB 2.210,Edinburg,TX,78539,,Matching
Brendan,Griffen,Massachusetts Institute of Technology,Astrophysics,77 Massachussetts Ave,,Cambridge,MA,02139,bgriffen@mit.edu,Matching
Bill,Gropp,National Center for Supercomputing Applications,Director,"1205 W. Clark St., MC-257",Room 1008,Urbana,IL,61801,wgropp@illinois.edu,Matching
Robert,Groves,Georgetown University,Office of the Provost,"ICC 650, 37th & O St, N.W.",Box 571014,Washington,DC,20057,,Matching
Martin,Gruebele,"University of Illinois, Urbana-Champaign",Department of Chemistry,600 S. Mathews,RAL 29A,Urbana,IL,61801,,Matching
Marina,Guenza,University of Oregon,Dept. of Chemistry & Biochemistry,1253 University of Oregon,136 Klamath Hall,Eugene,OR,97403-1253,mguenza@uoregon.edu,Matching
Anthony,Guillory,"The University of Texas, Southwestern Medical Center ",McDermott Center for Human Growth and Development,5323 Harry Hines Blvd.,,Dallas,TX,75390,,Matching
Emanuel,Gull,University of Michigan,Physics Department,Randall Lab,450 Church Street,Ann Arbor,MI,48109,egull@umich.edu,Matching
James,Gumbart,Georgia Tech,College of Sciences -- Chemistry and Biochemistry,,901 Atlantic Drive,Atlanta,GA,30332-0400,gumbart@ks.uiuc.edu,Matching
Edward,Guo,Columbia University,Biomedical Engineering,351 Engineering Terrace,MC 8904,New York,NY,10027,binzhou403@gmail.com,Matching
Michael,Gurnis,California Institute of Technology,Geophysics,1200 East California Blvd,,Pasadena,CA,91125,gurnis@gps.caltech.edu,Matching
Osvaldo,Gutierrez,University of Maryland,Dept. of Chemistry & Biochemistry,8051 Regents Drive,0701 Chemistry Bldg,College Park,MD,20742,,Matching
Roland,Haas,Max Planck Institute for Gravitational Physics,Gravitational Physics,Am MÃ¼hlenberg 1,D-14476 Potsdam-Golm,Germany,,,rhaas@caltech.edu,Matching
Mark,Hachman,PCWorld,Reporter,501 2nd St Ste 600,,San Francisco,CA,94107-4133,,Matching
Michael,Hagan,Brandeis University,Physics Department,415 South Street ,MS 057,Waltham,MA,02454,,Matching
Helena,Hagelin-Weaver,University of Florida,Chemical Engineering,PO Box 116005,,Gainesville,FL,32611,hweaver@che.ufl.edu,Matching
Zoltan,Haiman,Columbia University,Department of Astronomy,1328 Pupin Physics Laboratories,Mailcode 5246,New York,NY,10027,zoltan@astro.columbia.edu,Matching
Christine,Hall,Data Center Knowledge,Reporter,9100 W Chester Towne Ctr Ste 200,,West Chester,OH,45069-3108,,Matching
Angela,Hall Watkins,The University of Texas at Austin,University Development Office,405 W 25th Street,F1000,Austin,TX,78705,,Matching
Francis,Halzen,"University of Wisconsin, Madison",WIPAC,222 West Washington Avenue,"5th floor, room 5213",Madison,WI,53703,ice3simusr@icecube.wisc.edu,Matching
Bruce,Hamilton,National Science Foundation,Directorate for Engineering,2415 Eisenhower Avenue,E 13463,Alexandria,VA,22314,,Matching
Sharon,Hammes-Schiffer,Yale University,Department of Chemistry,PO Box 208107,,New Haven,CT,06520 8107,sharon.hammes-schiffer@yale.edu,Matching
Yong,Han,Iowa State University,Department of Physics and Astronomy,307D Wilhelm Hall,,Ames,IA,50011,octavian2009@gmail.com,Matching
David,Hancock,Indiana University,"Director, Advanced Cyberinfrastructure",107 S. Indiana Avenue,,Bloomington,IN,47405-7000,dyhancoc@iu.edu,Matching
Linda,Hanley-Bowdoin,North Carolina State University,Plant and Microbrial Biology,Campus Box 7622,128 Polk Hall,Raleigh,NC,27695-7622,,Matching
John,Harer,Duke University,Department of Mathamatics,109 Physic Bldg,,Durham,NC,27708,,Matching
Eric,Harlsem,KLE Foundation,Founder,PO Box 163991,,Austin,TX,78716,,Matching
Todd,Harman,University of Utah,Mechanical Engineering,50 S Central Campus Drive,Room 2110,Salt Lake City,UT,84112,t.harman@utah.edu,Matching
Peter,Harsha,Coalition for Academic Scientific Computation,Government Affairs,"1828 L Street, NW",Suite 800,Washington,DC,20036-4632,,Matching
Dave,Hart,NCAR/UCAR,Computational & Information Systems Laboratory,P.O. Box 3000,,Boulder,CO,80307-3000,,Matching
Jay,Hartzell,The University of Texas at Austin,Red McCombs School of Business,1 University Station,B6000,Austin,TX,78712,,Matching
Stephen,Harvey,University of Pennsylvania,Dept. of Biochemistry & Biophysics,909C Stellar-Chance Research Laboratories,422 Curie Blvd.,Philadelphia,PA,19104-6059,steharv@mail.med.upenn.edu,Matching
William,Hase,Texas Tech University,Department of Chemistry & Biochemistry,Box 41061,Chemistry 336,Lubbock,TX,79409-1061,bill.hase@ttu.edu,Matching
Anna,Hasenfratz,University of Colorado,Department of Physics and Astronomy,390 UCB,,Boulder,CO,80309-0390,Anna.Hasenfratz@Colorado.EDU,Matching
David,Hatch,The University of Texas at Austin,Institute for Fusion Studies,2515 Speedway ,C1500,Austin,TX,78712-1203,drhatch@austin.utexas.edu,Matching
Ralph,Haurwitz,Austin American-Statesman,Reporter,305 S Congress Ave,,Austin,TX,78704-1200,,Matching
Ron,Hawkins,San Diego Supercomputer Center,"Director, Industry Relations",9500 Gilman Drive,MC 0505,La Jolla,CA,92093-0505,,Matching
John,Hawley,University of Virginia,Professor of Astronomy,546 New Cabell Hall,,Charlottesville,VA,22904-4325,jh8h@virginia.edu,Matching
Linda,Hayden,Elizabeth City State University,Mathematics & Computer Science,1704 Weeksville Road,Campus Box 672,Elizabetch City,NC,27909,haydenl@mindspring.com,Matching
Katharine,Hayhoe,Texas Tech University,Professor of Political Science,2500 Broadway,113 Holden Hall,Lubbock,TX,79409,hayhoe@illinois.edu,Matching
Amy,Hazen,The University of Texas Health Science Center at Houston,Shared Research Resources,P.O. Box 20036,,Houston,TX,77225-0036,,Matching
Ping,He,University of Michigan,Multidisciplinary Design Optimization Lab,1320 Beal Ave,,Ann Arbor,MI,48109,drpinghe@umich.edu,Matching
Bjorn,Hegelich,The University of Texas at Austin,Department of Physics  ,2515 Speedway,"C1510, RLM 12.208",Austin,TX,78712-1204,hegelich@physics.utexas.edu,Matching
Patrick,Heimback,The University of Texas at Austin,Oden Institute for Computational Engineering and Sciences,201 E 24th Street,C0200,Austin,TX,78712-1229,,Matching
Daniel,Heimmermann,"The University of Texas, Permian Basin",Academic Affairs,4901 E. University Blvd.,Room MB4218,Odessa,TX,79762,,Matching
Sebastian,Heinz,University of Wisconsin,Astronomy Department,475 N. Charter St.4506 Sterling Hall,4506 Sterling Hall,Madison,WI,53706,heinzs@astro.wisc.edu,Matching
Brian,Helenbrook,Clarkson University,Mechanical & Aeronautical Engineering,8 Clarkson Ave.,CU Box 5725,Potsdam,NY,13699,helenbrk@clarkson.edu,Matching
Laura,Helmuth,The Washington Post,Reporter,1301 K St NW,One Franklin Square,Washington,DC,20005-3317,,Matching
Nicole ,Hemsoth,The Next Platform,Reporter,299 Blackberry Road,,Boone,NC,28607,,Matching
Graeme,Henkelman,The University of Texas at Austin,Chemistry,2506 Speedway,A5300,Austin,TX,78712-1224,henkelman@utexas.edu,Matching
Richard,Hennig,University of Florida,Dept. of Materials Science & Engineering,549 Gale Lemerand Dr.,,Gainesville,FL,32611-6400,rhennig@ufl.edu,Matching
Anke,Henning,The University of Texas Southwestern Medical Center ,Advanced Imaging Research Center,5323 Harry Hines Blvd.,,Dallas,TX,75390,,Matching
Asegun,Henry,MIT,Dept. of Mechanical Engineering,77 Massachusetts Ave.,Room 3-173,Cambridge,MA,02139,henryas@ornl.gov,Matching
Mike,Henson,Lockheed Martin Aeronautics Company,,1 Lockheed Blvd ,MZ 5968,Ft Worth,TX,76108,,Matching
Rigoberto,Hernandez,Johns Hopkins University,Department of Chemistry,3400 North Charles Street,Remsen Hall,Baltimore,MD,21218,r.hernandez@jhu.edu,Matching
Daniela,Hernandez,The Wall Street Journal Online,Reporter,1211 Avenue of the Americas,,New York,NY,10036-8701,,Matching
Sebastian,Herrera,Austin American-Statesman,Reporter,305 S Congress Ave,,Austin,TX,78704-1200,,Matching
Joachim,Herz,The University of Texas Southwestern Medical Center ,Center for Translational Neurodegeneration Research,5323 Harry Hines Blvd.,,Dallas,TX,75390,,Matching
Marijn,Heule,The University of Texas at Austin,Department of Computer Science,2317 Speedway,Stop 9500,Austin,TX,78712,marijn@cs.utexas.edu,Matching
Andreas,Heyden,University of South Carolina,Swearingen Engineering Center,301 S. Main St.,,Columbia,SC,29208,heyden@cec.sc.edu,Matching
David,Hibbitts,University of Florida,Chemical Engineering,,,Gainesville,FL,32611,hibbitts@berkeley.edu,Matching
Raquel,Hill,Indiana University,"School of Informatics, Computing & Engineering",700 N. Woodlawn Ave.,Luddy Hall 3042,Bloomington,IN,47408,ralhill@indiana.edu,Matching
Curtis,Hillegas,Princeton University,Princeton Research Computing,330 Lewis Science Library,Washington Road and Ivy Lane,Princeton,NJ,08544,,Matching
Walt,Hinton,Pavilion,,,"2550 N First St., Suite 250",San Jose,CA,95131,,Matching
Helen,Hobbs,The University of Texas Southwestern Medical Center ,McDermott Center for Human Growth and Development,5323 Harry Hines Blvd.,,Dallas,TX,75390,Helen.Hobbs@utsouthwestern.edu,Matching
Jennifer,Hoffman,University of Denver,Department of Physics and Astronomy,2112 E. Wesley Ave.,,Denver,CO,80208-6900,jennifer.hoffman@du.edu,Matching
Detlef,Hohl,Shell Technology Center Houston,,3333 Highway 6 South,M-2108D,Houston,TX,77082,,Matching
Gilbert,Holder,University of Illinois at Urbana-Champaign,Department of Physics,1110 West Green Street,,Urbana,IL,61801,,Matching
John,Holdren,Harvard University,Belfer Center for Science and International Affairs,"79 John F. Kennedy Street, Mailbox 54",,Cambridge,MA,02138,,Matching
Jeff,Hollingsworth,Association Computing Machinery,,2 Penn Plaza,,New York,NY,10121,,Matching
Jennifer,Holmes,The University of Texas at Dallas,"School of Economic, Political, and Policy Science",800 W. Campbell Road,,Richardson,TX,75080-3021,,Matching
Xia,Hong,University of Nebraska-Lincoln,Physics and Astronomy,855 N. 16th St.,Jorgensen Hall Rm. 208,Lincoln,NE,68588-0299,xia.hong@unl.edu,Matching
Philip,Hopkins,California Institute of Technology,Theoretical Astrophysics,1200 E. California Blvd.,TAPIR 350-17,Pasadena,CA,91125-0001,phopkins@caltech.edu,Matching
David,Horner,Engineer Research and Development Center,,3909 Halls Ferry Road,,Vicksburg,MS,39180-6199,,Matching
Charles J.,Horowitz,Indiana University,Department of Physics,701 E. Third St.,Swain Hall West Room 233,Bloomington,IN,47405,horowit@indiana.edu,Matching
Jake,Horowitz,Mic,Editor at Large,1 World Trade Ctr,82nd Floor 285 Fulton Street,New York,NY,10007-0089,,Matching
Kendall N.,Houk,"University of California, Los Angeles",Dept. of Chemistry & Biochemistry,Box 951569,,Los Angeles,CA,90095-1569,houk@chem.ucla.edu,Matching
Gregory,Howes,University of Iowa,Dept. of Physics & Astronomy,505 Van Allen Hall,505 VAN,Iowa City,IA,52242,gregory-howes@uiowa.edu,Matching
Tian-Jian,Hsu,University of Delaware,Center for Applied Coastal Research,259 Academy St.,,St Newark,DE,19716,thsu@udel.edu,Matching
Xiao-Ming,Hu ,The University of Oklahoma,Center for Analysis and Prediction of Storms,"120 David L. Boren Blvd,",Suite 2500,Norman,OK,73072-7309,,Matching
Bohua,Huang,George Mason University,"Atmospheric, Oceanic & Earth Sciences",10900 University Blvd.,,Manassas,VA,20110,bhuang@gmu.edu,Matching
Kerwyn,Huang,Stanford University,Bioengineering Department,443 Via Ortega,"Shriram Center, Room 007",Stanford,CA,94305-4125,kchuang@stanford.edu,Matching
Rui,Huang,The University of Texas at Austin,Department of Aerospace Engineering and Engineering Mechanics,210 E. 24th Street,C0600,Austin,Texas,78712-1221,ruihuang@mail.utexas.edu,Matching
William,Huang,University of Texas System,Systemwide Info Services,210 West 7th Street,,Austin,TX,78701-2982,whuang@utsystem.edu,Matching
Muhammad,Huda,University of Texas at Arlington,Department of Physics,701 South Nedderman Drive,,Arlington,Texas,76019,huda@uta.edu,Matching
Virginia,Hughes,BuzzFeed,Reporter,111 E 18th St,Buzzfeed Newsroom,New York,NY,10003-2107,,Matching
Thomas,Hughes,The University of Texas at Austin,Oden Institute for Computational Engineering and Sciences,201 E. 24th Street,C0200,Austin,TX,78712-1229,hughes@ices.utexas.edu,Matching
Cameron,Hummels,California Institute of Technology,Astrophysics,550 W. 120th Street,1333 Pupin Physics Lab,New York,NY,91125,chummels@gmail.com,Matching
Bobby,Hunter,"DOD, Army Corps of Engineers",Engineer Research and Development Center,3909 Halls Ferry Road,,Vicksburg,MS,39180-6199,,Matching
Patty,Hurn,The University of Texas System,Vice Chancellor for Research and Innovation,210 West 7th Street,,Austin,TX,78701-2982,,Matching
Judson,Hurvey,US Naval Research Lab,Center for Biomolecular Science and Engineering,4555 Overlook Ave SW,,Washington,DC,20375,,Matching
Mohammad,Hussaini,Moffit Cancer Center,Pathology,12902 USF Magnolia Drive,,Tampa,FL,33612,,Matching
Wonmuk,Hwang,Texas A&M University,College of Engineering,3127 TAMU,,College Station,TX,77843-3120,hwm@tamu.edu,Matching
Gyeong,Hwang,The University of Texas at Austin,Department of Chemical Engineering,200 E Dean Keeton St. ,Stop C0400,Austin,TX,78712-1589,gshwang@che.utexas.edu,Matching
C. Suzanne,Iacono,National Science Foundation,Office of Integrative Activities,2415 Eisenhower Avenue,W 17114,Alexandria,VA,22314,,Matching
Steven,Idell,The University of Texas Health Science Center at Tyler,School of Medical Biological Sciences,11937 US-271,,Tyler ,TX,75708,steven.idell@uthct.edu,Matching
Enrique,Iglesia,"University of California, Berkeley",College of Chemistry,420 Latimer Hall,,Berkeley,CA,94720-1460,iglesia@berkeley.edu,Matching
Mitsuo,Ikebe,The University of Texas Health Science Center at Tyler,Cellular and Molecular Biology,11937 US-271,,Tyler ,TX,75708,,Matching
Wonpil,Im,Lehigh University,Department of Biological Sciences,"111 Research Drive, B217",Iacocca Hall,Bethlehem,PA,18015,wonpil@lehigh.edu,Matching
Marcia,Inger-Navratil,The University of Texas at Austin,University Affiliates,PO Box 7159,DEV 4.402,Austin,TX,78713,,Matching
Amanda,Irving,The University of Texas at Austin,University Development Office,2901 N IH 35,A3000,Austin,TX,78722,,Matching
Sohrab,Ismail-Beigi,Yale University,Department of Applied Physics,15 Prospect Street,BCT 307,New Haven,CT,06511,sohrab.ismail-beigi@yale.edu,Matching
Ivaylo,Ivanov,Columbia University,Dept. of Microbiology & Immunology,701 W. 168 St,HHSC 1208,New York,NY,10032,iivanov@gsu.edu,Matching
Brent,Iverson,The University of Texas at Austin,School of Undergraduate Studies,110 Inner Campus Dr.,G8000,Austin,TX,78712,iversonb@austin.utexas.edu,Matching
Vishy,Iyer,The University of Texas at Austin,Institute for Cellular & Molecular Biology,1 University Station ,A4800,Austin,TX,78712-0159,,Matching
Mark,J.T. Smith,The University of Texas at Austin,Office of Graduate Studies,110 Inner Campus Drive,G0400,Austin,TX,78712,,Matching
Farhad,Jaberi,Michigan State University,College of Engineering,428 S. Shaw Lane,Room 2240,East Lansing,MI,48824,jaberi@msu.edu,Matching
Charles,Jackson,The University of Texas at Austin,School of Geosciences,"10100 Burnet Rd., ROC-196",Mail Code: R2200,Austin,TX,78758-4445,charles@ig.utexas.edu,Matching
Robert,Jackson,The University of Texas Rio Grande Valley,IT Academic ServOden Institute for Computational Engineering and Sciences,1201 West University Dr,EACSB 2124,Edinburg,TX,78539,robert.jackson@utrgv.edu,Matching
James,Jackson,Univesity of Michigan,Psychology Department,530 Church Street,1004 East Hall,Ann Arbor,MI,48109-1043,,Matching
â€‹Deborah,Jacobvitz,The University of Texas at Austin,Human Ecology,108 E Dean Keeton Street,A2702,Austin,TX,78712-1248,,Matching
Dan ,Jaffe,The University of Texas at Austin,Office of the Vice President for Research,PO Box 7996,G1400,Austin,TX,78713,,Matching
Pratik,Jagtap,University of Minnesota,Minnesota Supercomputing Institute,321 Church St SE,Room 6-155 JacH,Minneapolis,MN,55455,pjagtap@umn.edu,Matching
Moriba,Jah,The University of Texas at Austin,Aerospace Engineering and Engineering Mechanics,210 E 24TH ST,C0600,Austin,TX,78712-1221,moriba@utexas.edu,Matching
Farnam,Jahanian,Carnegie Mellon University,President's Office,5000 Forbes Avenue,Warner Hall 6th Floor,Pittsburgh,PA,15213,,Matching
Jacek,Jakowski,Oak Ridge National Laboratory,,"1 Bethel Valley Road,",Bldg 5100 ms 6173,Oak Ridge,TN,37830,jakowskij@ornl.gov,Matching
Mohsin,Jamali,The University of Texas of the Permian Basin,Electrical Engineering,4901 E. University Blvd.,Room CEED 1309,Odessa,TX,79762,,Matching
Antony,Jameson,Stanford University,Dept. of Aeronautics & Astronautics,Durand Building,Room 250,Stanford,CA,94305,jameson@baboon.stanford.edu,Matching
Michael,Janik,Pennsylvania State University,,104 Fenske Laboratory,,University Park,PA,16802,mjanik@psu.edu,Matching
Anderson,Janotti,University of Delaware,Dept. of Materials Science & Engineering,127 The Green,"DuPont Hall, Rm 201",Newark,DE,19716-3106,janotti@udel.edu,Matching
Robert,Jansen,University of Texas at Austin,Department of Integrative Biology,"2415 SPEEDWAY, Stop C0930",,Austin,TX,78712,jansen@mail.utexas.edu,Matching
Christer,Jansson,Pacific Northwest National Lab,Biosystems Dynamics & Simulation,PO Box 999,MSIN: K8-98,Richland,WA,99352,,Matching
Balaji,Jayaraman,Oklahoma State University,Mechanical and Aerospace Engineering,201 General Academic Building,,Stillwater,OK,74078-5016,jayaramanbalaji@gmail.com,Matching
Arthi,Jayaraman,University of Delaware,Chemical and Biochemical Engineering,230 CLB,150 Academy Street,Newark,DE,19716,arthij@udel.edu,Matching
Brian,Jewett,University of Illinois,Department of Atmospheric Sciences,M/C 223 - 201 Atmospheric Sciences Bldg.,105 S. Gregory St.,Urbana,IL,61801,bjewett@illinois.edu,Matching
Shantenu,Jha,Rutgers University New Brunswick,Department of Electrical and Computer Engineering,94 Brett Road,,Piscataway,NJ,08854,shantenu.jha@rutgers.edu,Matching
Yanfei,Jiang,"University of California, Santa Barbara",Kavli Institute of Theoretical Physics,Kohn Hall,,Santa Barbara,CA,93106,yjiang@flatironinstitute.org,Matching
Daniel,Jimenez,Texas A&M University,Department of Computer Science and Engineering,TAMU 3112,HRBB 509D,College Station,TX,77843-3112,djimenez@acm.org,Matching
â€‹Shardha,Jogee,The University of Texas at Austin,Department of Astronomy,1 University Station C1400,RLM 16.224,Austin,TX,78712-1205,,Matching
Eric,Johnsen,University of Michigan,Department of Mechanical Engineering,2015 AL (W.E. Lay Auto Lab),1231 Beal,Ann Arbor,MI,48109-2133,ejohnsen@umich.edu,Matching
R. Colin,Johnson,EE Times,,303 2nd St Ste 900,,San Francisco,CA,94107-1366,,Matching
Kevin,Johnson,University of Illinois,Illinois Natural History Survey,Illinois Natural History Survey,1816 South Oak Street,Champaign,IL,61820,kpjohnso@illinois.edu,Matching
J Karl,Johnson,University of Pittsburgh,Swanson College of Engineering,940 Benedum Hall,3700 O'Hara Street,Pittsburgh,PA,15261,,Matching
Khari,Johnson,VentureBeat,,500 Sansome St # B102,,San Francisco,CA,94111-3211,,Matching
Bryan,Johnston,Centre for High Performance Computing,Advanced Computer Engineering Lab,15 Lower Hope St.,,Rosebank,Cape Town,South Africa,,Matching
Clay,Johnston,The University of Texas at Austin,Dell Medical School,1501 Red River St ,Z0100,Austin,TX,78712,,Matching
Yong,Joo,Cornell University,School of Chemical & Biomolecular Engineering,340 Olin Hall,,Ithaca,NY,14850,ylj2@cornell.edu,Matching
Patrick,Jordan,The University of Texas at Arlington,Office of Information Technology,701 S. Nedderman Drive,,Arlington,TX,76019,,Matching
J Keith,Joung,Massachusetts General Hospital,,149 13th Street,6th Floor,Charlestown,MA,02129,,Matching
Thomas,Juenger,University of Texas at Austin,Section of Integrative Biology,"2415 SPEEDWAY, Stop C0990",,Austin,TX,78712,tjuenger@austin.utexas.edu,Matching
Mohammad,Kaazempur-Mofrad,"University of California, Berkeley",Mechanical Engineering,208A Stanley Hall #1762,,Berkeley,CA,94720,mofrad@berkeley.edu,Matching
Alexander,Kafka,"Chronicle of Higher Education, The",,1255 23rd St NW Ste 700,,Washington,DC,20037-1146,,Matching
Jennie,Kam,Cisco Systems,,12515-3 Research Blvd. ,,Austin ,TX,78759,jekam@cisco.com,Matching
Manoj,Kaplinghat,"University of California, Irvine",Department of Physics and Astronomy,2180 Frederick Reines Hall,ZOT code 4575,Irvine,CA,92697-4575,mkapling@uci.edu,Matching
John,Karanicolas,Fox Chase Cancer Center,,333 Cottman Avenue,W470,Philadelphia,PA,98112,john.karanicolas@fccc.edu,Matching
Michael,Karich,The University of Texas at Dallas,"Office of Research, Research Information Systems",800 West Campbell Road,,Richardson,TX,75080-3021,mjk052000@utdallas.edu,Matching
Peter,Kasson,University of Virginia,Biomedical Engineering,Box 800886,,Charlottesville,VA,22908-0886,kasson@cs.stanford.edu,Matching
John,Katzenellenbogen,University of Illinois at Urbana-Champaign,Department of Chemistry,505 South Mathews Avenue,,Urbana,IL,61801,jkatzene@illinois.edu,Matching
Mark,Kaufman,Mashable,,114 5th Ave Fl 14,,New York,NY,10011-5610,,Matching
Ribhu,Kaul,University of Kentucky,Dept. of Physics and Astronomy ,503 Rose Street,,Lexington,KY,40506,,Matching
Henry,Kautz,National Science Foundation,Directorate for Computer & Information Science & Engineering ,2415 Eisenhower Avenue,W10138,Alexandria,VA,22314,,Matching
Efthimios,Kaxiras,Harvard University,John A. Paulson School of Engineering and Applied Sciences,29 Oxford Street,,Cambridge,MA,02138,kaxiras@physics.harvard.edu,Matching
Midge,Kayfez,Lehman High School,,1700 Lehman Road,,Kyle,TX,78640,,Matching
Tony,Keaveny,"University of California, Berkeley",Mechanical Engineering,"5124 Etcheverry Hall, Mailstop 1740",,Berkeley,CA,94720-1740,tonykeaveny@berkeley.edu,Matching
Rebecca,Keiser,National Science Foundation,Office of International Science and Engineering,2415 Eisenhower Avenue,W 17251,Alexandria,VA,22314,,Matching
Peter,Kekenes-Huskey,University of Kentucky,Department of Chemistry,219 Chemistry Physics Building ,,Lexington,KY,40506,pkekeneshuskey@luc.edu,Matching
Louise,Kellogg,"University of California, Davis",Earth and Planetary Sciences,1 Shields Avenue,2133 Earth & Physical Sci,Davis,CA,95616,kellogg@ucdavis.edu,Matching
Dusan,Keres,"University of California, San Diego",Department of Physics,"CASS, M/C 0424",9500 Gilman Drive,La Jolla,CA,92093-0424,dkeres@physics.ucsd.edu,Matching
Sinan,Keten,Northwestern University,McCormick School of Engineering,2145 Sheridan Road Tech A133,,Evanston,IL,60208,s-keten@northwestern.edu,Matching
Morteza,Khaledi,The University of Texas at Arlington,Department of Chemistry and Biochemistry,701 S. Nedderman Drive,,Arlington,TX,76019,,Matching
Rajesh,Khare,Texas Tech University,Department of Chemical Engineering,Box 43121,,Lubbock,TX,79409,rajesh.khare@ttu.edu,Matching
George,Khelashvili,Cornell University,Department of Physiology and Biophysics,"1300 York Avenue, LC 501",LC 501B,New York,NY,10021,gek2009@med.cornell.edu,Matching
Bamin,Khomami,University of Tennessee Knoxville,Chemical & Biomolecular Engineering,419 Dougherty Hall,,Knoxville,TN,37996,bkhomami@utk.edu,Matching
Taeyoon,Kim,Purdue University,,206 S Martin Jischke Drive,MJIS 3031,West Lafayette,IN,47907,,Matching
Jang Whan,Kim,TechnipFMC,,11740 Kay Freeway,Suite 100,Houston,TX,77079,,Matching
Ian,King,Bloomberg News - San Francisco Bureau,,3 Pier Ste 101,,San Francisco,CA,94111-2036,,Matching
Rachel,King,Fortune,,225 Liberty St Fl 7,,New York,NY,10281-1012,,Matching
Mike,King,The University of Texas Medical Branch at Galveston,Network & Telecommunications Operations,20738 Gulf Freeway,Clear Lake Center,Webster,TX,77598-1230,,Matching
Anne,Kinney,National Science Foundation,Directorate for Mathematical and Physical Sciences,2415 Eisenhower Avenue,C 9006,Alexandria,VA,22314,,Matching
Jay,Kipper,The University of Texas at Austin,Bureau of Economic Geology,10100 BURNET RD,E0610,Austin,TX,78758,,Matching
Benjamin,Kirk,National Aeronautics and Space Administration,,2101 NASA Parkway,Mail Code EG3,Houston,TX,77058,benjamin.kirk@nasa.gov,Matching
Robert,Kirken,The University of Texas at El Paso,College of Science,500 West University Ave.,,El Paso,TX,79968,,Matching
Christine,Kirkpatrick,San Diego Supercomputer Center,,9500 Gilman Drive,MC 0505,La Jolla,CA,92093-0505,,Matching
Denise,Kirschner,University of Michigan,Medical School,6730 Medical Science Bldg. II,,Ann Arbor,MI,48109,kirschne@umich.edu,Matching
Jeffery,Klauda,"University of Maryland, College Park",Chemical and Biomolecular Engineering,2113 Building 90,,College Park,MD,20742,jbklauda@umd.edu,Matching
Erik ,Klavins,"University of Washington, Seattle",Synthetic Biology,Campus Box 352500,,Seattle,WA,98195,,Matching
Michael,Klein,Temple University,Department of Physics,"SERC, Room 704E",1925 N. 12th Street,Philadelphia,PA,19104-6323,klein@lrsm.upenn.edu,Matching
Richard I.,Klein,"University of California, Berkeley",Department of Astronomy,501 Campbell Hall #3411,265 Campbell Hall,Berkeley,CA,94720-3411,klein@astron.berkeley.edu,Matching
Gerhard,Klimeck,Purdue University,Nanoelectronic Modeling Group,"Discovery Learning and Research Center, Suite 103",,West Lafayette,IN,47907-1971,gekco@purdue.edu,Matching
John B.,Kogut,"University of Maryland, College Park",Department of Physics,2111 John S. Toll Physics Building,,College Park,MD,20742-4111,jbkogut@umd.edu,Matching
Alexie,Kolpak,Massachusetts Institute of Technology,Department of Mechanical Engineering,3-158,77 Massachusetts Ave,Cambridge,MA,02139,alexie.kolpak@yale.edu,Matching
Nagarjun,Konduru,The University of Texas Health Science Center at Tyler,Department of Cellular and Molecular Biology,11937 US-271,,Tyler ,TX,75708,,Matching
Dmytro,Kovalskyy,University of Texas Health Science Center at San Antonio,Department of Biochemistry,7703 Floyd Curl Drive,,San Antonio,TX,78229,kovalskyy@uthscsa.edu,Matching
Alexei,Kritsuk,"University of California, San Diego",Research Scientist,9500 Gilman Drive,333A SERF 0424,La Jolla,CA,92093-0424,akritsuk@ucsd.edu,Matching
Julian,Krolik,Johns Hopkins University,Department of Physics & Astronomy,3400 N. Charles Street,Room 366,Baltimore,MD,21218,jhk@pha.jhu.edu,Matching
Peter,Kroll,The University of Texas at Arlington,Department of Chemistry and Biochemistry,700 Planetarium Place,353 CPB,Arlington,TX,76019-0065,pkroll@uta.edu,Matching
Anna,Kurdowska,The University of Texas Health Science Center at Tyler,Cellular and Molecular Biology,11937 US-271,,Tyler ,TX,75708,,Matching
James,Kurose,National Science Foundation,Directorate for Computer & Information Science & Engineering ,2415 Eisenhower Avenue,C 10006,Alexandria,VA,22314,,Matching
Gregory,Kurtzer,Sylabs,CEO,12930 Saratoga Avenue,Suite D2,Saratoga,CA,95070,gmkurtzer@lbl.gov,Matching
Doron,Kushnir,School of Historical Studies,Astrophysics,1 Einstein Drive,,Princeton,NJ,08540,kushnir@ias.edu,Matching
Javier,Kypuros,The University of Texas at Tyler,College of Arts and Sciences,3900 University Blvd,,Tyler,TX,75799,,Matching
Pablo,Laguna,Georgia Institute of Technology,"College of Sciences, Physics",837 State Street,,Atlanta,GA,30332-0430,pablo@astro.psu.edu,Matching
David,Landau,University of Georgia,Department of Physics and Astronomy,,,Athens,GA,30602-2451,dlandau@physast.uga.edu,Matching
Eric,Lander,Broad Institute,President and Founding Director,415 Main Street,,Cambridge,MA,02142,,Matching
Sandy,Landsberg,DoD High Performance Computing Modernization Program,Deputy Director,10501 Furnace Road,Suite 101,Lorton,VA,22079,,Matching
Karol,Lang,The University of Texas at Austin,Department of Physics,2515 Speedway,C1600,Austin,TX,78712-1192,lang@hep.utexas.edu,Matching
Luca,Larini,Rutgers University,Computational Biology,227 Penn Street,,Camden,NJ,08102,luca.larini@rutgers.edu,Matching
Ronald G.,Larson,University of Michigan,Chemical Engineering,2800 Plymouth Road,NCRC B-10 / A150,Ann Arbor,MI,48109-2800,rlarson@engin.umich.edu,Matching
Robert A.,Latour Jr.,Clemson University,Bioengineering,501 Rhodes Engineering Research Center,,Clemson,SC,29634,latourr@clemson.edu,Matching
Alexandre,Lazarian,University of Wisconsin-Madison,Department of Astronomy,475 N. Charter Street,6289 Chamberlin Hall,Madison,WI,53706-1507,,Matching
Duy,Le,University of Central Florida,Department of Physics,4111 Libra Drive,Physical Sciences Bldg. 430,Orlando,FL,32816-2385,duy.le@ucf.edu,Matching
Todd,Leach,The University of Texas Medical Branch at Galveston,Information ServOden Institute for Computational Engineering and Sciences,301 University Blvd.,"Suite 4.102, Administration Bldg.",Galveston,TX,77555-0113,,Matching
Edward,League,The University of Texas at San Antonio,Information Technology,1 UTSA Circle,FLN 1.01.04A,San Antonio ,TX,78249,,Matching
â€‹Daniel,Leahy,The University of Texas at Austin,Molecular Biosciences,2506 SPEEDWAY,A5000,Austin,TX,78712-1191,,Matching
Steven,Leath,Auburn University,Office of the President,182 S College St.,Samford Hall,Auburn University,AL,36849,,Matching
J. Jack,Lee,The University of Texas M.D. Anderson Cancer Center,Biostatistics Department - Unit 1411,P. O. Box 301402,,Houston,TX,77230-1402,,Matching
Haesun,Lee,The University of Texas of the Permian Basin,Department of Math & Computer Science,4901 E. University Blvd.,Room ST2118,Odessa,TX,79762,,Matching
Eric,Lentz,Oak Ridge National Laboratory,,P.O. Box 2008,,Oak Ridge,TN,37831-6354,elentz@utk.edu,Matching
Matthew,Leonard,GCN,Reporter,8609 Westwood Center Dr Ste 500,,Vienna,VA,22182-7521,,Matching
Stefano,Leonardi,University of Texas at Dallas,Department of Mechanical Engineering,800 West Campbell Road,Mailstop WD-10,Richardson,Texas,75080-3021,stefano.leonardi@utdallas.edu,Matching
Steven,Leslie,The University of Texas System,Executive Vice Chancellor for Academic Affairs,210 West 7th Street,,Austin,TX,78701-2982,,Matching
Jerzy,Leszczynski,Jackson State University,ITC Center,1400 Lynch St,,Jackson,MS,39217,jerzy@icnanotox.org,Matching
Ming-Ying,Leung,The University of Texas at El Paso,College of Science,500 West University Ave.,,El Paso,TX,79968,mleung@utep.edu,Matching
Michael,Levin,Tufts University,Department of Biology,200 Boston Ave. ,Suite 4604,Medford,MA,02155,michael.levin@tufts.edu,Matching
Valery,Levitas,Iowa State University,Mechanical Engineering,2529 Union Drive,,Ames,IA,50011-2030,vlevitas@iastate.edu,Matching
Jianing,Li,University of Vermont,Department of Chemistry,Discovery Hall W309,,Burlington,VT,05405,jianingli@uchicago.edu,Matching
Zhi,Liang,California State University-Fresno,Mechanical Engineering,2320 E. San Ramon Ave,MS/EE 94,Fresno,CA,93740-8030            ,zlch5@mst.edu,Matching
Steven,Liebling,Long Island University,Department of Mathematics,720 Northern Blvd.,"C.W. Post Campus, LIU",Brookville,NY,11548-1326,steve.liebling@liu.edu,Matching
Alvin,Liem,US Army Edgewood Chemical Biological Center,Department of Microbiology,8198 Blackhawk Road,,Aberdeen Proving Ground,MD,21010,alvin.t.liem.ctr@mail.mil,Matching
Timothy,Lieuwen,Georgia Institute of Technology,Daniel Guggenheim School of Aerospace Engineering,270 Ferst Dr,Guggeneheim - 363,Atlanta,GA,30332,tim.lieuwen@aerospace.gatech.edu,Matching
Dave,Lifka,Cornell University Center for Advanced Computing,,Frank H.T. Rhodes Hall,,Ithaca,NY,14853-3801,,Matching
Peter,Lillian,NVIDIA,,11001 Lakeline Blvd,"Building 2, Suite 100",Austin,TX,78717,plillian@nvidia.com,Matching
Calvin,Lin,The University of Texas at Austin,Computer Science,"2317 Speedway, 2.302",GDC 5.512,Austin,TX ,78712,lin@cs.utexas.edu,Matching
Milo,Lin,The University of Texas Southwestern Medical Center ,"Cecil H. and Ida Green Comprehensive Center for Molecular, Computational and Systems Biology",5323 Harry Hines Blvd.,,Dallas,TX,75390,Milo.Lin@UTSouthwestern.edu,Matching
Hai,Lin,"University of Colorado, Denver",Department of Chemistry,"CB 194, PO Box 173364",,Denver,CO,80217,hai.lin@ucdenver.edu,Matching
Ching-Long,Lin,University of Iowa,,3100 Seamans Center for the Engineering Arts and Sciences,,Iowa City,IA,52242,ching-long-lin@uiowa.edu,Matching
Milo,Lin,UT Southwestern Medical Center,T. Boone Pickens Biomedical Building,6001 Forest Park Road,,Dallas,TX,75390,Milo.Lin@UTSouthwestern.edu,Matching
W. Carl,Lineberger,"University of Colorado, Boulder",JILA,440 UCB ,,Boulder,CO,80309-0440,,Matching
Wei,Liu,Mayo Clinic College of Medicine,"Cancer Center, Radiation Oncology",5918 E Woodridge Dr.,,Scottsdale,AZ,85054,franklinliu1019@gmail.com,Matching
Zi-Kui,Liu,Pennsylvania State University,Department of Materials Science and Engineering,201 Steidle Building,201 Steidle Building,State College,PA,16802-5006,dr.liu@psu.edu,Matching
Peng,Liu,Pennsylvania State University,College of Information Sciences and Technology,E330 Westgate,,Pittsburgh,PA,15260,pengliu@pitt.edu,Matching
Honggao,Liu,Texas A&M,Vice President for Research,3361 TAMU,,College Station,TX,77843-3361,honggao@lsu.edu,Matching
Lijun,Liu,University of Illinois,Department of Geology,3081 Natural History Bldg.,1301 W. Green St.,Urbana,Illinois,61801,ljliu@illinois.edu,Matching
Keh-Fei,Liu,University of Kentucky,Department of Physics,177 Chem-Phys Buidling,,Lexington,KY,40506-0055,liu@g.uky.edu,Matching
Geng,Liu,University of Maine,Dept. of Mechanical Engineering,Boardman Hall,Room 233,Maine Orono,ME,04469,,Matching
Chaoqun,Liu,University of Texas at Arlington,Department of Mathematics,"PKH 456, PO Box 19408",411 S. Nedderman,Arlington,Texas,76019,cliu@omega.uta.edu,Matching
Daniel,Lobo,"University of Maryland, Baltimore County",Department of Biological Sciences,1000 Hilltop Circle,,Baltimore,MD,21250,lobo@umbc.edu,Matching
Steve,Lohr,New York Times,,620 8th Ave,,New York,NY,10018-1618,,Matching
Laura,Lorek,SiliconHillsNews,,301 Thomas Oaks Dr,,Wimberley,TX,78676-6127,,Matching
Doreen,Lorenzo,The University of Texas at Austin,Design and Creative Technologies,2301 TRINITY ST,D1400,Austin,TX,78712-1424,,Matching
Carlos,Lousto,Rochester Institute of Technology,School of Mathematical Sciences,"RIT, Building 74 - Room 2069",85 Lomb Memorial Drive,Rochester,NY,14623,colsma@rit.edu,Matching
Sharon,Loverde,City University of New York,Department of Chemistry,2800 Victory Blvd,,Staten Island,NY,10314,sharon.loverde@csi.cuny.edu,Matching
Sheng,Luo,Duke University,Department of Biostatistics & Bioinformatics,"2424 Erwin Road, Suite 1102",11082 Hock Plaza,Durham,NC,27705,shengluo.jhu@gmail.com,Matching
Tengfei,Luo,University of Notre Dame,College of Engineering,371 Fitzpatrick Hall,,Notre Dame,IN,46556,tluo@nd.edu,Matching
Arthur,Lupia,National Science Foundation,"Directorate for Social, Behavioral & Economic Sciences",2415 Eisenhower Avenue,C 13000,Alexandria,VA,22314,,Matching
Pavel,Lushnikov,University of New Mexico,Department of Mathematics and Statistics,MSC01 1115,,Albuquerque,NM,87131-0001,plushnik@math.unm.edu,Matching
Zan,Luthey-Schulten,University of Illinois,Department of Chemistry,"A544 CLSL, Box 19-6",600 S. Mathews Ave.,Urbana,IL,61801,zan@uiuc.edu,Matching
Edward,Lyman,University of Delaware,Department of Physics and Astronomy,258 Sharp Lab,,Newark,DE,19716,elyman@udel.edu,Matching
Gillian,Lynch,University of Texas Medical Branch,Department of Biochemistry and Molecular Biology,301 University Blvd,,Galveston,TX,77555-0640,gclynch@utmb.edu,Matching
Wladimir,Lyra,California State University Northridge,Department of Physics and Astronomy,18111 Nordhoff St,,Northridge,CA,91330,wlyra@nmsu.edu,Matching
Thomas,M. Truskett,The University of Texas at Austin,Chemical Engineering,200 E DEAN KEETON ST,C0400,Austin,TX,78712-1589,,Matching
Jianpeng,Ma,Baylor College of Medicine,,Room 302A,One Baylor Plaza - BCM125,Houston,TX,77030,jpma@bcm.tmc.edu,Matching
Mordecai-Mark,Mac Low,American Museum of Natural History,Department of Astrophysics,79th Street at Central Park West,,New York,NY,10024-5192,mordecai@amnh.org,Matching
Allan,MacDonald,University of Texas at Austin,Department of Physics,"2515 SPEEDWAY, Stop C1600",,Ausitn,TX,78712,macd@physics.utexas.edu,Matching
Sharon,Machlis,Computerworld,,492 Old Connecticut Path,,Framingham,MA,01701-4584,,Matching
Alexander D.,"MacKerell, Jr.","University of Maryland, Baltimore County",Computer-Aided Drug Design Center,20 Penn Street,Room 633,Baltimore,MD,21201,alex@outerbanks.umaryland.edu,Matching
Don,Madison,Missouri University of Science and Technology,Department of Physics,107 Physics,1315 N Pine Street,Rolla,MS,65409,madison@mst.edu,Matching
Bill,Magness,ERCOT,,7620 Metro Center Drive,,Austin,TX,78744,,Matching
Ross,Maguire,University of Maryland,Department of Geology,8000 Regents Dr.,GEOL 1113,College Park,MD,20742,rmaguire@unm.edu,Matching
Blanka,Magyari-Kope,Stanford University,Stanford NanodevOden Institute for Computational Engineering and Sciences Group,420 Via Palou Mall,Paul G. Allen 105,Stanford,CA,94305-4070,blankamk@stanford.edu,Matching
Swadesh,Mahajan,University of Texas at Austin,Department of Physics,"2515 SPEEDWAY, Stop C1600",,Austin,TX,78712-1192,mahajan@mail.utexas.edu,Matching
Krishnan,Mahesh,University of Minnesota,Department of Aerospace Engineering and Mechanics,107 Akerman Hall,110 Union St. SE,Minneapolis,MI,55455,mahesh@aem.umn.edu,Matching
Narendra,Maheshri,Ginkgo Bioworks,,27 Drydock Ave.,,Boston,MA,02210,narendra@ginkgobioworks.com,Matching
Amit,Majumdar,"University of California, San Diego",San Diego Supercomputing Center,"9500 Gilman Drive, MC 0505",Room 327,La Jolla,CA,92093-0505,ammajumdar@yahoo.com,Matching
Dmitrii,Makarov,University of Texas at Austin,Oden Institute for Computational Engineering and Sciences,"201 E. 24th Street, POB 4.102",1 University Station (C0200),Austin,TX,78712-1224,makarov@cm.utexas.edu,Matching
George,Makhatadze,Rensselaer Polytechnic Institute,Biological Sciences,CBIS Rm 3732A,110 8th street,Troy,NY,12180,makhag@rpi.edu,Matching
Kevin,Maki,University of Michigan,Naval Architecture and Marine Engineering,2600 Draper Rd,210 NAME Bldg,Ann Arbor,MI,48109,kjmaki@umich.edu,Matching
Bill,Maloney,Balex,,8213 Lily Stone Drive,,Bethesda,MD,20817,,Matching
Vikash,Mansinghka,Massachusetts Institute of Technology,Dept. of Brain and Cognitive Sciences,43 Vassar st,,Cambridge,MA,02139,,Matching
â€‹Arumugam,Manthiram,The University of Texas at Austin,Materials Science and Engineering,204 E Dean Keeton Street,C2200,Austin,TX,78712-1591,,Matching
Philip,Marcus,"University of California, Berkeley",Mechanical Engineering ,6121 Etcheverry Hall,Mailstop 1740,Berkeley,CA,94720-1740,pmarcus@me.berkeley.edu,Matching
Roxana,Margine,Binghamton University,Department of Physics,4400 Vestal Parkway East,,Binghamton,NY,13902,,Matching
Ruth,Marinshaw,Stanford University,Stanford Research Computing Center,255 Panama St.,Room 251,Stanford,CA,94305,ruthm@stanford.edu,Matching
Christina,Markert,The University of Texas at Austin,Department of Physics,2515 Speedway,C1600,Austin,TX,78712-1192,cmarkert@physics.utexas.edu,Matching
Art,Markman,The University of Texas at Austin,IC2,108 E Dean Keeton Street,A8000,Austin,TX,78712-1043,,Matching
John ,Markoff,The New York Times,Journalist,620 Eighth Avenue,,New York,NY,10018,,Matching
Ally,Marotti,Chicago Tribune,Journalist,180 N Stetson Ave,,Chicago,IL,60601-6710,,Matching
Jessica,Marquez,Del Valle High School,Teacher,5201 Ross Road,,Del Valle,TX,78617,jess.marquez98@gmail.com,Matching
Raquel,Marquez,The University of Texas at San Antonio,Department of Sociology,1 UTSA Circle,,San Antonio ,TX,78249,,Matching
Dario,Marrocchelli,Massachusetts Institute of Technology,Department of Nuclear Science & Engineering,77 Massachusetts Ave,,Cambridge,MA,02139,dmarrocc@mit.edu,Matching
Karen,Marrongelle,National Science Foundation,Directorate for Education and Human Resources,2415 Eisenhower Avenue,C 11004,Alexandria,VA,22314,,Matching
John,Marshall,UC Berkeley,Biostatistics and Epidemiology,2121 Berkely Way,Room 5302,Berkeley,CA,94720-7360,john.marshall@berkeley.edu,Matching
Cathy,Martin,IEEE Communications Magazine Online,Journalist,"3 Park Avenue, 17th Floor",,New York,NY,10016,,Matching
Rafael,Martin,The University of Texas at Dallas,Office of Research,800 W. Campbell Road,,Richardson,TX,75080-3021,,Matching
Charles,Martinez,The University of Texas at Austin,College of Education,1912 Speedway,D5000 ,Austin,TX,78712-1293,,Matching
Joaquim,Martins,University of Michigan,College of Engineering,1320 Beal Ave.,,Ann Arbor,MI,48109-2140,jrram@umich.edu,Matching
Davide,Martizzi,UC Santa Cruz,Department of Astronomy & Astrophysics,1156 High Street,ISB Bldg Room 260,Santa Cruz,CA,95064,,Matching
Sara,Mason,University of Iowa,Department of Chemistry,,W339 CB,Iowa City,IA,52242,sara-mason@uiowa.edu,Matching
Luca,Massa,The University of Texas at Arlington,Aerospace Engineering,701 South Nedderman Drive,,Arlington,TX,76019,massa@uta.edu,Matching
Mike,Matus,HPE,Enterprise Account Manager,12973 Valley Circle,,College Station,TX,77845,,Matching
Silvina,Matysiak,"University of Maryland, College Park",Fischell Department of Bioengineering,8278 Paint Branch Drive,3102 A. James Clark Hall,College Park,MD,20742,matysiak@umd.edu,Matching
Dmitry,Matyushov,Arizona State University,Department of Physics / School of Molecular Sciences,P.O. Box 871504,,Tempe,AZ,85281,dmitrym@asu.edu,Matching
Mikhail,Matz,The University of Texas at Austin,Department of Integrative Biology,205 W 24th ST ,C0990,Austin,TX,78712,matz@utexas.edu,Matching
â€‹Michael,Mauk,The University of Texas at Austin,College of Natural Sciences,100 E 24TH STREET,C7000,Austin,TX,78712,,Matching
Frederick,Maxfield,Weill Cornell Medicine,Biochemistry,1300 York Avenue,Room E-215,New York,NY,10065,frmaxfie@med.cornell.edu,Matching
Eric,May,University of Connecticut,Department of Molecular and Cell Biology,91 N. Eagleville Rd,Unit 3125,Storrs,CT,06269-3125,eric.may@uconn.edu,Matching
Matthew,Mazloff,Scripps Institution of Oceanography,"Climate, Asmospheric Science & Physical Oceanography",9500 Gilman Drive #0230,,La Jolla,CA,92093-0230,mmazloff@ucsd.edu,Matching
Linda A.,McBrearty,National Science Foundation,Office of Legislative & Public Affairs,2415 Eisenhower Avenue,W 18147,Alexandria,VA,22314,,Matching
Michael,McCaul,U.S. House of Representatives,,9009 Mountain Ridge Drive,Suite 230,Austin,TX,78759,,Matching
Michael,McCourt,"University of California, Santa Barbara",Department of Physics,Broida Hall,2015H,Santa Barbara,CA,93106,mjm458@cornell.edu,Matching
Victor,McCrary,National Science Foundation,National Science Board,2415 Eisenhower Avenue,W 19200,Alexandria,VA,22314,,Matching
Elena,McDonald-Buller,The University of Texas at Austin,"Department of Civil, Architectural and Environmental Engineering, Cockrell School of Engineering",301 E. Dean Keeton St.,Stop C1700,Austin,Texas,78712-0273,ecmb@mail.utexas.edu,Matching
Maurie,McInnis,The University of Texas at Austin,Executive Vice President and Provost,110 Inner Campus Drive,STOP G1000,Austin,TX,78712-1701,,Matching
Jonathan,McKinney,"University of Maryland, College Park",Department of Physics,3114 Physical Sciences Complex,University of Maryland,College Park,MD,20742,jcm@umd.edu,Matching
Will,McMahon,U.S. Army Corps of Engineers,Engineer Research and Development Center,3909 Halls Ferry Road,,Vicksburg,MS,39180-6199,,Matching
Michael,McQuade,Carnegie Mellon University,Office of the Vice President for Research,5000 Forbes Avenue,,Pittsburgh,PA,15213,michael.e.mcquade@conocophillips.com,Matching
David,Medellin Salas,University of Texas at Austin,Hildebrand Department of Petroleum and Geosystems Engineering,200 E. Dean Keeton St.,Stop C0300,Austin,TX,78712-1585,djmedellin@utexas.edu,Matching
Deepankar,Medhi,National Science Foundation,Division of Computer and Network Systems  (CISE/CNS),2415 Eisenhower Avenue,W 10129,Alexandria,VA,22314,,Matching
Julia,Medvedeva,Missouri University of Science and Technology,Department of Physics,1315 N Pine Street,114 Physics,Rolla,MO,65409-0640,jem@pluto.phys.nwu.edu,Matching
Eckart,Meiburg,"University of California, Santa Barbara",Department of Mechanical Engineering,,"Engineering II, Room 2351",Santa Barbara,CA,93106-5070,meiburg@engineering.ucsb.edu,Matching
Stefan,Meinel,University of Arizona,Department of Physics,1118 E 4th Street,P.O. Box 210081 ,Tucson,AZ,85721-0081,smeinel@email.arizona.edu,Matching
Ruby ,Mendenhall,University of Illinois at Urbana-Champaign,Sociology and African American Studies,702 S. Wright Street,MC-454,Urbana,IL,61801,,Matching
Ying,Meng,"University of California, San Diego",Structural and Materials Engineering,"9500 Gilman Dr., SME Building MC 0448 ",SME 242G,La Jolla,CA,92093,shirleymeng@ucsd.edu,Matching
Nirav,Merchant,University of Arizona,"Data Science Institute, BioSciences Research Laboratories",1230 N. Cherry Ave.,BSRL 200 A,Tucson,AZ,85721,nirav@email.arizona.edu,Matching
Blake,Mertz,West Virginia University,C. Eugene Bennett Department of Chemistry,217 Clark Hall,361 Chemistry Research Labs,Morgantown,WV,26506,blake.mertz@mail.wvu.edu,Matching
Travis,Metcalfe,Space Science Institute,,4750 Walnut St.,Suite 205,Boulder,CO,80301,travis@spsci.org,Matching
Cade,Metz,"New York Times - San Francisco Bureau, The",,221 Main St Ste 1250,,San Francisco,CA,94105-1961,,Matching
Aaron,Meyer,Brookhaven National Lab,Physics Department,,Mail Stop: 510A,Upton,NY,11973-5000,ameyer@quark.phy.bnl.gov,Matching
Eric,Meyer,The University of Texas at Austin,School of Information,1616 Guadalupe St.,D8600,Austin,TX,78701,,Matching
Lauren,Meyers,University of Texas at Austin,"Department of Integrative Biology, Department of Statistics and Data Sciences","2415 SPEEDWAY, Stop C0990","IB PAT LABS, PAT 656",Austin,TX,78712,laurenmeyers@austin.utexas.edu,Matching
Maosheng,Miao,California State University-Northridge,Department of Chemistry and Biochemistry,18111 Nordhoff Street,EH 2224,Northridge,CA,91330,miaoms@gmail.com,Matching
Bogdan,Mihaila,National Science Foundation,Division of Physics,2415 Eisenhower Avenue,W 9241,Alexandria,VA,22314,bmihaila@nsf.gov,Matching
Osama,Mikhail,The University of Texas at El Paso,College of Health Sciences,500 West University Ave.,,El Paso,TX,79968,,Matching
Thomas,Miller,California Institute of Technology,Division of Chemistry and Chemical Engineering,1200 E. California Blvd.,MC 127-72,Pasadena,CA,91125,tfm@caltech.edu,Matching
Susan,Miller,GCN,"1105 Media, Inc. ",8251 Greensboro Drive,Suite 510,McLean,VA,22102,sjmiller@email.arizona.edu,Matching
Therese,Miller,Indiana University,University Information Technology ServOden Institute for Computational Engineering and Sciences,"CIB, 2709 E 10th St",,Bloomington,IN,47408,millertm@indiana.edu,Matching
William,Miller,National Science Foundation,Office of Advanced Cyberinfrastructure  (CISE/OAC),2415 Eisenhower Avenue,Room: E 10469,Alexandria,VA,22314,WLMiller@nsf.gov,Matching
Mark,Miller,San Diego Supercomputer Center,"Principal Investigator, Biology",9500 Gilman Dr,Mail Code: 0505,La Jolla,CA,92093-0505 ,mmiller@sdsc.edu,Matching
Cole,Miller,"University of Maryland, College Park",Department of Astronomy,4296 Stadium Dr.,PSC 1114,College Park,MD,20742-2421,miller@astro.umd.edu,Matching
Richard,Miller,UT Health Science Center - Houston,Office of the Chief Information Officer,7000 Fannin Street,"UCT-1165B, P.O. Box 20036 ",Houston,TX,77030-5401,rdm144@txstate.edu,Matching
Bill,Miller III,Truman State University,Department of Chemistry,100 E. Normal Avenue,MG 3128,Kirksville,MO,63501,brmiller@truman.edu,Matching
James,Milliken,The University of Texas System,Office of the Chancellor,210 West 7th Street,,Austin,TX,78701-2982,,Matching
Harry R,Millwater,The University of Texas at San Antonio,Department of Mechanical Engineering,"Engineering Building, EB 3.04.02, One UTSA Circle",AET 2.330,San Antonio ,TX,78249,,Matching
Marc,Milstein,The University of Texas Southwestern Medical Center ,Office of Systemwide Information ServOden Institute for Computational Engineering and Sciences,5323 Harry Hines Blvd.,,Dallas,TX,75390-7201,,Matching
Marie Lynn,Miranda,Rice University,Office of the Provost,P.O. Box 1892,,Houston,TX,77251-1892,,Matching
Rohan,Mishra,Washington University in St. Louis,McKelvey School of Engineering,"Campus Box 1100, 1 Brookings Drive","Urbauer Hall, Room 314F",St. Louis,MO,63130-4899,rmishra@wustl.edu,Matching
Vasubandhu,Misra,Florida State University,"Departmet of Earth, Ocean & Atmospheric Science","2000 Levy Avenue, Building A, Suite 292",Rm. 279,Tallahassee,FL,32306-2741,vmisra@fsu.edu,Matching
Lubos,Mitas,North Carolina State University at Raleigh,Department of Physics,421 Riddick Hall,Campus Box 8202,Raleigh,NC,27695-8202,lmitas@unity.ncsu.edu,Matching
Rajat,Mittal,Johns Hopkins University,"Department of Mechanical Engineering, Whiting School of Engineering",3400 North Charles Street,Latrobe Hall 223,Baltimore,MD,21218-2682,mittal@gwu.edu,Matching
Philipp,Moesta,University of California-Berkeley,Department of Astronomy,501 Campbell Hall #3411,Office: 465,BERKELEY,CA,94720-3411,p.moesta@uva.nl,Matching
Jacob,Moldenhauer,University of Dallas,Department of Physics,1845 E Northgate Dr,Haggerty Science Center #40,Irving,TX,75062-4736,jmoldenhauer@udallas.edu,Matching
Kathryn,Moler,Stanford University,Departmet of Applied Physics,"348 Via Pueblo Mall, Geballe Lab. for Advanced Materials",McCullough 356,Stanford,CA,94305-4090,,Matching
Megan,Molteni,Wired,,,520 3rd St Ste 305,San Francisco,CA,94107-6805,,Matching
Brandon,Moore,GRC,,11525 Stonehollow Drive,Suite A150,Austin,TX,78702,,Matching
Leonard N.,Moore,The University of Texas at Austin,History Department,128 Inner Campus Dr. B7000,GAR 2.111/ SSB 4.118,Austin,TX,78712-1739,,Matching
Jorge,Morales,Texas Tech University,Department of Chemistry and Biochemistry,1204 Boston Avenue,Chemistry 039,Lubbock,TX,79409-1061,jorge.morales@ttu.edu,Matching
Emilio,Moran,Michigan State University,Center for Systems Integration and Sustainability,"115 Manly Miles Building, 1405 S. Harrison Rd.",Room 218,East Lansing,MI,48823,,Matching
Erin,Morgan,The University of Texas at Arlington,Office of Information Technology,701 S. Nedderman Drive,Box 19318,Arlington,TX,76019-0318,emorgan@uta.edu,Matching
Dane,Morgan,University of Wisconsin,"College of Engineering, Materials Science and Engineering",1509 University Avenue,Room 244,Madison,WI,53706,ddmorgan@wisc.edu,Matching
Paul,Morin,University of Minnesota-Twin Cities,Polar Geospatial Center,1954 Buford Avenue,R280 Learning & Environmental Sciences,Minneapolis,MN,55108,lpaul@umn.edu,Matching
Colin,Morningstar,Carnegie Mellon University,Departmet of Physics,5000 Forbes Avenue,Wean Hall 8420,Pittsburgh,PA,15213,colin_morningstar@cmu.edu,Matching
David,Morse,University of Minnesota,Chemical Engineering and Materials Science,421 Washington Ave SE,308 Amundson Hall,Minneapolis,MI,55455-0132,morse012@umn.edu,Matching
Lauren,Moseley,Columbia University,Lamont-Doherty Earth Observatory,400 W 119th St Apt 6J,,New York,NY,10027,lm3391@columbia.edu,Matching
Robert,Moser,University of Texas at Austin,Institute for Computational Engineering and Sciences,"201 E. 24th Street, POB 4.102, 1 University Station (C0200)",POB 6.412,Austin,TX,78712,rmoser@ices.utexas.edu,Matching
David,Moses,Pittsburgh Supercomputing Center,,300 S. Craig Street,,Pittsburgh,PA,15213,,Matching
Dave,Mosher,Insider Inc.,,"One Liberty Plaza, Floor 8",,New York,NY,10006-1404,,Matching
Sharon,Mosher,The University of Texas at Austin,Jackson School of Geosciences,2305 Speedway Stop C1160,JGB 6.218,Austin,TX,78712-1692,,Matching
Tim,Mueller,Johns Hopkins University,Department of Materials Science and Engineering,3400 North Charles Street,Maryland Hall 101E,Baltimore,MD,21218-2608,tmueller@jhu.edu,Matching
â€‹Peter,Mueller,The University of Texas at Austin,Statistics and Data Science,"2515 SPEEDWAY, C1200",Room RLM 11.174,Austin,TX,78712-1202,,Matching
Vel,Murugan,Arizona State University,Biodesign Institute,1001 S. McAllister Ave.,AL1-30J ,Tempe,AZ,85281,,Matching
Jeff,Muskus,Bloomberg Businessweek,,731 Lexington Ave,,New York,NY,10022-1331,,Matching
Robert,Nachtmann,The University of Texas at El Paso,College of Business,500 West University Ave.,Business Administration Building Rm. 101,El Paso,TX,79968,,Matching
Thyaga,Nandagopal,National Science Foundation,Directorate for Computer & Information Science & Engineering ,2415 Eisenhower Avenue,W10235,Alexandria,VA,22314,,Matching
Shikha,Nangia,Syracuse University,Department of Biomedical and Chemical Engineering,343 Link Hall,Syracuse University,Syracuse,NY,13244,snangia@syr.edu,Matching
Stephanie,Nano,Associated Press,,1 World Financial Ctr Lbby 5,,New York,NY,10281-1011,,Matching
Ramesh,Narayan,Harvard University,"Department of Astronomy, Harvard-Smithsonian Center for Astrophysics ","60 Garden St., MS-51","Perkin Lab, P-232 ",Cambridge,MA,02138,rnarayan@cfa.harvard.edu,Matching
Ponnada,Narayana,The University of Texas Health Science Center at Houston,Department of Diagnostic & Interventional Imaging,6431 Fannin St,MSB 2.130B,Houston,TX,77030,ponnada.a.narayana@uth.tmc.edu,Matching
Rajamani,Narayanan,Florida International University,Department of Physics,,Room No: STK 204,Miami,FL,33199,rajamani.narayanan@fiu.edu,Matching
Ana,Navarro Ovitt,The University of Texas at Austin,OFFICE OF VP DEVELOPMENT,"2901 N IH 35, Stop A3000",DEV 4.414,Austin,TX,78722,,Matching
Paul,Navratil,University of Texas at Austin,Texas Advanced Computing Center,PRC/ROC 1.101,1010 Burnet Road,Austin,TX,78758,pnav@tacc.utexas.edu,Matching
Richard,Neptune,The University of Texas at Austin,Walker Department of Mecanical Engineering,"204 E DEAN KEETON ST, STOP C2200",ETC 5.208A,Austin,TX,78712-1591,rneptune@mail.utexas.edu,Matching
Pierre,Neuenschwander,The University of Texas Health Science Center at Tyler,School of Medical Biological Sciences,11937 U.S. Highway 271,,Tyler ,TX,75708,Pierre.Neuenschwander@uthct.edu,Matching
Jeffrey,Neyland,The University of Texas at Arlington,Office of Information Technology,Box 19318,,Arlington,TX,76019-0318,,Matching
Hung,Nguyen,"University of California, Irvine","Dept. of Chemical Engineering and Materials Science, Samueli School of Engineering",5200 Engineering Hall,,Irvine,CA,92697-2700,Hung.V.Nguyen@usace.army.mil,Matching
Richard,Nieva,CNET,,235 2nd St,,San Francisco,CA,94105-3124,,Matching
Mark,Nijland,The University of Texas Health Science Center at San Antonio,Office of Vice President for Research,8403 Floyd Curl Dr,,San Antonio,TX,78229,nijland@uthscsa.edu,Matching
Branislav,Nikolic,University of Delaware,Department of Physics,234 Sharp Lab,,Newark,DE,19716,bnikolic@udel.edu,Matching
KEN-ICHI,NISHIKAWA,"University of Alabama, Huntsville",The Center for Space Plasma and Aeronomic Research,Optics Building,ZP 12,Huntsville,AL,35899,,Matching
Fenglin,Niu,Rice University,"Earth, Environmental, and Planetary Sciences","MS-126, 6100 Main Street",KWGL 316,Houston,TX,77005,niu@rice.edu,Matching
George,Niznik,Facebook,,1 Hacker Way,,Menlo Park,CA,94568,,Matching
Scott,Noble,University of Tulsa,"College of Engineering & Natural Sciences, Physics and Engineering Physics",800 S. Tucker Drive,,Tulsa,OK,74104,scott.c.noble@nasa.gov,Matching
Amaury,Nora,The University of Texas at San Antonio,College of Education and Human Development,1 UTSA Circle,MB 3.304,San Antonio ,TX,78249,,Matching
Sean,Norman,University of South Carolina,Arnold School of Public Health,921 Assembly Street,Public Health Research Center 501E,Columbia,SC,29208,rsnorman@sc.edu,Matching
Bruce,Novak,The University of Texas at Dallas,School of Natural Science and Mathematics,800 W. Campbell Road, FN 3.120D Mailstop - FN32,Richardson,TX,75080-3021,,Matching
Martin,Nowak,Harvard University,"Mathematics and Biology,  Program Evolutionary Dynamics",One Brattle Square,Suite 6,Cambridge,MA,02138-3758,,Matching
Nick,Nystrom,Pittsburgh Supercomputing Center,,300 S. Craig Street,,Pittsburgh,PA,15213,,Matching
Edward,O'Brien,Pennsylvania State University,Department of Chemistry,104 Chemistry Building,,University Park,PA,16801,,Matching
Eoin,O'Carroll,"Christian Science Monitor, The",,210 Massachusetts Ave,,Boston,MA,02115-3012,,Matching
Peter,O'Donnell,O'Donnell Foundation ,,100 Crescent Ct,#1660,Dallas,TX ,75201,,Matching
Brian,O'Shea,Michigan State University,"College of Natural Science, Computational Mathematics Science and Engineering",428 S. Shaw Ln.,"Room 1508F, Engineering Building",East Lansing,MI,48824,,Matching
Ellen,Ochoa,National Science Foundation,National Science Board,2415 Eisenhower Avenue,W 19200,Alexandria,VA,22314,,Matching
Timothy,Ochran,The University of Texas Health Science Center at Tyler,Office of Innovation,11937 US-271,,Tyler ,TX,76708,,Matching
J. Tinsley,Oden,The University of Texas at Austin,Institute for Computational Engineering and Sciences,"201 E. 24th Street, POB 4.102, 1 University Station (C0200)",POB 6.324,Austin,TX,78712-1229,,Matching
Artem,Oganov,Stony Brook University,Department of Geosciences,255 Earth and Space Science Building,ESS 354   ,Stony Brook,NY,11794-2100,artem.oganov@sunysb.edu,Matching
Siang Peng,Oh,"University of California, Santa Barbara",Department of Physics,Broida Hall,Campus MailCode: 9530,Santa Barbara,CA,93106-9530,peng@physics.ucsb.edu,Matching
Ivan,Oleynik,University of South Florida,Department of Physics,4202 East Fowler Ave ,ISA 5109,Tampa,FL,33620-7100,iioleynik@gmail.com,Matching
Lorraine,Olson,Rose-Hulman Institute of Technology,Department of Mechanical Engineering,5500 Wabash Avenue,,Terre Haute,IN,47803,,Matching
Jon,Olson,The University of Texas at Austin,Hildebrand Department of Petroleum and Geosystems Engineering,"200 E. Dean Keeton St., Stop C0300","CPE 5.168B, CPE 2.502",Austin,TX,78712-1585,jolson@mail.utexas.edu,Matching
Shyue Ping,Ong,"University of California, San Diego",Jacobs School of Engineering,9500 Gilman Drive,,La Jolla,CA,92093-0448,shyue@mit.edu,Matching
Peter,Onyisi,University of Texas at Austin,Department of Physics,"2515 SPEEDWAY, Stop C1600",RLM 10.211,Austin,TX,78712-1192,ponyisi@utexas.edu,Matching
Meers,Oppenheim,Boston University,Department of Astronomy,,CAS 517,Boston,MA,02215,meerso@bu.edu,Matching
Leigh,Orf,University of Wisconsin-Madison,Space Science and Engineering Center,1225 W. Dayton St.,,MADISON,WI,53706,leigh.orf.temporary@ssec.wisc.edu,Matching
Roberto,Osegueda,The University of Texas at El Paso,Office of Research and Sponsored Projects,500 West University Ave.,,El Paso,TX,79968,,Matching
Christian,Ott,California Institute of Technology,,Mailcode 350-17,1200 E California Blvd,Pasadena,CA,91125,cott@ocslabs.com,Matching
Margaret,Owen,The University of Texas at Dallas,School of Behavorial and Brain Sciences,800 W. Campbell Road,,Richardson,TX,75080-3021,,Matching
Craig,Owen,UT MD Anderson,,1515 Holcombe Blvd,,Houston,TX,77030,,Matching
Sefika,Ozkan,Arizona State University,"Center for Bioenergy and Photosynthesis, Physics, Center for Biological Physics",P.O. Box 871504,,Tempe,AZ,85287,Banu.Ozkan@asu.edu,Matching
Pete,Pachal,Mashable,,114 5th Ave Fl 14,,New York,NY,10011-5610,,Matching
Nahum,Pacheco,Lanier High School,,1201 Payton Gin Rd,,Austin,TX,78758,,Matching
Stephen,Paddison,"University of Tennessee, Knoxville",Chemical & Biomolecular Engineering,321 Dougherty Engineering Building,,Knoxville,TN,37996,spaddison@utk.edu,Matching
Francesco,Paesani,"University of California, San Diego",Chemistry and Biochemistry,"Urey Hall 3242, MC 0314",9500 Gilman Drive,Salt Lake City,UT,84112,paesani@hec.utah.edu,Matching
Jeremy,Palmer,University of Houston,Chemical and Biomolecular Engineering,S222 Engineering Building 1,Chemical and Biomolecular Engineering,Houston,TX,77204,jcpalmer@unity.ncsu.edu,Matching
Sudhakar,Pamidighantam,Indiana University,Chemistry,2709 East 10th Street,,Bloomington,IN,47408,spamidig@illinois.edu,Matching
Sethuraman,Panchanathan,Arizona State University,Office of Knowledge Enterprise Development,300 E University Drive,PO Box 877205,Tempe,AZ,85287-7205,,Matching
Anna,Panchenko,National Institutes of Health,,8600 Rockville Pike,"Bldg 38A, Room 8S814",Bethesda,MD,20894,panch@ncbi.nlm.nih.gov,Matching
Joseph,Pancrazio,The University of Texas at Dallas,Office of Research,800 W. Campbell Road,,Richardson,TX,75080-3021,,Matching
D.K. ,Panda,Ohio State University,Dept. of Computer Science and Engineering,2015 Neil Avenue,Dreese Lab 785,Columbus,OH,43210,,Matching
Manish,Parashar,National Science Foundation,Directorate for Computer & Information Science & Engineering ,2415 Eisenhower Avenue,E 10463,Alexandria,VA,22314,mpesz@ices.utexas.edu,Matching
Lynne,Parker,National Science Foundation,Directorate for Computer & Information Science & Engineering ,2415 Eisenhower Avenue,C 10049,Alexandria,VA,22314,,Matching
Joy,Pauschke,National Science Foundation,Directorate for Engineering,2415 Eisenhower Avenue,E 13322,Alexandria,VA,22314,jpauschk@nsf.gov,Matching
Yulia,Peet,Arizona State University,"School for the Engineering of Matter, Transport and Energy","501 E. Tyler Mall, PO Box 876106",,Tempe,AZ,85287,ypeet@asu.edu,Matching
Thierry,Pellegrino,DellEMC,Vice President Business Strategy & HPC Solutions Server and Infrastructure Systems,1 Dell Way,,Round Rock,TX,78682,,Matching
Wuxu,Peng,Texas State University,Department of Computer Science,601 University Drive,CMAL 309B,San Marcos,TX,78666-4684,wuxu@txstate.edu,Matching
Bruce,Pennycook,The University of Texas at Austin,Arts and Entertainment Technologies,2406 ROBERT DEDMAN DR,E3100,Austin,TX,78712-1555,bpennycook@austin.utexas.edu,Matching
Jerry,Perez,Texas Tech University,,6904 34th St.,,Lubbock,TX,79407,jerry.perez@ttu.edu,Matching
Jerry,Perez,The University of Texas at Dallas,Office of Information Technology,17217 Waterview Parkway,,Dallas,TX,75252,jerry.perez@ttu.edu,Matching
Jean,Perez,University of New Hampshire,"Aerospace, Physics and Space Sciences","150 W University blvd., OPS 350",,Melbourne,FL,32901,jeanc.perez@unh.edu,Matching
Juan R.,Perilla,University of Delaware,Department of Chemistry & Biochemistry,177 Brown Laboratory,Perilla Laboratory,Newark,DE,19716,,Matching
Marty,Perlmutter,Balex,,8213 Lily Stone Drive,,Bethesda,MD,20817,,Matching
Ellyn,Perrone,UT Austin,Office of the Vice President for Research,PO Box 7996,G1400,Austin,TX,78713,,Matching
George,Perry,The University of Texas at San Antonio,BIOLOGY - 01860,1 UTSA Circle,BSE 2.110D,San Antonio ,TX,78249,,Matching
Franco,Pestilli,Indiana University Bloomington,Dept of Psychological and Brain Sciences,1101 E 10th Street,,Bloomington,IN,47405,franpest@indiana.edu,Matching
G. P.,Peterson,Georgia Institute of Technology,Office of the President,North Avenue,,Atlanta,GA,30332,,Matching
Monte,Pettitt,The University of Texas Medical Branch at Galveston,Sealy Center for Structural Biology and Molecular Biophysics,301 University Blvd.,5.404A Research Bldg 6,Galveston,TX,77555-0304,,Matching
B MONTGOMERY,PETTITT,University of Texas Medical Branch,,Sealy Center for Structural Biology,301 University,Galveston,TX,77555,mpettitt@utmb.edu,Matching
Steve,Phelps,University of Texas at Austin,Department of Integrative Biology,Department of Integrative Biology,Patterson Lab,Austin,TX,78712,sphelps@mail.utexas.edu,Matching
Julia,Phillips,National Science Foundation,National Science Board,2415 Eisenhower Avenue,W 19200,Alexandria,VA,22314,,Matching
Niles,Pierce,California Institute of Technology,The Pierce Lab,Mail Code 114-96,,Pasadena,CA,91125,niles@caltech.edu,Matching
Marlon,Pierce,Indiana University,Cyberinfrastructure Building,2709 E. 10th Street,,Bloomington,IN,47408,marpierc@iu.edu,Matching
Luca,Pinello,Massachusetts General Hospital,,55 Fruit Street,,Boston,MA,02114,lpinello@mgh.harvard.edu,Matching
Keshav,Pingali,The University of Texas at Austin,Oden Institute for Computational Engineering and Sciences,2317 SPEEDWAY,D9500,Austin,TX,78712-1757,pingali@cs.utexas.edu,Matching
David,Pittman,Engineer Research and Development Center,,3909 Halls Ferry Road,,Vicksburg,MS,39180-6199,,Matching
Beth,Plale,National Science Foundation,Directorate for Computer & Information Science & Engineering ,2415 Eisenhower Avenue,E 10475,Alexandria,VA,22314,plale@cs.indiana.edu,Matching
Daniel,Podolsky,The University of Texas Southwestern Medical Center ,Office of the President,5323 Harry Hines Blvd.,,Dallas,TX,75390,,Matching
Nikolai,Pogorelov,University of Alabama in Huntsville,Space Science Department,301 Sparkman Drive,,Huntsville,AL,35805,np0002@uah.edu,Matching
Taras,Pogorelov,University of Illinois,Chemistry,405 N. Mathews Avenue,MC 251,Urbana,IL,61801,pogorelo@illinois.edu,Matching
Bill,Poirier,Texas Tech University,Department of Chemistry and Biochemistry,1204 Boston Avenue,,Lubbock,TX,79409-1061,Bill.Poirier@ttu.edu,Matching
Peera,Pongkitiwanichakul,Mahidol University,Department of Physics,5640 S. Ellis Ave,,Chicago,IL,60637,peerious@gmail.com,Matching
Valerie,Potter,Computerworld,,501 2nd St Ste 600,,San Francisco,CA,94107-4133,,Matching
Peter,Poulin,GRC,,11525 Stonehollow Drive,Suite A150,Austin,TX,78702,,Matching
Thomas,Poulos,"University of California, Irvine",,2206 Natural Science 1,,Irvine,CA,92697-3900,poulos@uci.edu,Matching
Sushil,Prasad,National Science Foundation,Directorate for Computer & Information Science & Engineering ,2415 Eisenhower Avenue,E 10459,Alexandria,VA,22314,,Matching
Chris,Preimesberger,eWeek,,950 Tower Ln Fl 6,,Foster City,CA,94404-2121,,Matching
William,Press,The University of Texas at Austin,Oden Institute for Computational Engineering and Sciences,201 E. 24th Street,POB 4.102,Austin,TX,78712-1229,wpress@cs.utexas.edu,Matching
Frans,Pretorius,Princeton University,Physics,219 Jadwin Hall,Jadwin Hall,Pasadena,CA,91125,fpretori@princeton.edu,Matching
Timothy,Prickett Morgan,The Next Platform,,299 Blackberry Road,,Boone,NC,28607,,Matching
Philip,Pritchett,"University of California, Los Angeles",Plasma Simulation Group,405 Hilgard Avenue,Department of Physics and Astronomy,Los Angeles,CA,90095-1547,pritchet@physics.ucla.edu,Matching
Masa,Prodanovic,University of Texas at Austin,Department of Petroleum and Geosystems Engineering,University of Texas at Austin,"200 E. Dean Keeton, Stop C0300",Austin,TX,78712,masha@utexas.edu,Matching
Jacob,Ptacek,UT PCARP,Division of Diversity and Community Engagement,505 E Huntland Drive,270.D,Austin,TX,78752,,Matching
MJ,Pueschel,The University of Texas at Austin,Institute for Fusion Studies,"2515 SPEEDWAY, Stop C1500",FUSION STUDIES,Austin,TX,78712,mjp@physics.wisc.edu,Matching
Matt,Puglisi,Netrias Data Solutions,,1162 Gateway Drive,,Annapolis,MD,21409,,Matching
YEVGENIY,PUZYREV,Vanderbilt University,Physics and Astronomy Dept,"Vanderbilt University, 6301 Stevenson Center",,Nashville,TN,37235,yevgeniy.s.puzyrev@vanderbilt.edu,Matching
Thomas,Quinn,University of Washington,School of Aquatic Fishery Sciences,Box 351580,UW,Seattle,WA,98195-1580,trq@astro.washington.edu,Matching
Scott,Rabenold,The University of Texas at Austin,University Development Office,2901 N IH 35,A3000,Austin,TX,78722,,Matching
David,Radice,Princeton University,Department of Astrophysical Sciences,4 Ivy Lane,,Princeton,NJ,08540,david.radice@psu.edu,Matching
Timour,Radko,US Department of Defense,,"833 Dyer Road, Room SP-344",,Monterey,CA,93943,tradko@nps.edu,Matching
Joachim,Raeder,University of New Hampshire,"Dept of Physics, Space Science Center",245G Morse Hall,8 College Road,Durham,NH,03824-3525,J.Raeder@unh.edu,Matching
Roman,Rafikov,Cambridge,DAMTP,Centre for Mathematical Sciences,Wilberforce Road,Cambridge,United Kingdom,CB3 0WA,rrr@ias.edu,Matching
Neeraj,Rai,Mississippi State University,Swalm School of Chemical Engineering,330 Swalm Chemical,Mississippi State University,Miss. State,MS,39762,neerajrai@che.msstate.edu,Matching
Mohan,Ramamurthy,UCAR/Unidata,Unidata,3300 Mitchell Lane,,Boulder,CO,80301,mohan@ucar.edu,Matching
Venkatramanan,Raman,University of michigan,Aerospace Engineering,1320 Beal Avenue,,Ann Arbor,MI,48109-2140,vraman@stanford.edu,Matching
Latha,Ramdas,The University of Texas M.D. Anderson Cancer Center,Enterprise Applications,PO BOX 301407,,Houston,TX,77230-1407,lramdas@mdanderson.org,Matching
Ramiro,Ramirez-Solis,The University of Texas Health Science Center at San Antonio,Institutional Research Cores,7709 Floyd Curl Drive,,San Antonio,TX,78229,,Matching
Ramamurthy,Ramprasad,University of Connecticut,School of Engineering,97 N Eagleville Rd,U-3136,Storrs,CT,06269,rampi.ramprasad@mse.gatech.edu,Matching
Vasireddy,Ravikiran,The University of Texas Health Science Center at Tyler,Department of Cellular and Molecular Biology,11937 US-271,,Tyler ,TX,75708,,Matching
Patrick,Reed,Cornell University,Civil and Environmental Engineering,212 Sackett Building,,University Park,PA,16802,patrick.reed@cornell.edu,Matching
Helen,Reed,Texas A&M University,College of Engineering,Texas A&M University College of Engineering,3127 TAMU,College Station,TX,77843-3141,helen.reed@tamu.edu,Matching
Leonard,Register,University of Texas at Austin,Department of Electrical and Computer Engineering,"10100 Burnet Rd., Bldg. 160",,Austin,TX,78758,register@austin.utexas.edu,Matching
Pengyu,Ren,University of Texas at Austin,Biomedical Engineering,"107 W DEAN KEETON ST, Stop C0800",,Austin,TX,78712-1801,pren@mail.utexas.edu,Matching
Christopher,Reynolds,University of Cambridge,Institute of Astronomy,Institute of Astronomy, Madingley Road,Cambridge,United Kingdom,CB3 0HA,chris@astro.umd.edu,Matching
Harris,"Reynolds, Jr.","Diamond Offshore Drilling, Inc.",,15415 Katy Freeway,,Houston,TX,77094,,Matching
Joshua,Rhodes,The University of Texas at Austin,Energy Institute,2304 Whitis Ave,C2400,Austin,TX,78712,joshdr@utexas.edu,Matching
Geraldine,Richmond,University of Oregon,Department of Chemistry,1253 University of Oregon,,Eugene,OR,97403,,Matching
Paul,Ricker,University of Illinois,"Astronomy, NCSA",1002 W. Green St.,,Urbana,IL,61801,pmricker@illinois.edu,Matching
Caroline,Riedl,University of Illinois at Urbana-Champaign,Physics,1901 South First Street,,Champaign,IL,61820,criedl@illinois.edu,Matching
Joyce,Rigelo,AutoAuto,,10036 Milla Circle,,Austin,TX,78748,jrigelo@utexas.edu,Matching
Robert,Riggleman,University of Pennsylvania,Riggleman Research Lab,"220 South 33rd St, Towne Room 311A",,Philadelphia,PA,19104,rrig@seas.upenn.edu,Matching
Pete,Riley,"Predictive Science, Inc.",,11337 Seda Pl.,,San Diego,CA,92037,pete@predsci.com,Matching
John,Risley,The University of Texas at Austin,Art and Art History,2301 SAN JACINTO BLVD,D1300,Austin,TX,78712-1421,,Matching
â€‹Jack ,Ritchie,The University of Texas at Austin,Physics,2515 SPEEDWAY,C1600,Austin,TX,78712-1192,,Matching
Stephen,Riter,The University of Texas at El Paso,University Administration,500 West University Ave.,,El Paso,TX,79968,,Matching
Jeroen,Ritsema,University of Michigan,Department of Earth and Environmental Sciences,1100 North University Avenue,Room 4534D,Ann Arbor,MI,48109-1005,jritsema@umich.edu,Matching
Jennifer,Roberts,Defense Advanced Research Projects Agency,,675 North Randolph Street,,Arlington,VA,22203-2114,jen.roberts@gmail.com,Matching
Stefan,Robila,National Science Foundation,Directorate for Computer & Information Science & Engineering ,2415 Eisenhower Avenue,E 10412,Alexandria,VA,22314,,Matching
James,Rogers,FOX News Channel Online,,1211 Avenue of the Americas Fl 14,,New York,NY,10036-8705,jhrogers@hpc.msstate.edu,Matching
Christopher,Roland,North Carolina State University at Raleigh,Department of Physics,Department of Physics,"Riddick Hall, Rm 319D",Raleigh,NC,27695,cmroland@ncsu.edu,Matching
Aldo,Romero,West Virginia University,Department of Physics and Astronomy,"White Hall, Box 6315, West Virginia University",,Morgantown,WV,26605,alromero@mail.wvu.edu,Matching
David,Romps,"University of California, Berkeley",Romps Group,Geological Museum 416,24 Oxford Street,Cambridge,MA,02138,davidromps@gmail.com,Matching
James,Rondinelli,Northwestern University,Dept. Materials Science & Eng,Dept. Materials Science & Eng,3141 Chestnut St,Philadelphia,PA,19104,jrondinelli@northwestern.edu,Matching
Andrew,Rosenbloom,Communications of the ACM,,2 Penn Plz,,New York,NY,10121-0101,,Matching
Peter,Rossky,Rice University,Dean of Wiess School of Natural Sciences,P.O. Box 1892,,Houston,TX,77251-1892,rossky@ices.utexas.edu,Matching
David,Roueche,Auburn University,Civil Engineering ,1301 Shelby Center,234 Harbert Center,Aubrun,AL,36849,dbr0011@auburn.edu,Matching
Benoit,Roux,University of Chicago,Department of Chemistry,Gordon Center for Integrative Science W323B,929 E. 57th St.,Chicago,IL,60637,roux@uchicago.edu,Matching
Robie Samanta,Roy,Lockheed Martin Corporation,,6801 ROCKLEDGE Dr.,,Bethesda,MD,20817,,Matching
Vadim,Roytershteyn,SPACE SCIENCE INSTITUTE,,4750 Walnut Street,,Boulder,CO,80301,vroytersh@gmail.com,Matching
Ray,Rueben,Del Valle High School,,5201 Ross Road,,Del Valle,TX,78617,,Matching
Natalia ,Ruiz-Juri,University of Texas at Austin,Center for Transportation Research,3925 W. Braker Ln.,D9300,Austin,TX,78759,,Matching
Brandon,Runnels,Univesity of Colorado Colorado Springs,Mechanical and Aerospace Engineering,1420 Austin Bluffs Parkway,,Colorado Springs,CO,80198,brunnels@uccs.edu,Matching
Erik,Russell,Coalition for Academic Scientific Computation,,626C Admiral Drive,Suite 530,Annapolis,MD,21401,,Matching
John,Russell,HPCwire,,3111 Camino Del Rio North,Suite 400,San Diego,CA,92108,jrusse2@uic.edu,Matching
â€‹Stephen,Russell,The University of Texas at Austin,Human Development and Family Sciences,108 E DEAN KEETON ST,A2702,Austin,TX,78712-1248,,Matching
Raymond,S. Greenberg,The University of Texas System,Office of Health Affairs,210 West 7th Street,,Austin,TX,78701-2982,,Matching
Michael,Sacks,The University of Texas at Austin,Oden Institute for Computational Engineering and Sciences/Biomedical Engineering,201 East 24th Street,POB 5.428,Austin,TX,78712-0027,msacks@ices.utexas.edu,Matching
Aleksander,Sadowski,Massachusetts Institute of Technology,,60 Garden St.,,Cambridge,MA,02138,asadowsk@mit.edu,Matching
Mitul,Saha,University of Texas Medical Branch,Dept of Biochemistry and Molecular Biology,301 University Blvd,,Galveston,TX,77550,misaha@utmb.edu,Matching
Shelly,Sakiyama-Elbert,The University of Texas at Austin,Biomedical Engineering,107 W DEAN KEETON ST,C0800,Austin,TX,78712-1801,sakiyama@utexas.edu,Matching
Howard M. ,Salis,Pennsylvania State University,Salis Lab - Penn State University,302 Wartik Building,,University Park,PA,16802,,Matching
Juan,Sanchez,The University of Texas at Austin,Oden Institute for Computational Engineering and Sciences,201 E 24TH ST,C0200,Austin,TX,78712-1229,jsanchez@austin.utexas.edu,Matching
Dawn,Sanchez,The University of Texas at Austin,University Development Office,2901 N IH 35,A3000,Austin,TX,78722,,Matching
Tuomas,Sandholm,Carnegie Mellon University,Computer Science Department,5000 Forbes Avenue,,Pittsburgh,PA,15213,,Matching
Gaurav,Sant,"University of California, Los Angeles",,"420 Westwood Plaza, 5731-J Boelter Hall, Los Angel",,Los Angeles,CA,90095,gsant@ucla.edu,Matching
Ramalingam,Saravanan,Texas A&M University,Department of Atmospheric Sciences,"Texas A&M University, 3150 TAMU",1204GA,College Station,TX,77843,sarava@tamu.edu,Matching
Anneila,Sargent,California Institute of Technology,"Physics, Mathematics and Astronomy",100 Parsons-Gates Hall Of Admin,249-17,Pasadena,CA,91125,,Matching
Philippe,Sautet,UCLA,Chemical and Biochemical Engineering,5531 Boelter Hall,Box 951592,Los Angeles,CA,90095,sautet@ucla.edu,Matching
Himanshu,Save,University of Texas at Austin,,"3925 W Braker Ln, Austin TX, 78759",WPR 2.6038,Austin,TX,78759,save@csr.utexas.edu,Matching
Gabriel,Sawakuchi,University of Texas M. D. Anderson Cancer Center,Department of Radiation Physics,1515 Holcombe Blvd,Unit 94,Houston,TX,77030,gsawakuchi@mdanderson.org,Matching
Evan,Scannapieco,Arizona State University,School of Earth and Space Exploration,PO Box 871,,Tempe,AZ,85287,evan.scannapieco@asu.edu,Matching
Nathaniel,Scharping,Discover,,21027 Crossroads Cir,,Waukesha,WI,53186-4055,,Matching
Randy,Schauer,Raytheon,,6260 Guardian Gateway,,Aberdeen Proving Ground,MD,21005,Randy_N_Schauer@raytheon.com,Matching
Mark,Scheel,California Institute of Technology,TAPIR,1200 E California Blvd,,PASADENA,CA,91106,scheel@tapir.caltech.edu,Matching
Frederick,Schmid,The University of Texas at Austin,University Development Office,2901 N IH 35,A3000,Austin,TX,78722,,Matching
Scott,Schmidler,Duke University,Duke Center for Systems Biology,Box 90251,223 Old Chem Bldg,Durham,NC,27708-0251,schmidler@stat.duke.edu,Matching
Jeremy,Schmit,Kansas State University,Department of Biochemistry and Molecular Biophysics,1711 Clafin Rd,,Manhattan,KS,66506,schmit@phys.ksu.edu,Matching
Michael,Schnabel,The University of Texas Health Science Center at San Antonio,Information Security,7703 Floyd Curl Drive,,San Antonio,TX,78229,,Matching
Edwin,Schneider,George Mason University,"Atmospheric, Oceanic, and Earth Sciences","114 Research Hall, Mail Stop 2B3",,Fairfax,VA,22030,eschnei1@gmu.edu,Matching
David,Schneider,IEEE Spectrum,,3 Park Ave Fl 17,,New York,NY,10016-5902,,Matching
Mark,Schnitzer,Stanford University,Biomedical Engineering and Sciences,318 Campus Drive,James H. Clark Center - Room W080,Stanford,CA,94305,,Matching
Don,Schulte,Amazon - AWS,,11501 Altera Parkway,Suite 201,Austin,TX,78757,,Matching
Benjamin,Schwartz,UCLA,Dept. Chemistry & Biochemistry,Box 951569,,Los Angeles,CA,90095-1569,schwartz@chem.ucla.edu,Matching
Matthew,Scotch,Arizona State University,Department of Biomedical Informatics,1001 S McAllister Ave,Biodesign Institute Bldg A,TEMPE,AZ,85281,,Matching
David,Scott,"Christian Science Monitor Daily, The",,210 Massachusetts Ave,,Boston,MA,02115-3012,,Matching
J. Norris,Sebastian,Del Valle High School,,5201 Ross Road,,Del Valle,TX,78617,,Matching
Christopher,Sedore,The University of Texas at Austin,Information Technology ServOden Institute for Computational Engineering and Sciences,PO Box 7407,G9805,Austin,TX,78713-7407,cmsedore@austin.utexas.edu,Matching
Alina,Selyukh,All Tech Considered - NPR/National Public Radio,,1111 N Capitol St NE,,Washington,DC,20002-7502,,Matching
Kamy,Sepehrnoori,University of Texas at Austin,Hildebrand Dept of Petroleum and Geosystems Eng,"200 E DEAN KEETON ST, Stop C0300",CPE 4.104A,Austin,TX,78712-1585,kamys@mail.utexas.edu,Matching
Arun,Seraphin,U.S. Senate Committee on Armed ServOden Institute for Computational Engineering and Sciences,,"Russell Senate Building, Room 228",,Washington,DC,20510-6050,,Matching
Robert,Service,Science,,1200 New York Ave NW,,Washington,DC,20005-3928,,Matching
Reza,Shahbazian-Yassar,University of Illinois at Chicago,Department of Mechanical & Industrial Engineering,842 W Taylor Street,2039 ERF / mail code 251,Chicago,IL,60607-7022,,Matching
Muhammad,Shaikh,University of Texas at Austin,Jackson School of Geosciences,2275 Speedway Stop C9000,,Austin,TX,78612-0254,shaikh@utexas.edu,Matching
Phiala,Shanahan,Massachusetts Institute of Technology,Department of Physics,77 Massachusetts Avenue,6-416,Cambridge,MA,02139-4307,pshana@mit.edu,Matching
Stephen,Shankland,CNET,,235 2nd St,,San Francisco,CA,94105-3124,,Matching
Yang,Shao-Horn,MIT   ,Department of Materials Science and Engineering,77 Massachusetts Avenue,6-113,Cambridge,MA,02139,,Matching
Stuart L.,Shapiro,University of Illinois,Astrophysics,M/C 704 - 237A Loomis Lab,1110 W. Green St.,Urbana,IL,61801,shapiro@astro.physics.uiuc.edu,Matching
Paul,Shapiro,University of Texas at Austin,Department of Astronomy,"2515 SPEEDWAY, Stop C1400",RLM 16.204,Austin,TX,78712-1205,shapiro@astro.as.utexas.edu,Matching
Anupam,Sharma,Iowa State University,Aerospace Engineering,"2271 Howe Hall, Room #2341",,Ames,IA,50011,sharma@iastate.edu,Matching
Mukul,Sharma,University of Texas at Austin,,"200 E DEAN KEETON ST, Stop C0300",CPE 5.118A,Austin,TX,78712,msharma@mail.utexas.edu,Matching
Amy,Shaw Thomas,The University of Texas System,UT System Office of Health Affairs,210 West 7th Street,,Austin,TX,78701-2982,,Matching
Joan-Emma,Shea,"University of California, Santa Barbara",Chemistry and Biochemistry,PSB North Room 4649B,,Santa Barbara,CA,93106-9510,shea@chem.ucsb.edu,Matching
Xiling,Shen,Duke University,Biomedical Engineering,101 Science Drive,Box 3382,Durham,NC,27708,,Matching
Michael,Sherman,The University of Texas Medical Branch at Galveston,Department of Biochemistry & Molecular Biology,301 University Blvd.,623 Basic Science Bldg,Galveston,TX,77555-0645,mbsherma@utmb.edu,Matching
Andrew,Sherman,Yale University,Center for Reseaâ€‹rch Computing,160 St. Ronan Street,,New Haven,CT,06511,andrew.sherman@yale.edu,Matching
Paula,Shireman,The University of Texas Health Science Center at San Antonio,Team Science,7710 Floyd Curl Drive,,San Antonio,TX,78229,,Matching
Joshua,Shrier,Haverford University,Chemistry,370 Lancaster Ave.,,Haverford,PA,19041,,Matching
Mark,Shuster,The University of Texas at Austin,Bureau of Economic Geology,10100 BURNET RD,E0610,Austin,TX,78758,,Matching
William ,Shute,UT System,,1750 Pennsylvania Avenue NW,Suite 900,Washington,DC,20006,,Matching
Gennady,Shvets,Cornell University,Engineering,142 Sciences Dr,,Ithaca,NY,14853,gena@physics.utexas.edu,Matching
Qimiao,Si,Rice University,Physics and Astronomy,6100 Main,MS-61,Houston,TX,77005,,Matching
Matthew,Sigman,The University of Utah,Department of Chemistry,315 South 1400 E,Room 2020,Salt Lake City,UT,84112,,Matching
Devin,Silvia,Michigan State University,Computational Mathematics Science and Engineering,Biomedical Physical Sciences Building,"567 Wilson Road, Room 3248",East Lansing,MI,48824,devin.silvia@gmail.com,Matching
David,Simmons,University of South Florida,Department of Chemical & Biomedical Engineering,"4202 E. Fowler Avenue, ENG 030",ENC 3205,Tampa,FL,33612,simmons@che.utexas.edu,Matching
Jacob,Simon,University of Colorado,"JILA, University of Colorado",440 UCB,,Boulder,CO,80309,jbsimon.astro@gmail.com,Matching
Jed,Singer,Two Six Labs,,4350 N. Fairfax Dr.,#410,Arlington,VA,22203,,Matching
Parampreet,Singh,Louisiana State University,Department of Physics and Astronomy,"255-A Nicholson Hall, Tower Drive",,Baton Rouge,LA,70803,psingh@phys.lsu.edu,Matching
Micah,Singleton,"Verge, The",,85 Broad St Fl 15,Attn: the Verge,New York,NY,10004-2434,,Matching
Manodeep,Sinha,Vanderbilt University,Department of Physics and Astronomy,6902 Stevenson Center,,Nashville,TN,37235,manodeep.sinha@vanderbilt.edu,Matching
Robert,Sinkovits,San Diego Supercomputer Center,,9500 Gilman Drive,MC-0505,La Jolla,CA,92093-0505,_sinkovit@sdsc.edu,Matching
Lorenzo,Sironi,Columbia University,Department of Philosophy ,550 W 120th St,Pupin Hall 1012,New York,NY,10027,lorenzosns@gmail.com,Matching
Happy,Sithole,Center for High Performance Computing,CSIR Campus,15 Lower Hope St.,,Rosebank,Cape Town,South Africa,,Matching
Edwin,Skidmore,University of Arizona,,"Cyverse/BIO5, 1657 E Helen St.",PO Box 210240,Tucson,AZ,85719,edwins@email.arizona.edu,Matching
Ryan,Smith,AnandTech,,1000 Clovelly Ct,,Raleigh,NC,27614-9489,rsicbm@gmail.com,Matching
Cory,Smith,Harvard University,Harvard Medical School,77 Avenue Louis Pasteur,NRB 238,Boston,MA,02115,,Matching
Dave,Smith,Luling High School,,"e 78648, 218 E Travis St",,Luling,TX,78648,,Matching
Lamar,Smith ,US House of Representatives,,2211 South IH-35,Suite 106,Austin,TX,78741,,Matching
Addison,Snell,InterSect360 Research,,PO Box 60296,,Sunnyvale,CA,94088,,Matching
Kent,Snider,Mellanox,,1750 Bolsover,,Houston,TX,77005,,Matching
Nate,Snook,University of Oklahoma,CAPS,120 David L. Boren Blvd.,NWC 4108,Norman,OK,73072,,Matching
Jackie,Snow,MIT Technology Review,,1 Main St,Suite 7,Cambridge,MA,02142-1599,,Matching
Mike,Snyder,Houston Chronicle,,4747 Southwest Fwy,,Houston,TX,77027-6901,,Matching
Stephen,Sofhauser,DellEMC,,14900 Avery Ranch Blvd,Suite: C200 Box 118,Austin,TX,78717,stephen_sofhauser@dell.com,Matching
Eric,Solberg,The University of Texas Health Science Center at Houston,Academic & Research Affairs,P.O. Box 20036,,Houston,TX,77225-0036,,Matching
Bill,Solomon,O'Donnell Foundation ,,100 Crescent Ct,#1660,Dallas,TX ,75201,,Matching
Ivan,Soltesz,Stanford University,Neurosurgery Department,"1201 Welch Rd., MSLS P355",MSLS P355,Stanford,CA,94305-5487,isoltesz@uci.edu,Matching
Marcos,Sotomayor,Ohio State University,Newman and Wolfrom Lab,100 West 18th Ave,,Columbus ,OH,61801,sotomayor.8@osu.edu,Matching
Diane,Souvaine,Tufts University,Computer Science Department,161 College Avenue,Halligan Hall 239,Medford,MA,2155,,Matching
Brian,Space,University of South Florida,Department of Chemistry,4202 E. Fowler Ave.,CHE205,Tampa,FL,33620,space@cas.usf.edu,Matching
Thomas,Spencer,The University of Texas Southwestern Medical Center ,Academic and Administrative Information Resources,5323 Harry Hines Blvd.,,Dallas,TX,75390,tland@utdallas.edu,Matching
Sylvia,Spengler,National Science Foundation,Directorate for Computer & Information Science & Engineering ,2415 Eisenhower Avenue,W 10116,Alexandria,VA,22314,,Matching
Dag,Spicer,Computer History Museum,Senior Curator,1401 N Shoreline Blvd,,Mountain View,CA,94043,,Matching
Anatoly,Spitkovsky,Princeton University,Department of Astrophysical Sciences,"Peyton Hall, Ivy Lane",,Princeton,NJ,08544,anatoly@astro.princeton.edu,Matching
Nathan,Springer,University of Minnesota,College of Biological Sciences,1445 Gortner Avenue,306 Biological Sciences Lab,St. Paul,MN,55108,springer@umn.edu,Matching
Rachel,Spurbeck,Battelle,Applied Genomics,505 King Avenue,,Columbus,OH,43201,,Matching
Ashok,Srinivasan,Florida State University,Department of Computer Science,253 Love Building,MC 4530,TALLAHASSEE,FL,32306,asrinivasan@uwf.edu,Matching
Priyanka,Srivastava,University of Texas Health Science Center at Houston,,"6431 Fannin Street, MSB 4.304A",,Houston,TX,77030,priyanka.p.srivastava@uth.tmc.edu,Matching
Ryan,Sriver,University of Illinois at Urbana-Champaign,Department of Atmospheric Sciences,1301 W Green St,MC-104,Urbana,IL,61801,rsriver@purdue.edu,Matching
Srinivasan,Srivilliputhur,University of North Texas,Materials Science and Engineering,1155 Union Circle,#305310,Denton,TX,76203,Srinivasan.Srivilliputhur@unt.edu,Matching
Richard,St. Onge,The University of Texas System,,210 West 7th Street,,Austin,TX,78701-2982,,Matching
Georg,Stadler,New York University,Courant Institute of Mathematical Sciences,251 Mercer Street,#1111 Warren Weaver Hall,New York,NY,10012,stadler@cims.nyu.edu,Matching
George,Stancel,The University of Texas Health Science Center at Houston,Academic & Research Affairs,P.O. Box 20036,,Houston,TX,77225-0036,,Matching
Jonathon,Starkey,The University of Texas Medical Branch at Galveston,The Institute for Translational Sciences,301 University Blvd.,"Research Building 6, Room 6.106",Galveston,TX,77555-1060,,Matching
Pete,Starnes,Firefly Aerospace,,1320 Arrow Point Drive,,Cedar Park,TX,78613,pete.starnes@fireflyspace.com,Matching
Ryan,Steele,University of Utah,Department of Chemistry,315 S 1400 E,,Salt Lake City,UT,84109,ryan.steele@utah.edu,Matching
Katherine,Stemke-Hale,The University of Texas M.D. Anderson Cancer Center,Institutional Shared Resources,P. O. Box 301402,,Houston,TX,77230-1402,,Matching
Walker,Stemple,AWS,,11501 Alterra Parkway,2nd Floor,Austin,TX,78758,,Matching
Alan,Stern,Southwest Research Institute,Boulder Office,1050 Walnut St,Suite 300,Boulder,CO,80302,,Matching
Rick,Stevens,University of Chicago,Computer Science Department,5730 S. Ellis Avenue,John Crerar Library,Chicago,IL,60637,stevens@cs.uchicago.edu,Matching
Adam,Stevenson,GE Research,High Performance Computing,One Research Circle,KW-C120,Niskayuna,NY,12309,,Matching
Craig,Stewart,Indiana University,Research Technologies,2709 E 10th St,,Bloomington,IN,47408,stewart@indiana.edu,Matching
Shawn,Strande,San Diego Supercomputer Center,,9500 Gilman Drive,MC 0505,La Jolla,CA,92093-0505,sstrande@ucsd.edu,Matching
Michael,Strano,Massachusetts Institute of Technology,Dept. of Chemical Engineering,77 Massachusetts Avenue,Room 66-570b,Cambridge,MA,02139,strano@mit.edu,Matching
Alexa,Stuifbergen,The University of Texas at Austin,School of Nursing,1710 Red River St.,D0100,Austin,TX,78712,,Matching
Alejandro,Suarez,National Science Foundation,Directorate for Computer & Information Science & Engineering ,2415 Eisenhower Avenue,E 10457,Alexandria,VA,22314,,Matching
Chuck,Suitor,The University of Texas M.D. Anderson Cancer Center,Office of the CIO,PO BOX 301407,,Houston,TX,77230-1407,,Matching
Ying,Sun,Drexel University,College of Engineering,3141 Chestnut Street,Curtis 151-I,Philadelphia,PA,19104,suny@jsg.utexas.edu,Matching
Sharanya,Sur,Arizona State University,,"Apartment # 124,",1830 East Hayden Lane,Tempe,AZ,85281,ssur06@gmail.com,Matching
Gary,Susswein,The University of Texas at Austin,Office of the President,110 Inner Campus Drive,G3400,Austin,TX,78712,,Matching
Harry,Swinney,University of Texas at Austin,Center for Nonlinear Dynamics,"2515 Speedway, RLM 14.220",C1610,Austin,TX,78712,swinney@chaos.ph.utexas.edu,Matching
William,Symes,Rice University,Department of Computational and Applied Mathematics,6100 Main Street,"CAAM, MS-134",Houston,TX,77005,symes@caam.rice.edu,Matching
Tom,Tabor,HPCwire,,3111 Camino Del Rio North,Suite 400,San Diego,CA,92108,,Matching
Ilias,Tagkopoulos,University of California-Davis,Computer Science,"2063 Kemper Hall, One Shields Avenue",,Davis,CA,95616,iliast@ucdavis.edu,Matching
Emad,Tajkhorshid,University of Illinois,Beckman Institute,405 North Mathews,,Urbana,IL,61801,emad@illinois.edu,Matching
Zhi,Tan,The University of Texas MD Anderson Cancer Center,,1901 East Rd.,Unit 1950,Houston,TX,77054,zhi.tan@uta.edu,Matching
William,Tang,Princeton University,PPPL,P.O. Box 451,,Princeton,NJ,08543-0451,wtang@princeton.edu,Matching
Ming,Tang,Rice University,Materials Science and NanoEngineering,P.O. Box 1892,,Houston,TX,77251-1892,mtang@chop.swmed.edu,Matching
Byron,Tapley,University of Texas at Austin,Aerospace Engineering and Engineering Mechanics,3925 W Braker Ln,WPR 2.6062,Austin,TX,78759,tapley@csr.utexas.edu,Matching
Alexander,Tchekhovskoy,Northwestern University,Department of Physics and Astronomy,2145 Sheridan Road,,Evanston,IL,60208-3112,atchekho@northwestern.edu,Matching
Stephanie,Teich-McGoldrick,Sandia National Laboratories,Sandia National Laboratories,P.O. Box 5800,MS 0754,Albuquerque,NM,87185-0351,steichm@sandia.gov,Matching
Patricia,Teller,The University of Texas at El Paso,Department of Computer Science,500 West University Ave.,,El Paso,TX,79968,pteller@utep.edu,Matching
Jason,TenBarge,Princeton University,Department of Astrophysical Sciences,4 Ivy Lane,Peyton Hall,Princeton,NJ,08544,jason.tenbarge@gmail.com,Matching
Saul A.,Teukolsky,Cornell University,Department of Physics,Space Sciences Bldg.,Room 608,Ithaca,NY,14853-6801,saul@astro.cornell.edu,Matching
Ahmed,Tewfik,The University of Texas at Austin,Electrical and Computer Engineering,2501 SPEEDWAY,C0803,Austin,TX,78712,,Matching
Patrick,Thibodeau,TechTarget,,922 24th St NW Apt 804,,Washington,DC,20037-2234,,Matching
â€‹Devarajan,Thirumalai,The University of Texas at Austin,Chemistry,2506 SPEEDWAY,A5300,Austin,TX,78712-1224,,Matching
Michael,Thomadakis,Chevron,"HPC R&D, Emergin Technologies",1500 Louisiana Street,HOU150 Room 28080,Houston,TX,77002,c.hempel@tacc.cc.utexas.edu,Matching
Donna,Thomas,The University of Texas of the Permian Basin,"Strategy, Technology & Analytics",4901 E. University Blvd.,,Odessa,TX,79762,,Matching
Kevin,Thompson,National Science Foundation,Directorate for Computer & Information Science & Engineering ,2415 Eisenhower Avenue,E 10451,Alexandria,VA,22314,,Matching
Katsuyo,Thornton,University of Michigan,Department of Materials and Science Engineering,2300 Hayward St.,2022 HH Dow,Ann Arbor,MI,48109,kthorn@umich.edu,Matching
Wolfgang,Tichy,Florida Atlantic University,Department of Physics,777 Glades Road,SE 444,Boca Raton,FL,33431-0991,wolf@physics.fau.edu,Matching
Michael,Tidwell,The University of Texas at Tyler,Office of the President,3900 University Blvd.,,Tyler ,TX,75799,,Matching
Dawn,Tilbury,National Science Foundation,Directorate for Engineering,2415 Eisenhower Avenue,C 14000,Alexandria,VA,22314,,Matching
John,Timmer,Ars Technica,,150 Nelson St Apt 2,,Brooklyn,NY,11231-4196,,Matching
Scott,Tinker,The University of Texas at Austin,Bureau of Economic Geology,10100 BURNET RD,E0610,Austin,TX,78758,,Matching
Pratyush,Tiwary,University of Maryland,Department of Chemistry and Biochemistry,8051 Regents Drive,IPST Building (Bldg #85),College Park,MD,20742-2431,ptiwary@umd.edu,Matching
Juri,Toomre,University of Colorado,Department of Astrophysical & Planetary Sciences,JILA Tower A606,MC 440,Boulder,CO,80309-0440,jtoomre@solarz.colorado.edu,Matching
Joanne,Tornow,National Science Foundation,Directorate for Biological Sciences,2415 Eisenhower Avenue,C 12004,Alexandria,VA,22314,,Matching
Carlos,Torres-Verdin,University of Texas at Austin,,"200 E DEAN KEETON ST, Stop C0300",CPE 5.182A,Austin,TX,78712,cverdin@uts.cc.utexas.edu,Matching
John,Towns,National Center for Supercomputing Applications,,"1205 W. Clark St., MC-257",Room 1008,Urbana,IL,61801,jtowns@ncsa.illinois.edu,Matching
Mike,Townsley,ExxonMobil Technical Computing,,22777 Springwoods Village Parkway,"Nature 2, 4B.301",Spring,TX,77389,,Matching
Tiffany,Trader,HPCwire,,3111 Camino Del Rio North,Suite 400,San Diego,CA,92108,,Matching
Tiffany,Trader,HPCWire,,8445 Camino Santa Fe Ste 101,,San Diego,CA,92121-2649,,Matching
Felipe,TrimiÃ±o,Lanier High School,,1201 Payton Gin Rd,,Austin,TX,78758,,Matching
Dallas,Trinkle,University of Illinois,Deppartment of Materials Science and Engineering,1304 W. Green St.,MC 246,Urbana,IL,61801,dtrinkle@illinois.edu,Matching
Jeroen,Tromp,Princeton University,Department of Geosciences,320 Guyot Hall,,Princeton,NJ,08544,jtromp@Princeton.EDU,Matching
Arnaud,Trouve,"University of Maryland, College Park",Mechanical and Aerospace Engineering,3104D J.M. Patterson Building,,College Park,MD,20742,atrouve@umd.edu,Matching
Mario,Trujillo,University of Wisconsin Madison,Department of Mechanical Engineering,1513 University Avenue,2043 Mechanical Engr. Bldg.,Madison,WI,53706,,Matching
Leung,Tsang,University of Michigan,Department of Electrical Engineering & Computer Science,1301 Beal Ave,Radiation Labratory,Ann Arbor,MI,48109-2122,leutsang@umich.edu,Matching
Roman,Tsyshevsky,"University of Maryland, College Park",Department of Material Science & Engineering,4418 Stadium Drive,2135 Chem & Nuclear Eng Bldg,College Park,MD,20742,rtsyshev@umd.edu,Matching
Norm,Tubman,"University of California, Berkeley",Department of Chemistry,406 Latimer Hall #460,19 Gilman Hall,Berkeley,CA,94720-1460,norm.m.tubman@gmail.com,Matching
Louis,Turcotte,Army High Performance Computing Research Center,,3909 Halls Ferry Road,,Vicksburg,MS,39180-6199,,Matching
Daniel,Tward,Johns Hopkins University,Center for Imaging Science,3400 N. Charles Street,301 Clark Hall,Baltimore,MD,21218,dtward@cis.jhu.edu,Matching
James,Ulvestad,National Science Foundation,Office of the Director,2415 Eisenhower Avenue,19100W,Alexandria,VA,22314,,Matching
Junshik,Um,University of Oklahoma,Department of Atmospheric Sciences,105 S. Gregory St.,,Urbana,IL,61801,jum@ou.edu,Matching
Brigita,Urbanc,Drexel University,Department of Physics,3141 Chestnut St,Disque Hall 909,Philadelphia,PA,19104,bu25@drexel.edu,Matching
Ali,Uzun,National Institute of Aerospace,,100 Exploration Way,,Hampton ,VA,23666,auzun@fsu.edu,Matching
Robert,van de Geijn,The University of Texas at Austin,Oden Institute for Computational Engineering and Sciences,201 E 24TH ST,C0200,Austin,TX,78712-1229,rvdg@cs.utexas.edu,Matching
Chris,Van de Walle,"University of California, Santa Barbara",Van de Walle Computational Materials Group,UC Santa Barbara,,Santa Barbara,CA,93106-5050,vandewalle@mrl.ucsb.edu,Matching
Luke,Van Roekel,Los Alamos National Laboratory,,PO Box 1663,,Los Alamos,NM,87545,luke.vanroekel@colorado.edu,Matching
Ashlee,Vance,Bloomberg Businessweek - San Francisco Bureau,,228 Hamilton Ave Fl 3,,Palo Alto,CA,94301-2583,,Matching
Jan,Vandenbrande,DARPA,Defence Secience Office,675 North Rondolph St,,Arlington,VA,22203,jan.vandenbrande@darpa.mil,Matching
Jan,Vandenbrande,Defense Advanced Research Projects Agency,,675 North Randolph Street,,Arlington,VA,22203-2114,jan.vandenbrande@darpa.mil,Matching
Axel,Vandewalle,Brown University,,2225 North Campus Dr.,MC 309-81,Pasadena,IL,91125,avdw@alum.mit.edu,Matching
Gi,Vania,The University of Texas at Dallas,Office of Information Technology,17217 Waterview Parkway,,Dallas,TX,75252,gvania@utdallas.edu,Matching
Jonathan,Vanian,Fortune - San Francisco Bureau,,1 Embarcadero Ctr Ste 750,,San Francisco,CA,94111-3672,,Matching
Vanessa,Varaljay,Air Force Research Lab,,1864 4th St,,"Wright-Patterson AFB,",OH,45433,v.varaljay@gmail.com,Matching
Philip,Varghese,University of Texas at Austin,Dept of Aerospace Engineering & Engineering Mechanics,2617 Wichital St,C0600,Austin,TX,78712,varghese@mail.utexas.edu,Matching
Dimitrios,Vavylonis,Lehigh University,Department of Physics,16 Memorial Drive East,,Bethlehem,PA,18015,vavylonis@lehigh.edu,Matching
Rob,Verger,Popular Science,,2 Park Ave Fl 9,,New York,NY,10016-5614,,Matching
John,Vidale,University of Southern California,Department of Earth Sciences,3651 Trousdale Pkwy,Zumberge Hall of Science (ZHS),Los Angeles,CA,90089-0740,jvidale@usc.edu,Matching
Vojtech,Vlcek,University of California Santa Barbara,Department of Chemisty & Biochemistry,Department of Chemisty & Biochemistry,Chem 4138A,Santa Barbara,CA,93106-9510,vlcek@ucsb.edu,Matching
Vincent,Voelz,Temple University,Department of Chemistry ,1901 N 13th St.,Beury Hall 240,Philadelphia,PA,19122,voelz@temple.edu,Matching
Christopher,Vogit,Massachusetts Institute of Technology,Biological Engineering,500 Technology Square,NE47-140,Cambridge,MA,02139,,Matching
Alexey,Volkov,University of Alabama,Department of Mechanical Engineering,401 7th Ave,3072-G SERC,Tuscaloosa ,AL,35401,avolkov1@ua.edu,Matching
Eric,von Giesen,Defense Advanced Research Projects Agency,,675 North Randolph Street,,Arlington,VA,22203-2114,,Matching
Gregory,Voth,University of Chicago,Department of Chemistry,5735 S Ellis Ave,SCL 123,Chicago,IL,60637,gavoth@uchicago.edu,Matching
Richard,Vuduc,Georgia Institute of Technology,School of Computational Science and Engineering,Klaus Advanced Computing Building,266 Ferst Drive,Atlanta,TX,30332-0765,richie@cc.gatech.edu,Matching
Francois,Waelbroeck,University of Texas at Austin,Institute for Fusion Studies,Institute for Fusion Studies C1500,1 University Station,Austin,TX,78712,flw@mail.utexas.edu,Matching
Jack,Waite,University of Texas at San Antonio,,6220 Culebra Rd.,"San Antonio, TX",San Antonio,TX,78228,hwaite@swri.edu,Matching
Edward,Walker,National Science Foundation,Directorate for Computer & Information Science & Engineering ,2415 Eisenhower Avenue,E 10455,Alexandria,VA,22314,edwalker@nsf.gov,Matching
Amy,Walton,National Science Foundation,Directorate for Computer & Information Science & Engineering ,2415 Eisenhower Avenue,E 10453,Alexandria,VA,22314,,Matching
Zhiwei,Wang,The University of Texas at San Antonio,INFORMATION TECHNOLOGY - 05900,1 UTSA Circle,,San Antonio ,TX,78249,zhiwei.wang@utsa.edu,Matching
Liqiang ,Wang,The University of Texas Southwestern Medical Center ,Lyda Hill Department of Bioinformatics,5323 Harry Hines Blvd.,,Dallas,TX,75390,,Matching
Shaowen,Wang,University of Illinois at Urbana-Champaign,Department of Geography & Geographic Information Science,"Room 2046, Natural History Building",1301 West Green St.,Urbana,IL,61801,shaowen@illinois.edu,Matching
Xuguang,Wang,University of Oklahoma,Department of Meteorlogy,NWC 2500,"120 David Boren Blvd, Suite 5900",Norman,OK,73072,xuguang.wang@ou.edu,Matching
Guofeng,Wang,University of Pittsburgh,Swanson School of Engineering,3700 O'Hara Street,538B Bendum Hall,Pittsburgh,PA,15261,guw8@pitt.edu,Matching
Tandy,Warnow,University of Illinois at Urbana-Champaign,Department of Computing Science,201 North Goodwin Avenue MC 258,,Urbana,IL,61801-2302,warnow@illinois.edu,Matching
Arieh,Warshel,USC,Department of Chemistry,3620 McClintock Ave,SGM 418,Los Angeles,CA,90089,warshel@usc.edu,Matching
Stan,Watowich,The University of Texas Medical Branch at Galveston,Department of Biochemistry & Molecular Biology,301 University Blvd.,623 Basic Science Bldg,Galveston,TX,77555-0645,watowich@xray.utmb.edu,Matching
Edmund,Webb,Lehigh University,Packard Laboratories,19 Memorial Drive West,,Bethlehem,PA,18015,,Matching
Lauren,Webb,University of Texas at Austin,Department of Chemistry,"2506 SPEEDWAY, Stop A5300",,Austin,TX,78712-1224,lwebb@cm.utexas.edu,Matching
Michael,Webber,The University of Texas at Austin,Energy Institute,"204 E DEAN KEETON ST, Stop C2200",,Austin,TX,78712,webber@mail.utexas.edu,Matching
William,Weems,The University of Texas Health Science Center at Houston,McGovern Medical School,6431 Fannin Houston,MSB G.520,Houston,TX,77030-1503,William.A.Weems@uth.tmc.edu,Matching
Renee,Wegzryn,Defense Advanced Research Projects Agency,,675 North Randolph Street,,Arlington,VA,22203-2114,,Matching
Tao,Wei,Howard University,Dept. of Chemical Engineering,"2366 Sixth Street, NW",,Washington,DC,20059,twei2004@gmail.com,Matching
Peng,Wei,University of Texas Health Science Center at Houston,UT School of Public Health,"1200 Herman Pressler Dr., Rm RAS W806",,Houston,TX,77030,Peng.Wei@uth.tmc.edu,Matching
Jon,Weidanz,The University of Texas at Arlington,North Texas Genome Center,200 E. Nedderman Drive,,Arlington,TX,76019,,Matching
Harel,Weinstein,Cornell University,Department of Physiology and Biophysics,1300 York Avenue,E509,New York,NY,10021,haw2002@med.cornell.edu,Matching
David,Weiss,The University of Texas Health Science Center at San Antonio,Graduate School of Biomedical Sciences,7711 Floyd Curl Drive,,San Antonio,TX,78229,,Matching
Jonathan,Weissman,"University of California, San Francisco",Howard Hughes Medical Institute,4000 Jones Bridge Rd,,Chevy Chase,MD,20815,,Matching
John,Weldon School of Biomedical Engineering,UCLA,Mechanical and Aerospace Engineering,420 Westwood Plaza,47-112 Engineering IV ,Los Angeles,CA,90095-1597,,Matching
Jen,Weller,National Science Foundation,Directorate for Biological Sciences,2415 Eisenhower Avenue,W 12239,Alexandria,VA,22314,,Matching
Renata,Wentzcovitch,Columbia University,Lamont-Doherty Earth Observatory,Mail: 61 Route 9W,,Palisades,NY,10964,rmw2150@columbia.edu,Matching
Jeff,Wereszczynski,Illinois Institute of Technology,College of Science,3105 South Dearborn,Room 252,Chicago,IL,60616,jwereszc@iit.edu,Matching
Andrew,Westergren,Allinea/ARM,,33 Mace Road,,Hampton,NH,03842,,Matching
Andrew,Wetzel,"University of California, Davis",Department of Physics,One Shields Ave,533 Physics Building,Davis,CA,95616,awetzel@ucdavis.edu,Matching
Sherri,Whatley,The University of Texas at Tyler,Office of Information Technology,3900 University Blvd.,,Tyler ,TX,75799,,Matching
Mary,Wheeler,The University of Texas at Austin,Oden Institute for Computational Engineering and Sciences,201 E 24TH ST,C0200,Austin,TX,78712-1229,mfw@ices.utexas.edu,Matching
Chris ,White,University of California,Kavli Institute for Theoretical Physics,,Kohn Hall,Santa Barbara,CA,93106-4030,,Matching
Deborah J.,White-Wilkins,National Science Foundation,Directorate for Computer & Information Science & Engineering ,2415 Eisenhower Avenue,E 10460B,Alexandria,VA,22314,,Matching
Lauren ,Whitehead,Learn All The Time,,8509 FM 969 ,Building 509,Austin,TX,78724,,Matching
Kevin,Wiehe,Duke University,Department of Medicine,106 Research Dr.,MSRBII Box 103020,Durham,NC,27710,,Matching
Douglas,Wiens,Washington University in St. Louis,Department of Earth and Planetary Sciences,1 Brookings Drive,CB 1169,St. Louis,MO,63130-4899,doug@wustl.edu,Matching
â€‹Claus,Wilke,The University of Texas at Austin,Integrative Biology,2415 SPEEDWAY,C0930,Austin,TX,78712-1211,,Matching
Scott ,Wilkin,National Center for Supercomputing Applications,,"1205 W. Clark St., MC-257",Room 1008,Urbana,IL,61801,,Matching
Nancy,Wilkins-Dier,University of California - San Diego,San Diego Supercomputing Center,9500  Gilman Drive,,La Jolla,CA,92093-0505,,Matching
Stephen,Willard,Cellphire,,9430 Key West Avenue ,,Rockville,MD,20850,,Matching
Karen,Willcox,The University of Texas at Austin,Oden Institute for Computational Engineering and Sciences,201 E 24th Street,C0200,AUSTIN,TX,78712-1229,,Matching
Chris,Williams,"Register - San Francisco Bureau, The",,600 California Street,11th Floor,San Francisco,CA,94108,,Matching
Lance,Williams,The University of Texas at Tyler,Department of Biology,3900 University Blvd,,Tyler,TX,75799,,Matching
Roger,Williams,US House of Representatives,,1005 Congress Avenue ,Suite 925,Austin,TX,78701,,Matching
Jay,Williamson,Chevron,,7402 Forest Shadow Dr,,Sugar Land,TX,77479,jay.williamson@chevron.com,Matching
Kristin,Williamson,National Center for Supercomupting Applications,Marketing & Public Affairs,1205 W. Clark St.,"MC-257, Room 108",Urbana,IL,61801,,Matching
Robert,Willms,Shell Information Technology International,,150 N. Dairy Ashford Road,Suite C0516M,Houston,TX,77079,,Matching
Bryan,Wilson,The University of Texas at San Antonio,INFORMATION TECHNOLOGY,1 UTSA Circle,BOS 2.418,San Antonio ,TX,78249,,Matching
James,Wilson,University of Illinois at Urbanaâ€“Champaign,Loomis Laboratory of Physics,1110 West Green Street,261 LLP,Urbana,IL,61801-3080,jmw008@ucsd.edu,Matching
John,Wise,Georgia Institute of Technology,School of Physics,837 State Street,,Atlanta,GA,30332,jwise@physics.gatech.edu,Matching
Lori,Wiseman,The University of Texas Medical Branch at Galveston,The Institute for Translational Sciences,301 University Blvd.,"Research Building 6, Room 6.106",Galveston,TX,77555-1060,,Matching
Christopher,Wolverton,Northwestern University,McCormick School of Engineering,2220 Campus Drive,Cook Hall 2036,Evanston,IL,60208,,Matching
Sharon,Wood,The University of Texas at Austin,Cockrell School of Engineering,301 E. Dean Keeton Street,C2100,Austin,TX,78712,,Matching
Alex,Woodie,Datanami,,8445 Camino Santa Fe Ste 101,,San Diego,CA,92121-2649,,Matching
Thomas,Woolf,Johns Hopkins University,School of Medicine,Biophysics 206,725 N. Wolfe St.,Baltimore,MD,21205,twoolf@jhmi.edu,Matching
Floyd,Wormley,The University of Texas at San Antonio,BIOLOGY - 01860,1 UTSA Circle,MBT 1.242,San Antonio ,TX,78249,,Matching
Momiao,Xiong,University of Texas Health Science Center at Houston,,P.O. Box 20186,,Houston,TX,77225,momiao.xiong@uth.tmc.edu,Matching
Haixuan,Xu,University of Tennessee Knoxville,Materials Science and Engineering,1508 Middle Drive,336 Ferris Hall,Knoxville,TN,37996-2100,xhx@utk.edu,Matching
Yuan,Xuan,Penn State University,College of Engineering,106 Research East Building,,University Park,PA,16802,yxuan@caltech.edu,Matching
Yongkang,Xue,"University of California, Los Angeles",Department of Geography,1255 Bunche Hall,,Los Angeles,CA,90095-1524,yxue@geog.ucla.edu,Matching
Ming,Xue,University of Oklahoma,School of Meterology,NWC Suite 2500,120 David Boren Blvd.,Norman,OK,73072,mxue@ou.edu,Matching
Boris,Yakobson,Rice University,Department of Chemistry,6100 Main Street,233 Mechanical Engr. Bldg,Houston,TX,77005,biy@rice.edu,Matching
Zong-Liang,Yang,University of Texas at Austin,Jackson School of Geosciences,2305 Speedway Stop C1160,,Austin,TX,78712-1677,liang@jsg.utexas.edu,Matching
Thomas,Yankeelov,The University of Texas at Austin,Oden Institute for Computational Engineering and Sciences,107 W DEAN KEETON ST,C0800,Austin,TX,78712-1801,thomas.yankeelov@utexas.edu,Matching
Pui-kuen,Yeung,Georgia Institute of Technology,Daniel Guggenheim School of Aerospace Engineering,270 Ferst Dr,Guggenheim 361,Atlanta,GA,30332-0150,pk.yeung@ae.gatech.edu,Matching
Enoch,Yeung,"University of California, Santa Barbara",Mechanical Engineering,"University of California, Santa Barbara",,Santa Barbara,CA,93106-5070,eyeung@ucsb.edu,Matching
Bilge,Yildiz,Massachusetts Institute of Technology,Nuclear Science and Engineering,"24-210, 77 Massachusetts Ave. Cambridge, MA 02139",,Cambridge,MA,02139-4307,byildiz@mit.edu,Matching
Ali,Yilmaz,The University of Texas at Austin,Electrical and Computer Enginering,2501 SPEEDWAY,C0803,Austin,TX,78712,ayilmaz@mail.utexas.edu,Matching
John,Yoder,The University of Texas Health Science Center at Tyler,Office of Information Technology,11937 US-271,,Tyler ,TX,75708,,Matching
Michael,Young,The University of Texas at Austin,Bureau of Economic Geology,10611 Exploration Way,E0610,Austin,TX,78758,youngmd@iu.edu,Matching
Alireza,Zarif-Khalili-Yazdani,Brown University,Division of Applied Mathematics,182 George Street,,Providence,RI,02912,alireza_yazdani@brown.edu,Matching
Michael,Zavada,The University of Texas of the Permian Basin,College of Arts and Sciences ,4901 E. University Blvd.,Room ST 1226A,Odessa,TX,79762,zavada_m@utpb.edu,Matching
Alexey,Zayak,Bowling Green State University,Department of Physics & Astronomy,"Center for Photochemical Sciences, 171 Overman Hall",,Bowling Green,OH,43403,azayak@bgsu.edu,Matching
Luis,Zayas,The University of Texas at Austin,School of Social Work,1 University Station,D3500,Austin,TX,78712,,Matching
Michael,Zenter,Purdue University,ITaP Research Computing,155 South Grant St,,West Lafayette,IN,47907,,Matching
Yongjie,Zhang,Carnegie Mellon University,Mechanical Engineering,5000 Forbes Ave,318 Scaife Hall,Pittsburgh,PA,15213,jessica@ices.utexas.edu,Matching
Yang,Zhang,North Carolina State University at Raleigh,"Department of Marine, Earth, and Atmospheric Sciences","Campus Box 8208, #1125,Jordan Hall",2800 Faucette Drive,Raleigh,NC,27695,yzhang8@cs.rice.edu,Matching
Fuqing,Zhang,Pennsylvania State University,Department of Meteorology and Atmospheric Science,627A Walker Building,,University Park,PA,16802,fzhang@psu.edu,Matching
Shuxing,Zhang,The University of Texas MD Anderson Cancer Center,Department of Experimental Therapeutics,1901 East Rd.,Unit 1950,Houston,TX,77054,shuzhang@mdanderson.org,Matching
Yang,Zhang,University of Michigan,Biological Chemistry,100 Washtenaw Avenue,,Ann Arbor,MI,48109-2218,yzhang8@cs.rice.edu,Matching
Vladimir,Zhdankin,Princeton University,Department of Astrophysical Sciences,4 Ivy Lane,102 Peyton Hall,Princeton,NJ,08544,zhdankin@princeton.edu,Matching
Jim,Zheng,The University of Texas Health Science Center at Houston,School of Biomedical Informatics,7000 Fannin St,Suite 600,Houston,TX,77030,,Matching
Lianyuan,Zheng,University of South Florida,College of Marine Science,140 7th Avenue South,,St. Petersburg,FL,33701,lzheng@mail.usf.edu,Matching
Yuebing,Zheng,University of Texas at Austin,Department of Mechanical Engineering,"204 E. Dean Keeton Street, Stop C2200",,Austin,TX,78712,zheng@austin.utexas.edu,Matching
Leonid,Zhigilei,University of Virginia,School of Engineering,"395 McCormick Road, P.O. Box 400745",,Charlottesville,VA,22904,lz2n@virginia.edu,Matching
Adelyn,Zhou,Forbes Online,,499 Washington Blvd,,Jersey City,NJ,07310-1995,,Matching
Caizhi,Zhou,Missouri University of Science and Technology,Materials Science and Engineering,1400 N. Bishop,B37 McNutt Hall,Rolla,MO,65409,zhouc@mst.edu,Matching
Xiaobo,Zhou,The University of Texas Health Science Center of Houston,School of Biomedical Informatics,7000 Fannin St.,UCT600,Houston,TX,77030,Xiaobo.Zhou@uth.tmc.edu,Matching
Weidong,Zhou,University of Texas at Arlington,Department of Electrical Engineering,202A NanoFAB Center,500 South Cooper St.,Arlington,TX,76019-0072,wzhou@uta.edu,Matching
Wu,Zhu,"Diamond Offshore Drilling, Inc.",,15415 Katy Freeway,,Houston,TX,77094,wzhu@dodi.com,Matching
Cheng,Zhu,Georgia Institute of Technology,George W. Woodruff Schoolof Mechanical Engineering,801 Ferst Drive,,Atlanta,GA,30332-0405,cheng.zhu@bme.gatech.edu,Matching
Roseanna,Zia,Stanford University,Chemical Engineering,"443 Via Ortega, Room 129",,Stanford,CA,94305,rzia@stanford.edu,Matching
Cori,Zigler,The University of Texas at Austin,"Dell Medical School, Health Disovery Building","1601 Trinity, Bldg. B",Z0400,Austin,TX,78712-1871,,Matching
Andrew,Zinn,The University of Texas Southwestern Medical Center ,Graduate School of Biomedical Sciences,5323 Harry Hines Blvd.,,Dallas,TX,75390,andrew.zinn@utsouthwestern.edu,Matching
Ziliang,Zong,Texas State University,Department of Computer Science,601 University Drive,CMAL 301C,San Marcos,TX,78666-4684,zz11@txstate.edu,Matching
Rajendra,Zope,University of Texas at El Paso,Department of Physics,500 West University Avenue,,El Paso,TX,79968,rzope@utep.edu,Matching
Maria,Zuber,MIT,Vice President for Research,77 Massachusetts Avenue,Room 3-234,Cambridge,MA,02139-4307,,Matching
Jan,Zverina,San Diego Supercomputer Center,External Relations,10100 Hopkins Drive,MC 0505,La Jolla,CA,92093-0505,,Matching
Margaret,Martonosi,National Science Foundation,Directorate for Computer & Information Science & Engineering ,2415 Eisenhower Avenue,E 10006,Alexandria,VA,22314,,Matching
Admela,Jukan,National Science Foundation,Directorate for Computer & Information Science & Engineering ,2415 Eisenhower Avenue,C 10020A,Alexandria,VA,22314,,Matching
Joseph M.,Whitmeyer,National Science Foundation,Directorate for Computer & Information Science & Engineering ,2415 Eisenhower Avenue,W 13249	,Alexandria,VA,22314,,Matching
Beth Ann,Plale,National Science Foundation,Directorate for Computer & Information Science & Engineering ,2415 Eisenhower Avenue,E 10475,Alexandria,VA,22314,,Matching
Bonnie,Mountain,National Science Foundation,Directorate for Computer & Information Science & Engineering ,2415 Eisenhower Avenue,E 10460D,Alexandria,VA,22314,,Matching
Cynthia,Jackson,National Science Foundation,Directorate for Computer & Information Science & Engineering ,2415 Eisenhower Avenue,E 10452B	,Alexandria,VA,22314,,Matching
Alan,Sussman,National Science Foundation,Directorate for Computer & Information Science & Engineering ,2415 Eisenhower Avenue,E 10416	,Alexandria,VA,22314,,Matching
Tevfik,Kosar,National Science Foundation,Directorate for Computer & Information Science & Engineering ,2415 Eisenhower Avenue,E 10452C	,Alexandria,VA,22314,kosar@cct.lsu.edu,Matching
Walter Rance,Cleaveland II,National Science Foundation,Directorate for Computer & Information Science & Engineering ,2415 Eisenhower Avenue,W 10231,Alexandria,VA,22314,,Matching
Gurdip,Singh,National Science Foundation,Directorate for Computer & Information Science & Engineering ,2415 Eisenhower Avenue,E10485	,Alexandria,VA,22314,,Matching
Joydip,Kundu,National Science Foundation,Directorate for Computer & Information Science & Engineering ,2415 Eisenhower Avenue,W 10136	,Alexandria,VA,22314,,Matching
Maria,Zemankova,National Science Foundation,Directorate for Computer & Information Science & Engineering ,2415 Eisenhower Avenue,W 10132,Alexandria,VA,22314,,Matching
Alan,Tessier,National Science Foundation,Directorate for Biological Sciences,2415 Eisenhower Avenue,C 12006	,Alexandria,VA,22314,,Matching
Sylvia,James,National Science Foundation,Directorate for Education & Human Resources,2415 Eisenhower Avenue,C 11006	,Alexandria,VA,22314,,Matching
Linda,Blevins,National Science Foundation,Directorate for Engineering,2415 Eisenhower Avenue,C 14000	,Alexandria,VA,22314,,Matching
Cecile,Gonzalez,National Science Foundation,Directorate for Engineering,2415 Eisenhower Avenue,C 14018	,Alexandria,VA,22314,cjgonzal@nsf.gov,Matching
Andres,Clarens,Department of Civil and Environmental Engineering,The University of Virginia,"351 McCormick Road, PO Box 400742","Thornton Hall, Office: D220",Charlottesville,VA,22904-1000,,Matching
Scott,Borg,National Science Foundation,Directorate for Geosciences,2415 Eisenhower Avenue,C 8006	,Alexandria,VA,22314,,Matching
Sean,Jones,National Science Foundation,Directorate for Mathematical & Physical Sciences,2415 Eisenhower Avenue,C 9004	,Alexandria,VA,22314,,Matching
Kellina,Craig-Henderson,National Science Foundation,"Directorate for Social, Behavioral & Economic Sciences",2415 Eisenhower Avenue,C 13004,,VA,22314,,Matching
Dan,Reed,The University of Utah,,201 Presidents Circle,Room 205,Salt Lake City,UT,84112,,Matching
Sarah,Bates,National Institutes of Health,National Human Genome Research Institute,31 CENTER DR,BG 31 RM 4B09,BETHESDA,MD,20892,,Matching
Carl,Carlson,College of William and Mary,Physics Department,PO Box 8795,Small Hall 326C,Williamsburg,VA,23187-8795,carlson@physics.wm.edu,Matching
Carlton,deTar,University of Utah,,115 S. 1400 East ,201 James Fletcher Bldg.,Salt Lake City,UT,84112-0830,,Matching
Paul,Woodward,University of Minnesota,School of Physics & Astronomy,116 Church Street S.E.,,Minneapolis,MN,55455,paul@lcse.umn.edu,Matching
Ebrahim,Eslami,Houston Advanced Research Center,,8801 Gosling Road,,The Woodlands,TX,77381,eeslami@central.uh.edu,Matching
Kristen,Harris,University of Texas at Austin,"Department of Neuroscience, Center for Learning and Memory",100 E 24th St,NHB 2.506,Austin,TX,78712,kharris@mail.clm.utexas.edu,Matching
Uri,Manor,Salk Institute for Biological Studies,,11086 Cedarcrest Way,,San Diego,CA,92121,umanor@salk.edu,Matching
Ganesh,Balasubramanian,Lehigh University,561 Packard Lab,19 Memorial Drive West,,Bethlehem,PA,18015,bganesh@iastate.edu,Matching
Chi-kwan,Chan,Steward Observatory,,933 North Cherry Ave.,Rm 332,Tucson,AZ,85721,chanc@email.arizona.edu,Matching
Jessica,Marquez,,,5201 Ross Road,,Del Valle,TX,78617,jess.marquez98@gmail.com,Matching
Olexandr,Isayev,Carnegie Mellon University,,"160 E Station Square Dr, Apt #304",,Pittsburgh,PA,15219,olexandr@olexandrisayev.com,Matching
Erin,Wirth Moriarty,University of Washington,,4000 15th Avenue NE,"Johnson Hall Rm-070, Box 351310",Seattle,WA,98195,,Matching
Charles,Gammie,University of Illinois,Loomis Laboratory of Physics,1110 W Green St,,Urbana,IL,61801,gammie@uiuc.edu,Matching
Peter,Kasson,University of Virginia,Departments of Molecular Physiology and Biological Physics,Box 800886,,Charlottesville,VA,22908,kasson@cs.stanford.edu,Matching
Hotaka,Shiokawa,,,28 Galen St,,Waltham,MA,02451,hotaka84@gmail.com,Matching
Russ,Poldrack,Stanford University,Department of Psychology,"Bldg. 420, Jordan Hall",,Stanford,CA,94305,,Matching
Vicky (Mingna),Zhuang,University of Texas El Paso,Biological Sciences,500 University Ave,B209 Biology Building,El Paso,TX,79968,,Matching
Alex,Huth,The University of Texas at Austin,Departments of Computer Science & Neuroscience,100 E. 24th St.,NHB 2.504,Austin,TX,78712,,Matching
Gabriele,Merlo,The University of Texas at Austin,Oden Institute for Computational Engineering and Sciences,201 E. 24th Street,POB 4.102,Austin,TX,78712-1229,gmerlo@ices.utexas.edu,Matching
Alyson,Brooks,Rutgers University,Dept of Physics & Astronomy,136 Frelinghuysen Rd,,Piscataway,NJ,08854,abrooks@physics.rutgers.edu,Matching
Gabor,Toth,University of Michigan,"Dept. of Climate and Space, Center for Space Environment Modeling",2455 Hayward,"1424-C, Space Research Bldg",Ann Arbor,MI,48109,gtoth@umich.edu,Matching
Skirmantas,Janusonis,"University of California, Santa Barbara",Psychological & Brain Sciences,"Psychology East, Room 2827",,Santa Barbara,CA,93106-9660,janusonis@ucsb.edu,Matching
Ying,Li,University of Connecticut,Department of Mechanical Engineering,Department of Mechanical Engineering,,Storrs,CT,06269,yingli@iastate.edu,Matching
Christine,Goulet,University of Southern California,Southern California Earthquake Center,3651 Trousdale Parkway #169,,Los Angeles,CA,90089-0742,cgoulet@usc.edu,Matching
Feliciano,Giustino,The University of Texas at Austin,Oden Institute for Computational Engineering and Sciences,"201 E. 24th Street, POB 4.102",1 University Station (C0200),Austin,TX,78712-1229,giustino@civet.berkeley.edu,Matching
Hari,Subramoni,Ohio State University,"Department of Computer Science and Engineering,",2015 Neil Avenue,772 Dreese Laboratories,Columbus,OH,43210-1277,subramon@cse.ohio-state.edu,Matching
Fatemeh,Khalili,University of Illinois at Urbana-Champaign,Department of Physics,405 N Mathews,3165 Beckman Institute,Urbana,IL,61801,akhalili@uic.edu,Matching
Lorraine,Hwang,"University of California, Davis",Department of Earth and Planetary Sciences,2215A Earth & Physical Science Bldg.,,Davis,CA,95616,ljhwang@ucdavis.edu,Matching
Cheng-Chien,Chen,"University of Alabama, Birmingham",Department of Physics,1300 University Blvd.,"Campbell Hall, Rm. 310",Birmingham,AL,35233,chencc@stanford.edu,Matching
David,Vanderbilt,"Rutgers, The State University of New Jersey",Department of Physics and Astronomy,136 Frelinghuysen Road,,Piscataway,NJ,08854-8019,dhv@physics.rutgers.edu,Matching
Patrick,Heimbach,The University of Texas at Austin,Oden Institute for Computational Engineering and Sciences,"201 E. 24th Street, POB 4.102",1 University Station (C0200),Austin,TX,78712-1229,heimbach@mit.edu,Matching
Hari,Sundar,University of Utah,College of Computing,50 S. Central Campus Drive,Room 3190,Salt Lake City,UT,84112,hari@ices.utexas.edu,Matching
Ashok,Srinivasan,University of West Florida,Computer Science Department,11000 University Pkwy,"Building 4, Room 445",Pensacola,FL,32514,asrinivasan@uwf.edu,Matching
Alfredo,Cardenas,The University of Texas at Austin,Oden Institute for Computational Engineering and Sciences,"201 E. 24th Street, POB 4.102",1 University Station (C0200),Austin,TX,78712-1229,alfredo@ices.utexas.edu,Matching
Diana,Marculescu,The University of Texas at Austin,Department of Electrical and Computer Engineering,2501 SPEEDWAY,,AUSTIN,TX,78712,,Matching
Ann Huff,Stevens,The University of Texas at Austin,Department of Economics,110 INNER CAMPUS DR,,Austin,TX,78712,,Matching
Col. Paul,Tombarge,The University of Texas at Austin,Air Force Science,116 INNER CAMPUS DR,,AUSTIN,TX,78712,,Matching
David,Schnyer,The University of Texas at Austin,Department of Psychology,108 E. Dean Keeton Stop A8000,SEA 4.208,AUSTIN,TX,78712,schnyer@utexas.edu,Matching
Volker,Bromm,The University of Texas at Austin,Department of Astronomy,2515 SPEEDWAY,,AUSTIN,TX,78712,vbromm@astro.as.utexas.edu,Matching
Jennifer,Brodbelt,The University of Texas at Austin,Department of Chemistry,105 E 24TH ST,,AUSTIN,TX,78712,jbrodbelt@mail.utexas.edu,Matching
Catherine,Calder,The University of Texas at Austin,Department of Statistics and Data Sciences,2317 SPEEDWAY,,AUSTIN,TX,78712,,Matching
Amy,Young,The University of Texas at Austin,"Dell Medical School, Department of Women's Health",1601 TRINITY ST BLDG A,SZB 562J,AUSTIN,TX,78712,,Matching
Claudia,Mora,The University of Texas at Austin,Jackson School of Geoscience,Institute for Geophysics,,Austin,TX,78758,,Matching
Mark,Asta,"University of California, Berkeley",Materials Science and Engineering,319 Hearst Memorial Mining Building,,Berkeley,CA,94720-1760,mdasta@berkeley.edu,Matching
Yuebing,Zheng,The University of Texas at Austin,Department of Mechanical Engineering,204 E. Dean Keeton Street,"Stop C2200, ETC 9.174",Austin,TX,78712-1591,zheng@austin.utexas.edu,Matching
Jeff,Berman,University of Washington,Civil & Environmental Engineering,201 More Hall,Box 352700,Seattle,WA,98195-2700,,Matching
Aleksandra,Vojvodic,University of Pennsylvania,Penn Engineering,220 South 33rd Street  ,107 Towne Building,Philadelphia,PA,19104-6391,alevoj@seas.upenn.edu,Matching
Kaushik,Joshi,Commonwealth Center for Advanced Manufacturing,,Commonwealth Center for Advanced Manufacturing,,Prince George County,VA,23842,kj3zd@virginia.edu,Matching
Amit,Majumdar,University of California San Diego,San Diego Supercomputer Center,9500 Gilman Drive,,La Jolla,CA,92093-0505,ammajumdar@yahoo.com,Matching
Abhijit,Majumder,Wayne State University,College of Liberal Arts and Sciences,4841 Cass Avenue,2155 Old Main,Detroit,MI,48201,majumder@wayne.edu,Matching
Mahmoud,Hussein,"University of Colorado, Boulder",Smead Aerospace Engineering Sciences,3775 Discovery Drive,429 UCB,Boulder,CO,80303,mih@colorado.edu,Matching
Deanna,Hence,University of Illinois at Urbana-Champaign,Department of Atmospheric Science,1301 W. Green Street,Mail Code: MC-104,Urbana,IL,61801,dhence@illinois.edu,Matching
David,Guszejnov,The University of Texas at Austin,Department of Astronomy,2515 SPEEDWAY,Stop C1400,Austin,TX,78712,guszejnov.david@gmail.com,Matching
Pedram,Hassanzadeh,Rice University,Department of Mechanical Engineering,P.O. Box 1892,MS-321,Houston,TX,77251-1892,pedram@me.berkeley.edu,Matching
Fanyou,Kong,University of Oklahoma,School of Meteorology,120 David L Boren Blvd. ,Suite 5900,Norman,OK,73072,fkong@ou.edu,Matching
Tim,Brown,Spire Global,,1825 33rd Street,,Boulder,CO,80302,,Matching
Andrey,Shinkarev,AbbVie Inc,,1 North Waukegan Road,,North Chicago,IL,60064,,Matching
Christine,Fronczak,AMD Santa Clara,HPC Segment Manager - AMD EPYC,2485 Augustine Drive,,Santa Clara,CA,95054,,Matching
Ian,Fisk,Flatiron Institute,Scientific Computing Core,162 Fifth Avenue,,New York,NY,10010,,Matching
Bob,Wientzen,Quantum,,1172 W Century Drive,Suite 280,Louisville,CO,80027,,Matching
Tim,Brewer,Synthetik Applied Technologies,,701 Brazos Street,,Austin,TX,78701,brewer@uwyo.edu,Matching
Wing,Zeng,,,13535 Lyndhurst St.,APT #4408,Austin,TX,78717,wingzengying@gmail.com,Matching
Helen ,Turner,Chaminade University,,1022 Prospect Street ,APT 1108,Honolulu,Hawaii,96822,,Matching
Lauren ,Moseley,Columbia University,Lamont-Doherty Earth Observatory,61 Route 9W,,Palisades,NY,10964,,Matching
Jonathan,Amith,,,42 Hanover Street,,Gettysburg,PA,17325,,Matching
Branden,Moore,Numerical Algorithms Group ,,1803 Briarpark Dr,,Houston,TX,77042,,Matching
Rob,Meyer,Numerical Algorithms Group ,,10 Jefferson Rd ,Apt 2C,Webster Groves,MO,63119,,Matching
Ilana,Dahan,,,141 N Carson Road,,Beverly Hills,CA,90211,,Matching
Mayer,Dahan,,,139 S Laurel Ave,,Los Angeles,CA,90048,,Matching
Connie,Allen,The University of Texas Rio Grande Valley,Chemistry,1201 West University Dr,ESCNE 3360,Edinburg,TX,78539,,Matching
Shervin,Fatehi,The University of Texas Rio Grande Valley,Chemistry,1201 West University Dr,ESCNE 3308,Edinburg,TX,78539,shervin.fatehi@utrgv.edu,Matching
Andreas,Hanke,The University of Texas Rio Grande Valley,Department of Physics and Astronomy,1 West University Blvd,LHSB 2220,Brownsville,TX,78520,andreas.hanke@utrgv.edu,Matching
Ahmed ,Touhami,The University of Texas Rio Grande Valley,Department of Physics and Astronomy,1 West University Blvd,M1 204,Brownsville,TX,78520,,Matching
Karl,Berg,The University of Texas Rio Grande Valley,Biology,1 West University Blvd,LHSB 1.832,Brownsville,TX,78520,karl.berg@utrgv.edu,Matching
Chu-Lin,Cheng,The University of Texas Rio Grande Valley,"School of Earth, Environmental, and Marine Sciences",1201 West University Dr,ESCNE 2617,Edinburg,TX,78539,,Matching
Cheryl,Harrison,The University of Texas Rio Grande Valley,"School of Earth, Environmental, and Marine Sciences",901 S Garcia St,PPOB 1400,Port Isabel,TX,78578,cheryl.harrison@utrgv.edu,Matching
Tiziana,Di Matteo,,,,,,,,tiziana+hide@cmu.edu,New row
CHRISTOPHER,SIMMONS,,,,,,,,simmons@utdallas.edu,New row
Omar,Ghattas,,,,,,,,oghattas@cs.cmu.edu,New row
KERWYN,HUANG,,,,,,,,kch23@mit.edu,New row
Jason,Tenbarge,,,,,,,,jtenbarg@physics.utexas.edu,New row
George,Biros,,,,,,,,biros@ices.utexas.edu,New row
Ali,Dogru,,,,,,,,ali.dogru@aramco.com,New row
aldo,Romero,,,,,,,,aromero@qro.cinvestav.mx,New row
MICHAEL,SHIRTS,,,,,,,,mrshirts@gmail.com,New row
celso,ferreira,,,,,,,,celsoferreira@tamu.edu,New row
ying,sun,,,,,,,,ying.sun@gradmail.ims.uconn.edu,New row
yong,Chen,,,,,,,,ychen.upenn@gmail.com,New row
aldo,romero,,,,,,,,alromero@mail.wvu.edu,New row
Liqiang,Wang,,,,,,,,liqiang.wang@utsouthwestern.edu,New row
zhi,tan,,,,,,,,zhi.tan@uth.tmc.edu,New row
YING,LI,,,,,,,,YL2565@COLUMBIA.EDU,New row
zhaohuan,zhu,,,,,,,,zhaohuan.zhu@unlv.edu,New row
suman,sirimulla,,,,,,,,ssirimulla@utep.edu,New row
MUKUL,SHARMA,,,,,,,,muksharma@cs.stonybrook.edu,New row
yang,zhang,,,,,,,,yang.zhang@stonybrook.edu,New row
Alex,zunger,,,,,,,,alex.zunger@gmail.com,New row
Ruby,Mendenhall,,,,,,,,rubymen@illinois.edu,New row
Ahmed,Touhami,,,,,,,,ahmed.touhami@utrgv.edu,New row
First Name,Last Name,,,,,,,,,New row
Celso,Ferreira,George Mason University,Volgenau School of Engineering,4400 University Drive,MS 6C1,Fairfax,VA,22030,,Non-matching
Michael,Shirts,University of Colorado-Boulder,Chemical and Biological Engineering,596 UCB,,Boulder ,CO,80305-5719,,Non-matching
Christopher,Simmons,The University of Texas at Dallas,Office of Information Technology,17217 Waterview Parkway,,Dallas,TX,75252,,Non-matching
Suman,Sirimulla,The University of Texas at El Paso,School of Pharmacy,500 West University Ave.,,El Paso,TX,79968,,Non-matching
Zhaohuan,Zhu,"University of Nevada, Las Vegas",Department of Physics and Astronomy,4505 S. Maryland Pkwy,"Room 245, BPB Building",Las Vegas,NV,89154-4002,,Non-matching
Alex,Zunger,University of Colorado - Boulder,Renewable & Sustainable Energy Institute,027 UCB ,Suite N321,Boulder,CO,80309-0027,,Non-matching